{"type":"FeatureCollection","features":[{"type":"Feature","properties":{"slug":"mosel-duitsland","name":"Mosel","source":"https://doi.org/10.6084/m9.figshare.19312094","sourceIds":["PDO-DE-A1270"],"resolution":"municipality","sourceYear":2022,"labelLonLat":[7.03385,49.93155],"scope":"Union of the named PDO geographical areas; not planted-vineyard parcels."},"geometry":{"type":"Polygon","coordinates":[[[6.380378999482507,49.466153000308225],[6.375013499702861,49.46412599971999],[6.367107500642876,49.469507000354966],[6.3675199996676985,49.50273050019035],[6.3569469993780405,49.530877999737996],[6.378634000610308,49.54908899975986],[6.3821810002650965,49.55693999998654],[6.359014999384379,49.57029949979617],[6.357852000454595,49.573820500345036],[6.367680999579796,49.57864350015648],[6.3809624999836885,49.57717599957266],[6.374925500291906,49.59189399965087],[6.385821999852114,49.5998839997109],[6.39983549976058,49.602717999881314],[6.4214345001874085,49.620048499754795],[6.440802999383386,49.65592050041152],[6.437787500636724,49.65993399968687],[6.4266004996835475,49.66123600032722],[6.429960499924877,49.66885699971408],[6.4473070001834385,49.67824999967338],[6.460231999847936,49.691417999630325],[6.480366000361376,49.69681450012017],[6.496198000165228,49.70967799961045],[6.507018499557826,49.712640499991245],[6.495977000638067,49.72595599969724],[6.502574500675566,49.72670599970966],[6.511636500060947,49.72108849993834],[6.517163000657674,49.723595000075974],[6.5016320004436645,49.73470549973769],[6.5004985002283755,49.752139000431306],[6.5186200005227,49.76244950033745],[6.517547000015863,49.76873950031567],[6.509760499657016,49.77415850039456],[6.516817999817147,49.78324599988384],[6.505873999951768,49.789411999583],[6.520995999324334,49.79698550038174],[6.530681999947629,49.80624049968594],[6.520192499681589,49.81314399996615],[6.511375000131965,49.80179199976873],[6.504973000139708,49.80960550039102],[6.484869500320855,49.8136734997161],[6.476429499912582,49.8229320001796],[6.483167000081593,49.821927000025255],[6.4892065003013135,49.82500600036665],[6.4842919997039115,49.82663400018245],[6.504012500217454,49.83907000026465],[6.509439500422807,49.83808250003069],[6.518719999885386,49.84192299983357],[6.527575999348105,49.84128449997271],[6.533484999771174,49.83230050039839],[6.539573500478294,49.830278500004326],[6.543379000403213,49.83275350035177],[6.545158999437562,49.82800400021386],[6.553657499762718,49.8252189996615],[6.558876499408047,49.827949999889896],[6.561796500343993,49.82500750035495],[6.568434999371229,49.827560499714295],[6.570773999419273,49.80887449955149],[6.562328500315939,49.79990549978103],[6.569345500002878,49.800221000053256],[6.5665885001054916,49.793551499792514],[6.527051000289918,49.77590899998301],[6.529667500149442,49.76491299988796],[6.5365870000026955,49.76171799981488],[6.53343049990611,49.751697000126825],[6.536529000361947,49.75072399969724],[6.539350499964587,49.755588999804154],[6.5465595002652925,49.75334500018939],[6.5471725006886885,49.74562699997415],[6.541596500350085,49.74563949994692],[6.535685000593023,49.73881999971644],[6.546641999381026,49.74292400010015],[6.55423499965004,49.73976450026089],[6.575903999638516,49.75701299979783],[6.603193999840884,49.75584650021901],[6.601106999973393,49.75755949988013],[6.618911999419539,49.76442849953808],[6.612965499959177,49.76527199958966],[6.609332999431433,49.770480499798296],[6.593791499731762,49.772416999553414],[6.590328999540836,49.78015449970353],[6.602230999790075,49.779381999587095],[6.594959499901403,49.783752999741125],[6.597751000543127,49.78517350007545],[6.6188160000472225,49.783147999939516],[6.632632499671337,49.784926000418245],[6.635472500611855,49.80279849987183],[6.650643499923035,49.80671299965228],[6.660015500413707,49.81334699986756],[6.6602489998982914,49.82342000027408],[6.6670115000453505,49.82781099980043],[6.664121999718742,49.829048499803534],[6.673513500269026,49.853367999957],[6.690032499576265,49.85619099984788],[6.691067500228202,49.86296400029796],[6.708961999751861,49.87045750010643],[6.710767999766322,49.87524399956788],[6.7238575003642245,49.881175499924026],[6.732068499632232,49.87942999982237],[6.72545699954321,49.87526450014993],[6.729981499584902,49.86972150043302],[6.726921499541771,49.86367400012141],[6.752084999417716,49.86851549965811],[6.76453750043058,49.884555000030744],[6.762972000288519,49.89151250009926],[6.7843859999601035,49.89744800026271],[6.799201500389534,49.894876999719564],[6.808331000457791,49.89726350034881],[6.807272499364967,49.9079990001827],[6.8037564993435815,49.91302349988478],[6.796884499591416,49.91346099997285],[6.793896000377936,49.91885550039411],[6.810798500130972,49.916826000401734],[6.812294499705511,49.9123660004242],[6.845558000489028,49.920895999933],[6.850675999408549,49.91675449993658],[6.861549500230379,49.91831850043286],[6.869103500386659,49.915677499882904],[6.891479500468731,49.93054049959139],[6.8974330006606275,49.92599850001551],[6.895815999508282,49.920480999556176],[6.902678500483797,49.921058500091895],[6.926660500544827,49.93921699969656],[6.919876499545371,49.94421900033314],[6.923346999926205,49.944841499607264],[6.922767999541788,49.94939249975434],[6.934327000301941,49.95512149989278],[6.921151000118077,49.96598549994769],[6.91554000014278,49.96493800020557],[6.9128729998713805,49.96919250003126],[6.896674999851928,49.97143850006976],[6.889993000115606,49.96271449989613],[6.8854525002088645,49.96402949962174],[6.881737000526936,49.96020050007229],[6.866723999495445,49.95779699959608],[6.853978499494177,49.94693800034194],[6.838187000335457,49.94173800040297],[6.834197000651713,49.92852950025441],[6.820921500243569,49.93488450018742],[6.807750499345271,49.92820649999515],[6.796456499770275,49.92701050019144],[6.793234999861851,49.92915450031428],[6.799888499534865,49.93852350025377],[6.791872000401475,49.9440675004079],[6.793233500226023,49.95129150018256],[6.804915499996288,49.95008549962285],[6.824214999667329,49.95847550031667],[6.832635999991529,49.95794400041263],[6.847477500015943,49.96248199977402],[6.861461000576401,49.95931950016587],[6.8429105006633835,49.97570200000649],[6.834643500114663,49.97583700039659],[6.839255000695644,49.98164999972801],[6.831091000221641,49.98663950011461],[6.835018000309869,49.99049649962552],[6.799722999768523,49.99049100007318],[6.805824999350723,49.99412999981321],[6.79520149931386,49.99684850022758],[6.805647500527142,50.00016899996034],[6.821943000505605,49.99783149997815],[6.8422725003569855,50.002223999837696],[6.848824999524172,49.99663299967371],[6.855626500342513,49.99595899975945],[6.865929500018149,50.004098000345024],[6.865967000290154,50.00853099972941],[6.873286500629998,50.00877300046012],[6.872388999388594,50.006438500390246],[6.886545999784398,50.01140999963226],[6.872589999340608,50.014398999851885],[6.87290150009904,50.019823000113384],[6.890896999510919,50.024925000063384],[6.8998260001920295,50.03070200005627],[6.904433499415965,50.02088350035128],[6.901862499698524,50.01788549960223],[6.904441999470472,50.01563650025141],[6.911896000674023,50.02606500031745],[6.9073749997788605,50.02999400002336],[6.9104725001532445,50.031560000220615],[6.936143999907636,50.028257500362244],[6.945172999717317,50.030728499825166],[6.943992000056043,50.028583500067384],[6.963045999822023,50.03594050024815],[6.9624365003478035,50.04409150017418],[6.97810150034025,50.0363975000909],[7.010769499947703,50.04322900020202],[7.02437849939673,50.0530875002148],[7.034947000284448,50.0459745004265],[7.0457649994788705,50.05834500020353],[7.0621274995360155,50.06902600003478],[7.070823499366669,50.06450450038082],[7.085176999526334,50.06608800029423],[7.080225500069625,50.074189999789716],[7.089264999466267,50.08604349990114],[7.098063499911609,50.08691799972644],[7.082429999599439,50.09926849996498],[7.076162499739985,50.09763950032807],[7.068567499773741,50.10466249978314],[7.078391000665285,50.10650599995269],[7.074744000386383,50.10948599970416],[7.081928499732091,50.11378750042849],[7.096107000396649,50.117005999920295],[7.106146500170706,50.117646999988494],[7.113046999622649,50.11244749968123],[7.131148499404966,50.11443099962225],[7.129706499350776,50.120406500376504],[7.141180999410789,50.12806700033543],[7.125597500170748,50.13773150030429],[7.138309499474786,50.14380700021395],[7.1327819995675386,50.14919249988784],[7.138063500235013,50.152184999952766],[7.136556500325538,50.154446500022964],[7.131212000250871,50.15469450034231],[7.1307825002583325,50.15992399989576],[7.12622700032967,50.157952499692215],[7.125836000595251,50.16048049982634],[7.118530499382847,50.16107550041178],[7.118393500672926,50.16846600043144],[7.1124455006382155,50.16615550030485],[7.110316000628169,50.16828099988261],[7.1123325000248485,50.171249999691284],[7.108040499508757,50.17477049997117],[7.117554499644438,50.1793935002165],[7.137273000219222,50.16800499963661],[7.138591500325421,50.15973050018703],[7.1434390000856895,50.15899000018283],[7.15710149949517,50.180355000356],[7.161814499722488,50.183431500171494],[7.164418499464395,50.17973349978258],[7.165587999997277,50.183631500286374],[7.187766499813237,50.18279849980318],[7.196672999504476,50.188009500013166],[7.191235999587804,50.19232850034293],[7.207304500125618,50.18763149995563],[7.215067500140709,50.18956550013776],[7.2268634999222465,50.171791999992294],[7.238399000585181,50.17369749992124],[7.243384999530832,50.171749999842284],[7.243238000246082,50.17672649993962],[7.244872499797851,50.17295449968],[7.252134500358012,50.1715575001621],[7.256483999416522,50.17784999964351],[7.25796499948165,50.17139850016935],[7.263221000218881,50.17759900007788],[7.270090500350931,50.17452449999361],[7.273115500056404,50.18299449964265],[7.281094000550977,50.18569600007324],[7.281813500638092,50.18810249991185],[7.275313000667707,50.18880200041016],[7.277317999439285,50.191281500212895],[7.283461499619734,50.19005800031327],[7.2853514997940945,50.198351500279266],[7.300676500203486,50.206769499665285],[7.312788999482978,50.19883999993372],[7.345361499470976,50.20080450042197],[7.349871499562717,50.19735349954364],[7.35129399958492,50.201679500314874],[7.346858999815268,50.203592499792194],[7.3515595005420655,50.204433500118434],[7.353704500038328,50.21182299967028],[7.363391500095088,50.21809550008012],[7.367014000466706,50.21806850004569],[7.366065499500086,50.212918499722306],[7.375835000682069,50.20928600013323],[7.393413500256531,50.22532550030476],[7.392000500512537,50.23185200029804],[7.3988349993425615,50.22917749989708],[7.40443250052783,50.231268499951184],[7.408153999482553,50.239646499574825],[7.417920000227798,50.24683500001292],[7.418396999826608,50.250062499666655],[7.406096500309808,50.260510499699535],[7.414870999671441,50.268311500369336],[7.394368499966325,50.28200450003783],[7.400001500124306,50.28353500030946],[7.394226499605822,50.287989499578075],[7.404348499694521,50.29929499972552],[7.415546499494806,50.29875900010909],[7.4093634997147815,50.3059950000596],[7.417302000095238,50.30952249983181],[7.4200795002274855,50.316287999936094],[7.415660500153061,50.322946500452396],[7.409105000124301,50.320196999959514],[7.408589999458699,50.32783049985333],[7.42827250019194,50.34073199994125],[7.457406000309364,50.34129150023679],[7.4576775007142295,50.33448149966499],[7.464407000455678,50.32940099962795],[7.469131000384663,50.33250650038257],[7.4755155006279885,50.329703000105894],[7.487085999992492,50.333104999767755],[7.489976500072782,50.33828649991938],[7.481798500580593,50.34570299990723],[7.490876500537654,50.35171000033748],[7.4872824993607665,50.354424999810924],[7.491034499605713,50.35627949963751],[7.484139999409818,50.362816499690624],[7.512119499818833,50.38174649993871],[7.526398999475971,50.38154050027867],[7.536099000552309,50.38470850035752],[7.536848499541383,50.392255999718635],[7.571179499417442,50.4103190002345],[7.608230999798163,50.387914500203394],[7.614565000110343,50.38069900001998],[7.612675999778721,50.37523099967063],[7.619313500472543,50.37192199973634],[7.631990500524176,50.37644400019725],[7.6434039993475515,50.37329749966332],[7.644025500607112,50.37813050043138],[7.657471000646716,50.38211950039554],[7.686472500536358,50.37354100005549],[7.684843000358943,50.36900799997236],[7.69596350071169,50.366191499699426],[7.688865499307975,50.360129500037466],[7.682397500542068,50.36001600035524],[7.681471499849244,50.35315900002623],[7.66713500002319,50.345377999890914],[7.662887499681234,50.33438700012048],[7.652192500470197,50.3246859997001],[7.6426295006765725,50.32721250021799],[7.630249499991148,50.323328999775235],[7.5905539994411555,50.32567049963586],[7.59133100026665,50.31083249991107],[7.605483999884603,50.29379399964321],[7.597843500472772,50.29098950032337],[7.586613999506273,50.29753050035335],[7.576942999624022,50.29594249963787],[7.5674699994263985,50.28756999965069],[7.555853999725427,50.282959000028484],[7.546779499484991,50.28939799965366],[7.538175499386469,50.28541249977776],[7.526838999520146,50.28844199957402],[7.525461500687841,50.27843800020232],[7.532209500624924,50.26924749978759],[7.514154499998096,50.24910350008159],[7.5064499998925065,50.24901950002835],[7.497331000326674,50.244026000168645],[7.501425500422187,50.2374970000704],[7.483170499461682,50.23446900020647],[7.480705999367625,50.23085649998922],[7.47445199946696,50.23118650011058],[7.457221499317354,50.22474199974607],[7.461103499973383,50.218955499554355],[7.4741314996856785,50.21737349974672],[7.4787570004878665,50.21351549965458],[7.468783499892439,50.201229999722464],[7.458893500072741,50.19882449979626],[7.456835999956117,50.20505550024003],[7.446938999740165,50.1990650002814],[7.451596500230778,50.20623100040816],[7.447595500250978,50.20887099977174],[7.449929500322628,50.214651499749856],[7.438706500667569,50.20854349971558],[7.427795999471837,50.21317700036859],[7.430432499788441,50.2069534996424],[7.4201470002261685,50.20073349980935],[7.425420500401645,50.19451749996035],[7.410070000094447,50.19478849984507],[7.385761499924152,50.182638999878],[7.388094499756699,50.178947500192656],[7.384276499956901,50.17581749997485],[7.378045999970561,50.17843050012562],[7.364591499803035,50.16944449987464],[7.35550500051778,50.17050949999198],[7.349930499703241,50.16789799968439],[7.352088499788962,50.16329249972077],[7.335525999571456,50.1575220000094],[7.337488499387306,50.155847500138286],[7.330475000634661,50.15049300025055],[7.303794999508464,50.14191549969484],[7.3043264998642785,50.13820150034031],[7.314463999938229,50.13332449985618],[7.2932829994092865,50.119034500095786],[7.287748999603076,50.118644999898606],[7.284198999803626,50.111538499619144],[7.260008500245827,50.10364099974572],[7.259577499433485,50.099306000350346],[7.252448000447752,50.09894149991802],[7.244490999453749,50.090871000390585],[7.248036999660809,50.08063299965029],[7.228789500279378,50.078461999607875],[7.22749700026646,50.082171500058735],[7.221029500598738,50.07552849962062],[7.213388499604738,50.075326999719024],[7.215558000448785,50.073713999764365],[7.20994150012305,50.071769500093986],[7.214044999283037,50.069510000319966],[7.21215999978115,50.06421400044262],[7.217300500164043,50.06211949981096],[7.211983999688348,50.055679999841935],[7.2151835005076075,50.05472749968924],[7.212742000509357,50.04819050003818],[7.230469500701382,50.04647549959666],[7.230239499588904,50.043118500007274],[7.251376999330228,50.036301500152234],[7.248866000580155,50.02888999957329],[7.2422615006454745,50.02693650024419],[7.249834499730885,50.02047900017699],[7.2598345003274005,50.022646000425446],[7.254222500404929,50.03159249991565],[7.2573705002847,50.033518000157],[7.264410000648235,50.02871049970094],[7.265135999322365,50.02115749988038],[7.25128249956662,50.00915499954221],[7.25490850015669,50.003350499895845],[7.250194000331032,49.996714000279866],[7.252515500112509,49.99443850043558],[7.24498849993276,49.98829800002364],[7.247371999284993,49.98430450036059],[7.259369999909867,49.98287199993926],[7.256796499840138,49.97802549967342],[7.26448150067408,49.96773450022194],[7.2584114996016185,49.96993049985117],[7.251904000496519,49.96566549994762],[7.24988349960933,49.96764299998519],[7.253153500415444,49.96181949975761],[7.242954999564872,49.959357999965306],[7.215564000364635,49.967310500194685],[7.2026844995330865,49.9663229998517],[7.207077500633383,49.96237899975777],[7.21316249981465,49.962411000178356],[7.210606499328897,49.94753999970825],[7.196442000470466,49.94667200012887],[7.18258600003521,49.94122149964961],[7.178521499862864,49.9469150004281],[7.173542499847892,49.9460669997382],[7.16980650029601,49.937663000127216],[7.162969499964862,49.9418220002711],[7.153085499911805,49.932381500185365],[7.154812500279033,49.92194000001737],[7.145307499711413,49.919297999574596],[7.146622499356912,49.91387249973872],[7.13858600007474,49.91520350024913],[7.134927000377743,49.91176500040213],[7.1430589993606155,49.90726500011776],[7.1515739998069785,49.90734450014211],[7.153079999856436,49.90258750012515],[7.142511499590481,49.903376000124695],[7.127063500094056,49.91079949959147],[7.120313500198509,49.90824849968717],[7.106647499717968,49.91309649992164],[7.098929500357783,49.902288499796285],[7.10119149968068,49.89480799977267],[7.097245499523808,49.89883050042685],[7.088327999562352,49.89225299974519],[7.08505849981512,49.895451500325954],[7.089103999467937,49.90027399981002],[7.0714705000965274,49.899230500324876],[7.070043499943456,49.90353800006634],[7.0668314998554616,49.902450000176906],[7.051736999539246,49.89178899955231],[7.056466500187148,49.887708000237524],[7.052299999472433,49.88499699993027],[7.054975500223516,49.88289849981611],[7.066705000462194,49.8808755003622],[7.077642000419885,49.85559550022521],[7.067589499604012,49.840876500110284],[7.051240000367431,49.85756600034764],[7.058889499417112,49.86601000016094],[7.051456000045576,49.8630310004017],[7.043287000226411,49.866917000248144],[7.025359000107086,49.85388650010107],[7.022407000678446,49.85463399983005],[7.037078999879472,49.84446700022674],[7.039296499762124,49.8388834995768],[7.024886500161132,49.83216600009244],[6.994373999990212,49.82653749982634],[6.987530500619222,49.82985499960597],[6.982448500574639,49.84189300032117],[6.966097499899217,49.83364849999987],[6.950954999389024,49.83278899970165],[6.943880500461587,49.827776000275996],[6.952012500372169,49.820735999829246],[6.946011000525764,49.806093500115544],[6.9278755000386365,49.80303499980147],[6.912661000431558,49.80744049979206],[6.9073794998075515,49.80335200015257],[6.89757999991624,49.805770499669215],[6.903223000400051,49.80145499976818],[6.899443999712251,49.79616549989291],[6.902015500545784,49.7918620004073],[6.883194999409805,49.783028499682],[6.881003000001094,49.784681499960634],[6.8753744993892765,49.77963500039753],[6.8661194993530135,49.78016799960316],[6.869032499359141,49.77499149992898],[6.864901499290095,49.77116650035826],[6.872738000045927,49.757581499715535],[6.870189000298402,49.75052800042413],[6.846785499590656,49.750614000258125],[6.830218000356037,49.746412999875744],[6.823251999678609,49.74931300023178],[6.817093999627619,49.74772250042613],[6.8132694997168075,49.751516500146266],[6.799945499291229,49.752819000241075],[6.788614500509569,49.757606999864684],[6.7849640002974025,49.7511095002964],[6.790127999669313,49.73105600008831],[6.786896499310963,49.72812150035455],[6.771635499494543,49.728863499581465],[6.767664000181562,49.726345499786525],[6.772846999701105,49.719246500400104],[6.7664309995360865,49.70891049961857],[6.769775999819615,49.70452549996599],[6.764737999843698,49.70518849964337],[6.759513999379956,49.69808949955498],[6.750729000360024,49.6989330000291],[6.749011499733883,49.70592999992577],[6.738187499541811,49.706858999965355],[6.744152999468886,49.71065099996641],[6.737276000303209,49.71065699964044],[6.731596999698462,49.71817950025695],[6.737823500067596,49.72289949994869],[6.735217499979338,49.72738950038807],[6.714755999973847,49.717150000286104],[6.706342500399834,49.71914049982205],[6.701888499649767,49.717144499955225],[6.69416450039487,49.70690200044268],[6.694626000184138,49.70060250041781],[6.712586999344967,49.695502000081966],[6.726512000169358,49.69853450033314],[6.727766000396563,49.69619799957819],[6.724550999388337,49.6931359998628],[6.729252499782681,49.68952699980535],[6.728771500236661,49.676883000373195],[6.718627999660508,49.67572349990353],[6.723249499396681,49.666274999987635],[6.718391499906148,49.66313099965516],[6.705969499856329,49.66244500001015],[6.688952499416131,49.669944999843686],[6.686732000499233,49.66196050031534],[6.678640499508727,49.65448350036924],[6.640291999806077,49.63165750025751],[6.649834000180154,49.6294239997964],[6.649149499815455,49.62381549960844],[6.6445879997349016,49.62243499993138],[6.651499999477345,49.621148000390264],[6.653364999438944,49.61658999954951],[6.647826500175067,49.61512199998875],[6.653637000129779,49.60959950017155],[6.640452500391485,49.60943849980123],[6.640816500514345,49.60596450007591],[6.64825700054817,49.60222749979422],[6.635756000372602,49.596558000339726],[6.619376999343496,49.59503800042015],[6.6260039998048255,49.591368499788075],[6.630239499917117,49.5936574997003],[6.630404000456243,49.58914649957332],[6.634691000552751,49.59036849969001],[6.650500500079111,49.58248499979196],[6.653440500109183,49.56318100028834],[6.64768649941664,49.55948049994859],[6.652819999963119,49.55093549970467],[6.637391500599078,49.54669750014089],[6.630923000202798,49.551007000169015],[6.61525600022397,49.54598299963266],[6.6129339996322365,49.549677500333054],[6.604049499385937,49.54945250017245],[6.595424999937405,49.5558750004029],[6.611872500391253,49.56510799982183],[6.604287000691994,49.569238999797584],[6.583452500354727,49.56491999956527],[6.584453999835729,49.56165700030647],[6.568930500264461,49.556249500152504],[6.566520499626442,49.560063499908104],[6.552997499834151,49.5520845002326],[6.551932999337468,49.55633850041847],[6.543553000189967,49.55197949957807],[6.538242500664233,49.55874799960629],[6.540470000563619,49.56327400039633],[6.534608499312318,49.56474400041699],[6.546715000175106,49.57251399959962],[6.556984500257365,49.58622399975146],[6.546746499709256,49.59674050009747],[6.537349000538711,49.59858250000556],[6.519468499603101,49.58644050025701],[6.515057500301638,49.587789999986704],[6.5150330001627434,49.58395950016578],[6.508889000252,49.58103999966008],[6.507343999504851,49.57466049974321],[6.514055000279176,49.571437999918665],[6.522732999639579,49.57236550031113],[6.520142000067905,49.568878000223506],[6.531650499559574,49.56424649999578],[6.5071900001279035,49.54865399995391],[6.514927000471456,49.535080000321386],[6.494120499763337,49.530622999862445],[6.467921499391581,49.54436650018127],[6.467910999999938,49.53923949963893],[6.477870000544984,49.53111700022193],[6.460875999505084,49.531726500365465],[6.458070499751063,49.52872500039676],[6.448837499514756,49.52791599980516],[6.447211500443149,49.523091500093294],[6.4608980002984,49.519501000209594],[6.462347500079766,49.52184150030176],[6.483747999462576,49.51914550010866],[6.492062999388278,49.521107499879335],[6.496429500592804,49.51598299957375],[6.500474999532732,49.50394549957496],[6.491838000542011,49.503496000162286],[6.485283999444767,49.498875000014216],[6.49541849971447,49.48804049993461],[6.490818499757885,49.48663900026574],[6.498142499750963,49.484421499596735],[6.495840499897479,49.4794055000132],[6.486098000537054,49.474911500390654],[6.490779499337415,49.46479949966407],[6.483765000428778,49.45913350012757],[6.489149500510701,49.456065499977974],[6.484657499703594,49.452608000082265],[6.464606499712813,49.46637000026948],[6.455656499364443,49.46267949968701],[6.4431465002291946,49.468171500183935],[6.440549500444677,49.46670949975917],[6.429131000153777,49.4762405001573],[6.420440499890613,49.47642049978325],[6.403585500112972,49.46591650017953],[6.393405500157139,49.46404999958957],[6.380378999482507,49.466153000308225]],[[6.521627499589724,49.6433659997373],[6.4944449996486835,49.645875499865845],[6.484370000051216,49.62677800031498],[6.4865020004924725,49.629295499785066],[6.497465499873102,49.62832549996126],[6.500805500333472,49.62528799980386],[6.5206724994567455,49.621385000184475],[6.52964650028079,49.62903450014135],[6.529159499537646,49.63638700020428],[6.5225004994412465,49.639054000210734],[6.521627499589724,49.6433659997373]]]}},{"type":"Feature","properties":{"slug":"pfalz","name":"Pfalz","source":"https://doi.org/10.6084/m9.figshare.19312094","sourceIds":["PDO-DE-A1272"],"resolution":"municipality","sourceYear":2022,"labelLonLat":[8.20421,49.35781],"scope":"Union of the named PDO geographical areas; not planted-vineyard parcels."},"geometry":{"type":"MultiPolygon","coordinates":[[[[8.022805500305193,49.01808700033455],[7.996330000253204,49.029052499800095],[7.974788999344961,49.02679950005913],[7.966525499590204,49.041540499583625],[7.9490180001854,49.04719699970529],[7.945433000145288,49.05544900035109],[7.940847000594114,49.05439050003462],[7.931751500004728,49.058051500154484],[7.9234454996117165,49.04406399990359],[7.913507499387514,49.039946500026325],[7.911589499922871,49.04866799983107],[7.907999999636801,49.04692000007385],[7.902780499663993,49.056653500400486],[7.893408499430198,49.05497750032436],[7.892389999444524,49.04866500014583],[7.8804059994057996,49.055358000041494],[7.894924999332274,49.07535300013024],[7.897058000488632,49.085851999632894],[7.9119239999043165,49.08331649964633],[7.915316500524364,49.08572600035773],[7.906864999393619,49.087960499925394],[7.923979500127994,49.09029049977174],[7.926589500188378,49.08734500000491],[7.950497499774321,49.099592000224476],[7.945363000600479,49.1044160002136],[7.947007499442741,49.10805350030065],[7.953526499981851,49.11076699974213],[7.966330499820614,49.1078985003954],[7.964000999990459,49.119365499613],[7.936488000258699,49.123887000153935],[7.946536000229452,49.12344149959143],[7.9429319995512415,49.12775700025646],[7.946655000291388,49.12734199995367],[7.951229000010774,49.131945499854645],[7.957269499831277,49.13156999958474],[7.959884999703283,49.139198000044416],[7.9718369999334735,49.14487750007731],[7.9827489996563905,49.14424150012919],[7.983766999446927,49.15601800002746],[8.000571000541624,49.1587699997224],[8.008506500440273,49.15391600017941],[8.005956500048017,49.15864700009111],[8.01101550003994,49.15847149988307],[8.011369499971451,49.163573500401185],[8.003759500041907,49.16768799966755],[7.998419499903841,49.16717299982395],[8.001267000167742,49.17367149972312],[7.991366499428939,49.169517499757156],[7.984550500050059,49.17414400024145],[7.975091000155222,49.173121000064214],[7.9738944997280905,49.17840450020799],[7.982119500488039,49.18256750016789],[7.98377450009437,49.18558350016729],[7.977386000010899,49.18329800014352],[7.966226499804217,49.188725499704084],[7.950133499354955,49.18535450030858],[7.9449595002714455,49.193762999678],[7.9328640000998645,49.20203449972285],[7.928030000011103,49.19970050043232],[7.917968499679542,49.21111599976735],[7.92732799998291,49.21232999985611],[7.941626500373489,49.221180499563005],[7.947726000678129,49.21991499987247],[7.950178999748552,49.23249049983815],[7.960530999573166,49.229827000111584],[7.960154500230943,49.23331999958488],[7.977009999750742,49.23243100004022],[7.983299500676198,49.226749000091054],[7.989497000671524,49.22806650033705],[7.986804999831506,49.23172349976355],[7.991001499828124,49.23374349987245],[7.9973329998682585,49.229600999970486],[8.005057999562814,49.235397999650694],[8.012083000015261,49.235896000398036],[8.024344000041317,49.24604000015862],[8.02179350032533,49.251518999941524],[8.01712549990506,49.25111900023295],[8.013994500095649,49.25450550017739],[8.024082000503759,49.25567350007543],[8.015920000378088,49.26168550009249],[8.020665500039653,49.262996499626816],[8.021612999641508,49.26889450009456],[8.024840999787973,49.27111650023017],[8.029853000130043,49.269139000314766],[8.043764999573996,49.271153999964966],[8.032009000525207,49.27429849999642],[8.02232649940396,49.28228449991104],[8.014516500617251,49.28032999972492],[8.01740399977273,49.27796400015739],[8.016199000384592,49.27572300005855],[8.014365500217364,49.27766249978122],[8.007315499667161,49.273546500232094],[8.008407000577836,49.278763499936844],[7.9869709999131935,49.28382150042158],[7.985510999691601,49.26596799957427],[7.950241499720696,49.25673050002571],[7.934473000472676,49.24531850001063],[7.900485999716565,49.24459949989143],[7.8966329998536375,49.24167600030883],[7.849190499763892,49.257352500380314],[7.828573000342517,49.2482669999856],[7.828849999315068,49.245753000112536],[7.825709500451661,49.24804000014215],[7.832214999409557,49.270118000191474],[7.848535999844299,49.27397900037298],[7.8561385000157395,49.272321999755576],[7.869536499439254,49.27911699968563],[7.872069499876371,49.28311000005176],[7.867385999650248,49.293984499599524],[7.871669000130955,49.30356299995002],[7.86410600051827,49.3096655000104],[7.867649999911363,49.31332200009372],[7.87125999954596,49.31125500023563],[7.881324499305639,49.313263500286645],[7.893111500437132,49.31170100012701],[7.913331499812118,49.31637149981372],[7.927209500434851,49.309948499860326],[7.936718500496529,49.30897750019748],[7.939324500308228,49.320008999632435],[7.980942499398566,49.33324399989014],[7.984097499944518,49.342423000179686],[7.991669500608557,49.33907299963243],[7.998059999517204,49.34347749959189],[8.008696000620864,49.34461749960208],[8.014427499929132,49.35205300026054],[8.026629500625189,49.3566960001639],[8.033932000610712,49.352680000234876],[8.050215500410859,49.352990999965755],[8.07620049980195,49.362805999695475],[8.090717500490168,49.36021050007939],[8.10351850066787,49.36491199987604],[8.106663500606254,49.369542000007655],[8.095208499799783,49.37426599999287],[8.100196500402976,49.3844979999502],[8.097395499524248,49.387021500395704],[8.10036399947966,49.39217899978997],[8.09643649990753,49.39322900034202],[8.082738499774532,49.3892369996351],[8.080161499622506,49.380730000375515],[8.053606499655018,49.37702400032345],[8.049381999332475,49.38551850020275],[8.067052499353375,49.39865550028177],[8.063495499981839,49.40271000006913],[8.046444000352851,49.406353999813014],[8.037005500677704,49.405571999600575],[8.025982500664197,49.39947099963087],[8.02105899959543,49.401343000021235],[8.022983000513499,49.40494950034091],[8.012988499670202,49.411227999643245],[8.00733499993134,49.4101215003807],[8.008436499684068,49.41484099959185],[7.997003000564013,49.4206935003702],[7.995352999475232,49.42352900009832],[8.001977000541599,49.42978149964008],[7.987213999387651,49.42634449960387],[7.988439499433282,49.42955799981255],[7.981543000627619,49.42989599996277],[7.985857000197278,49.43380300014918],[8.002559499364446,49.43401250013997],[7.996957500518771,49.434779000082735],[8.001206499306193,49.43984200031817],[7.986833499630081,49.43492300032701],[7.983040999614997,49.437754499640604],[7.989579500436825,49.438359499907044],[7.986175000394098,49.43984050042925],[7.989954000524057,49.4428050000161],[7.995058999991994,49.44179350012063],[7.992320500385453,49.44453200036704],[7.9987634994691605,49.443279999590175],[7.993297500338704,49.44749700042685],[7.995423500501098,49.45145999956364],[7.988170499965623,49.44601500037756],[7.9806630000443946,49.44964599976354],[7.986173000463967,49.444880999873504],[7.981669499480507,49.44127049972098],[7.9740005001251975,49.44220600017157],[7.9733039994842905,49.44520550020531],[7.9663509994284984,49.4417189996807],[7.951261499767487,49.46122650031497],[7.956029499786996,49.46401650011095],[7.952263000390626,49.47407599993804],[7.962179499827781,49.47488449985904],[8.003932500270658,49.48928199985014],[8.006050000384294,49.485494000171656],[8.021898499439402,49.488138500255516],[8.029608999777107,49.48090000001033],[8.049795499904485,49.490548000434586],[8.046462499920828,49.47982749960174],[8.050167500519208,49.47491250036427],[8.052813999392052,49.47744550018899],[8.067827499960305,49.47531299971409],[8.082168499735044,49.482353499603484],[8.085049000600138,49.49541999963775],[8.099269500276023,49.50553550018099],[8.097244000318739,49.51339549998433],[8.108240000504418,49.513268999597386],[8.104070499716372,49.523936500350054],[8.117053999735694,49.53400699957064],[8.096723999438174,49.51990100022869],[8.091891999405012,49.51399250015987],[8.084022500590919,49.51379700039972],[8.081572499746946,49.51905499963719],[8.09125500046118,49.52334850001017],[8.089549499549411,49.52811849984786],[8.099733999591956,49.5315580003716],[8.101109499600996,49.53541150037478],[8.121650500231466,49.543944499700125],[8.126954499368475,49.551799499595866],[8.1117589996641,49.55715900004962],[8.101376500047227,49.55395999975011],[8.08693850019147,49.567238000109995],[8.093661000568549,49.56712999972757],[8.089520999563813,49.57643500025132],[8.104270999581441,49.578199000295825],[8.10330499985757,49.58041699978781],[8.114570500017125,49.58345600033841],[8.114744500308872,49.56749200011008],[8.121673000585664,49.56675600006509],[8.12344250070452,49.56317499962882],[8.126362500557244,49.563722500320516],[8.12316699981734,49.569271500234],[8.131129999370492,49.578655500397716],[8.140630499906994,49.581644500447354],[8.139548000237918,49.595544999862625],[8.130521499729047,49.59370249990198],[8.12777449934163,49.59648350025818],[8.12118649974219,49.59610050028312],[8.115642500578563,49.60470299967517],[8.128963500130709,49.61339849999358],[8.124150999733276,49.613513499716646],[8.115526000239809,49.62035299961942],[8.062618999675005,49.604922499598345],[8.02778399986744,49.601889000120046],[8.036219999893703,49.60508000013831],[8.034739999659957,49.60906200022915],[8.01515049952999,49.61604149962001],[8.008932499320313,49.62609449982868],[7.991787000176274,49.62486049996116],[7.989150999641017,49.62703450022851],[7.970008999857288,49.62320549991314],[7.967080999639515,49.626947500152404],[7.972847999448799,49.62821050012839],[7.9655135000090445,49.629324999826764],[7.968520499850687,49.631156500053805],[7.94913549954591,49.64173049981255],[7.92485599945846,49.64546550017829],[7.918217500582468,49.63902200013214],[7.910490999474387,49.64245500007246],[7.909563499402505,49.64625949984694],[7.915315000410636,49.649235500289194],[7.909122999670773,49.65310000017906],[7.936762500368362,49.657888000320796],[7.950181500077242,49.668084000004846],[7.934295500558135,49.66689699978521],[7.9260135003271515,49.669099000093176],[7.938641500361509,49.68333400010316],[7.960547499578155,49.6929909997231],[7.965653499448993,49.69116999964883],[7.960618000364673,49.68984199973429],[7.9749215003232585,49.68044849967418],[7.975019000501605,49.673105499731136],[7.988375000130702,49.67497749981793],[7.9934575006053485,49.681546999969825],[8.006157499609486,49.68294099974671],[8.005129999853104,49.69355850026278],[8.008867500097756,49.69480149965251],[8.002930999876464,49.703492500387185],[8.018478999496946,49.710891500228755],[8.019055999491219,49.70833850002719],[8.03396349979435,49.70754750032665],[8.039826999648497,49.703131999645024],[8.047478500487616,49.703708999671775],[8.057108499693278,49.69929050027551],[8.042519000318766,49.69517050008649],[8.038135000215927,49.69027650011888],[8.050475000566152,49.68878300002648],[8.05475949996197,49.68028499958465],[8.080091999562741,49.6822940001346],[8.103810999552998,49.69285249961009],[8.111034500491341,49.67828849988391],[8.118492000005407,49.68117250029234],[8.120873500418568,49.670691499609816],[8.13241200016494,49.673498500416635],[8.145678500068113,49.66099350027114],[8.154501500262542,49.65808050018688],[8.158192000304432,49.64730149957898],[8.155684500413297,49.6439830003487],[8.161157000481916,49.64224149961067],[8.15291300034042,49.630054499701096],[8.154103000333711,49.62299350000809],[8.18327650041194,49.628853000257294],[8.191428999806535,49.627606500016455],[8.192427000080723,49.62416150019469],[8.197447999872145,49.624336000389555],[8.200545000238352,49.62101499976596],[8.206480999337064,49.621171499736924],[8.20898000063091,49.61240150045619],[8.218913499613524,49.610037000123306],[8.228889499855896,49.600642999698195],[8.22212949962356,49.59778900040244],[8.233030999701167,49.588071500410315],[8.253467999960174,49.59184549974353],[8.263870000266973,49.58673249968509],[8.283117499676488,49.5869315002669],[8.32267499986689,49.59469350033374],[8.331356500069566,49.6001789995951],[8.342968999779357,49.59508199991988],[8.351986999638275,49.607620000016006],[8.36114900057216,49.606515500331255],[8.362520500605168,49.60217650042845],[8.378259500109289,49.60511000037408],[8.386481000546535,49.603652500328245],[8.396321000233176,49.59813000017663],[8.402065000052044,49.598498000435434],[8.40581999943516,49.59306850020822],[8.41477400029682,49.59505199968242],[8.423098000619882,49.58192150019394],[8.42270049964675,49.57419250002146],[8.402050000446156,49.58243300019556],[8.404043500288472,49.57580099999179],[8.392348499708401,49.5751784998987],[8.381455500161874,49.569583999588],[8.385943999720677,49.565402000028875],[8.357661500518532,49.57106850007712],[8.356496000014095,49.56114849968483],[8.350532500208686,49.55868650016467],[8.342573999433288,49.558147500352305],[8.337916999726016,49.58158450012793],[8.333334999599886,49.583728999837206],[8.32389800052877,49.58182850041191],[8.317491999904833,49.56447899981694],[8.307719000294426,49.55883599997108],[8.31366900034872,49.54550500019122],[8.323092000272078,49.53661500042234],[8.312016999678397,49.53326900007876],[8.3105589995271,49.52906799985553],[8.315110999639048,49.527559999632885],[8.308288500414918,49.520758500321],[8.313150500430847,49.51752299961614],[8.313640000571846,49.506509499694346],[8.308742999806631,49.50608449970296],[8.308720999858284,49.501948000409215],[8.238791500133493,49.492081500416916],[8.23942399944951,49.488934999560335],[8.252993000063277,49.49095250006538],[8.25443349938845,49.48910900008233],[8.247772999687577,49.486006999853466],[8.25435800054598,49.477461499597354],[8.276222999892532,49.478641499641775],[8.283612999413032,49.47032449972892],[8.305704000550525,49.47280199992013],[8.311641499902723,49.460128500372036],[8.316675499776528,49.461468000432454],[8.32043499967134,49.454395000402435],[8.307339000548781,49.45306999991131],[8.312197999540704,49.44068200000836],[8.32532099996121,49.429172999907145],[8.330335499492964,49.429351000034565],[8.335539999733964,49.42225999980683],[8.339695500568116,49.424031999609674],[8.344349500500018,49.42178100014261],[8.356488499306053,49.40888400019029],[8.341609000629084,49.398690000392094],[8.326873999568114,49.39551750031838],[8.341539999798858,49.373553000263115],[8.346482500417062,49.37459249965623],[8.353454500651242,49.36815650022179],[8.349048000068978,49.363788499776106],[8.360790499783764,49.348806499620174],[8.379678000461388,49.349449000194],[8.375847500439704,49.34449000045374],[8.36218950031862,49.34003799960434],[8.362615500068499,49.336346999724036],[8.354600000679408,49.33358499980066],[8.352376999520567,49.33526149976042],[8.343104000100697,49.32985550039626],[8.333099500462618,49.320564499837694],[8.314551000443304,49.31491399960119],[8.324318499970838,49.300452999553656],[8.314232499678818,49.298313499854444],[8.317244000534403,49.29623900035455],[8.327195999894407,49.29774299970044],[8.329792499932687,49.29259450016442],[8.34775050065077,49.28883600034288],[8.357138499978655,49.282519000374975],[8.374047499873043,49.29211749991119],[8.373378000530481,49.29761199973961],[8.403518999437352,49.305341500047035],[8.404437500592952,49.31269300009056],[8.399658500667016,49.31968600000744],[8.407336500147206,49.32545349999141],[8.406926999369382,49.32884750023676],[8.375421500575515,49.34198050002322],[8.41114449999992,49.37372299959703],[8.422542500023088,49.3765709999516],[8.42396699938742,49.3662660001452],[8.428986999498271,49.36648450039549],[8.429885499754528,49.36066100007456],[8.435403000093647,49.36083400001073],[8.433743499924828,49.35585399981325],[8.441972499410623,49.35125350024565],[8.44582099974534,49.354986500401246],[8.442936500559712,49.36186299987654],[8.44894850029915,49.366598000452456],[8.466751999970398,49.36105399990209],[8.476654500174643,49.36701849965576],[8.485412999578532,49.36649199954992],[8.491796500106265,49.362448500336534],[8.478309999814062,49.36272000009051],[8.46917649986189,49.35927899958976],[8.470915499981752,49.340713000413515],[8.45552399984978,49.33209050018887],[8.45048449990308,49.32314149955616],[8.455803500116803,49.31421000003884],[8.485076000116985,49.30393500032942],[8.489205499743788,49.29612649956734],[8.485801999409997,49.288578499752106],[8.45819499953537,49.27910849982868],[8.436021500078727,49.25993449955427],[8.397473999346692,49.241970500078125],[8.383695499379316,49.243282500077086],[8.36926550033287,49.25534699968076],[8.358608499978418,49.25417249982439],[8.36150999943678,49.243014999864236],[8.358424499424775,49.23729599964978],[8.36468749943645,49.227608500399484],[8.360373499479717,49.22556850040613],[8.362925500038173,49.222902499935635],[8.3540170003371,49.222723500353474],[8.339764000643097,49.2035614998795],[8.349933999471046,49.20123750012478],[8.341595500448062,49.1856714998213],[8.322717500094859,49.18601749970045],[8.319327500251818,49.18387250027613],[8.312204000559248,49.18687149994398],[8.306072499415299,49.17409349995899],[8.262646999652441,49.171399500279726],[8.261980499390937,49.17333899997623],[8.255340500168915,49.17003849979945],[8.2577944993506,49.159181000114295],[8.261854499774135,49.16009899976953],[8.263902500647404,49.15321050007551],[8.255831499426353,49.150943500311136],[8.255342499387297,49.146030500379766],[8.264040999912892,49.125825499970176],[8.256497500643547,49.124832999986786],[8.25305449947756,49.12780549971577],[8.230116000098223,49.12397750015567],[8.223759000377697,49.127060999880406],[8.225010500639282,49.11971649975672],[8.21750649956798,49.11604500041735],[8.209856000392625,49.11664500020222],[8.210627000161997,49.109056500015036],[8.19042849963146,49.11609299990314],[8.19127499989452,49.11931400016568],[8.178792999429454,49.12086499967376],[8.175362500434808,49.1274619995816],[8.16808099956463,49.12264000025671],[8.165310000311006,49.11020849965007],[8.171273000267432,49.10525299956592],[8.169453500341016,49.10303249983401],[8.184460500260172,49.10027100006583],[8.204556499326175,49.104415000017376],[8.215261999644756,49.101781000068954],[8.220893499537532,49.1064495001489],[8.24457749961728,49.10411249957529],[8.255654500670527,49.11083199974472],[8.259678999935364,49.10179700035049],[8.25676799934286,49.09041849978842],[8.241395999733028,49.08277500010034],[8.209512000498028,49.07508099966243],[8.184262999476308,49.06002800009532],[8.15979800020627,49.05398449967843],[8.150648999713907,49.05629450033701],[8.117597999894548,49.054848500198375],[8.113405499911751,49.056378500143545],[8.112825999376438,49.062188999680465],[8.097431999427465,49.065800999898265],[8.069827999797708,49.062675999784204],[8.076448999752726,49.033346999909014],[8.074018499338864,49.01687099974184],[8.06622750020271,49.009385499934815],[8.068407499711531,48.99931650013278],[8.049463500170171,49.01410300036345],[8.031019500399033,49.01886900011984],[8.022805500305193,49.01808700033455]]],[[[8.037745000020937,49.49166300011347],[8.051915000251528,49.499280999951445],[8.049441499610834,49.49099049970929],[8.043127499765847,49.48935900011909],[8.037745000020937,49.49166300011347]]]]}},{"type":"Feature","properties":{"slug":"rheingau","name":"Rheingau","source":"https://doi.org/10.6084/m9.figshare.19312094","sourceIds":["PDO-DE-A1273"],"resolution":"municipality","sourceYear":2022,"labelLonLat":[8.06737,50.05861],"scope":"Union of the named PDO geographical areas; not planted-vineyard parcels."},"geometry":{"type":"MultiPolygon","coordinates":[[[[9.363402499670745,51.137953999633396],[9.369428499954086,51.15415500015839],[9.38486999960306,51.15463650010838],[9.396375999650985,51.164130500345856],[9.401708999894563,51.16253400004677],[9.397680499412841,51.15743050016396],[9.401187000621228,51.15680649959662],[9.41343649985976,51.16285100011374],[9.413453499931647,51.17065249969403],[9.421202500366514,51.17224500026516],[9.419891000340986,51.17447300027205],[9.430063500707538,51.17962350000593],[9.426546500281761,51.18005049980024],[9.430741500160936,51.184362999622614],[9.428962999348679,51.18818899972096],[9.438360500374985,51.18987600038637],[9.447737999458825,51.19634200006256],[9.453648499460575,51.19451300017599],[9.450493500529234,51.19217199963171],[9.45919950023978,51.18648200014717],[9.460926000070327,51.17782349971423],[9.467302499824545,51.17498249962202],[9.4710694995922,51.18065750039547],[9.477830499572711,51.18175749958962],[9.476496499594488,51.17494650005904],[9.48040900029868,51.17327999992351],[9.486563000686441,51.17529499992771],[9.483643499375725,51.171355499717336],[9.499868999805164,51.16679900021502],[9.508368500045627,51.15771950034348],[9.51296600045311,51.16152850015701],[9.516916500193075,51.158790500127],[9.518980499878381,51.161336500446716],[9.531289500599271,51.16053899988751],[9.537389500454015,51.15141149993291],[9.531420000605985,51.146800500085405],[9.524619000267252,51.147076999869654],[9.517853000466875,51.13694249997082],[9.504568999541233,51.13214200007976],[9.502664000468233,51.128976499577284],[9.51176999977308,51.122422000035215],[9.510746000677443,51.11280349991579],[9.50471100042884,51.109603000405],[9.506640499384504,51.10294299970011],[9.497290500581938,51.10045149974475],[9.4914189999553,51.09313049956653],[9.479127500342576,51.09067499963862],[9.46472799948008,51.096936999614556],[9.445260000638406,51.09525099971171],[9.43966149970735,51.08638200023931],[9.430503500585047,51.08329299982977],[9.42861049959123,51.07434049989242],[9.425064000261866,51.074515000235245],[9.421665500105279,51.08367950027777],[9.40514300038666,51.090049499972686],[9.410311999374978,51.090800000219645],[9.412841500644507,51.09563749964484],[9.406365499806228,51.097583500241996],[9.41182400025796,51.10549000035752],[9.408370000310057,51.109524999804385],[9.387400999507777,51.108310499658806],[9.38824150040075,51.11200750029811],[9.377126500205316,51.11762449961493],[9.37511349990277,51.133925500364455],[9.365439499666428,51.134212499863125],[9.367443000323918,51.137678000116836],[9.363402499670745,51.137953999633396]]],[[[7.9380235002036015,49.97392599983411],[7.887255000677875,49.9718430004047],[7.872230499773443,49.9757135004298],[7.864395999400956,49.982675500192904],[7.854502499434665,50.01084150011428],[7.829358500611517,50.021941499944745],[7.80588449943787,50.039341999953415],[7.792205500591327,50.04418350027391],[7.7733599997711185,50.05686950012147],[7.7739970003652425,50.066539999696296],[7.787576000536473,50.06927650003959],[7.803460999550241,50.08458000014317],[7.814637000408341,50.08342099988592],[7.81675149928668,50.08067950042067],[7.8220894998173875,50.08400999960673],[7.827180500667269,50.08157199985425],[7.837193999442943,50.08412899968033],[7.8392300000818,50.08748049985711],[7.833334999803012,50.09226800040586],[7.836754000535451,50.09442699999039],[7.8300644993047275,50.093181500415014],[7.830071000592504,50.098025499610216],[7.837254500642865,50.099705499921804],[7.8352315006626165,50.11002099980878],[7.843090999745269,50.111660999613385],[7.8449180001174295,50.12349949958772],[7.854016000354478,50.12832899979975],[7.859979500393622,50.12762950000088],[7.865389499997174,50.120850999962116],[7.884717000318329,50.11437849996999],[7.897441999671326,50.12152899986162],[7.903223500279351,50.121552500434284],[7.919763499609629,50.10890299957006],[7.923162500281947,50.102229500055756],[7.933265000499921,50.10649399974827],[7.951326000695214,50.108248500012074],[7.9561585005700834,50.11183149956586],[7.96591650022998,50.10816799961324],[7.965366500515895,50.093886999644795],[7.969408999871591,50.08790849987282],[8.011997999966038,50.07983700013793],[7.98891550024748,50.07259150008708],[8.00061799934181,50.06527949992327],[8.006174499986482,50.065995000353105],[8.01561250027469,50.077759999909695],[8.025237499867975,50.074277999838245],[8.034684499798656,50.079811499665134],[8.061944500526002,50.08533900031577],[8.059291999499468,50.09146650029542],[8.068507999890288,50.09483199964761],[8.07554850018007,50.09507150015883],[8.107214500536347,50.07436850027184],[8.11051849950282,50.083727500433724],[8.132348500475103,50.08138250031315],[8.138075499942545,50.08772149968898],[8.130372500213921,50.09234199963446],[8.11511750015706,50.08963000017779],[8.112334999789196,50.093748500271765],[8.132002500661264,50.10337599978294],[8.159975500290603,50.12439549978799],[8.181748999932147,50.125811000062804],[8.181387000142468,50.1223469996537],[8.187821499591049,50.124172999948364],[8.185306000401715,50.12107349982661],[8.23858950042175,50.14105449974214],[8.245029499525076,50.148993500429526],[8.275789500344404,50.15162299999529],[8.282455999648763,50.15074900026864],[8.28332149958705,50.147250499675366],[8.304035999854273,50.151538499655565],[8.310933999531825,50.14930299996316],[8.321779499719876,50.1510584998681],[8.327266999903415,50.14573149967941],[8.317481499293152,50.13857300031249],[8.32422799951323,50.13774699985526],[8.326593499755647,50.130464999557866],[8.349138000150756,50.129459999815076],[8.344326000422306,50.11944250030378],[8.353569999599681,50.104850000358205],[8.36053900056088,50.10583200007814],[8.362661499817497,50.09820350002741],[8.380409499510092,50.10228499993139],[8.377431000255656,50.09693750000028],[8.386064500615925,50.08022699985429],[8.374944999644175,50.06746049997747],[8.365052500484255,50.07141400038173],[8.354838000184873,50.06628999991825],[8.361481999405795,50.05108599974954],[8.380655500585098,50.05402650028078],[8.386478999360012,50.06041700008106],[8.39679249968084,50.05738549985935],[8.397349500401324,50.05177000035433],[8.412853499868577,50.045726999795974],[8.414891500091024,50.048834999586084],[8.4224954994626,50.04833049992559],[8.424859999345294,50.05368750037338],[8.435175999406821,50.05371150028524],[8.434967499595773,50.05720899963791],[8.450114500353388,50.059327000035],[8.457473499792966,50.05338349976344],[8.467242499952633,50.0514879995577],[8.451238500030714,50.03820500039016],[8.453008499490078,50.032473000314454],[8.44674049968552,50.024406499870416],[8.453089499710924,50.01899449981458],[8.428352500239153,50.00934949975431],[8.4073814994237,49.996869500214025],[8.3696625001501,50.00226500013751],[8.34624650049328,49.999341500060495],[8.31861949933824,50.00194950022544],[8.297497999758555,49.9946289996407],[8.288244999466627,49.99513399976432],[8.272350500645514,50.01029599956369],[8.244557499885735,50.027628500411566],[8.186346000538398,50.035544000180295],[8.128452499529054,50.02397800027627],[8.079569999785605,50.00689850018741],[8.036356999655869,50.00231150038393],[7.971295500116697,49.978663999678545],[7.9380235002036015,49.97392599983411]]]]}}]}
