{"type":"FeatureCollection","features":[{"type":"Feature","properties":{"slug":"kakheti-georgie","name":"Kakheti","source":"https://wine.gov.ge/En/Wine/9","sourceIds":["NWA-PDO-789:section-4","NE-v5.1.2:Kakheti"],"resolution":"municipality","sourceYear":2023,"labelLonLat":[45.73441808623142,41.796868],"scope":"NWA PDO specification section 4: Akhmeta, Telavi, Gurjaani, Sighnaghi, Dedoplistskaro, Kvareli, Lagodekhi, Sagarejo. Simplified regional union from Natural Earth; geographic PDO extent, not vineyard parcels or the 200-750m cultivation mask.","specification":"https://wine.gov.ge/En/Files/Download/15321"},"geometry":{"type":"Polygon","coordinates":[[[45.301571,42.559842],[45.312562,42.54172],[45.32269,42.530118],[45.35597,42.519964],[45.398551,42.524382],[45.47927,42.54234],[45.536838,42.541358],[45.620657,42.530377],[45.698688,42.507587],[45.739616,42.471466],[45.739506,42.470647],[45.736412,42.447539],[45.62138,42.224478],[45.631405,42.201172],[45.661585,42.186703],[45.701789,42.17275],[45.811601,42.115492],[45.881364,42.102031],[45.895162,42.091876],[45.923481,42.039631],[45.934126,42.028495],[45.947562,42.022914],[45.966372,42.022061],[45.973503,42.024154],[45.986733,42.031906],[45.995156,42.033456],[46.001615,42.030976],[46.018359,42.020046],[46.02673,42.01679],[46.044817,42.017721],[46.05846,42.02033],[46.068278,42.015318],[46.074996,41.993484],[46.099181,41.985061],[46.129876,41.984493],[46.188581,41.993536],[46.188891,41.993639],[46.189201,41.993769],[46.197676,41.9955],[46.206151,41.996094],[46.214574,41.9955],[46.224341,41.993484],[46.250489,41.977723],[46.294156,41.93863],[46.322629,41.929018],[46.382057,41.925246],[46.406552,41.91504],[46.430892,41.890442],[46.392754,41.831685],[46.371309,41.805692],[46.328314,41.766418],[46.313741,41.756651],[46.297773,41.750812],[46.276947,41.749313],[46.230129,41.757323],[46.208321,41.755514],[46.188994,41.740141],[46.179537,41.705879],[46.180002,41.655159],[46.192767,41.610174],[46.21969,41.593302],[46.228475,41.598728],[46.233436,41.607952],[46.24005,41.615497],[46.2539,41.615911],[46.256174,41.610329],[46.278394,41.578393],[46.279871,41.571172],[46.287851,41.532143],[46.29674,41.510387],[46.313948,41.493747],[46.366244,41.466566],[46.377923,41.462483],[46.398284,41.458711],[46.445103,41.425948],[46.542461,41.394994],[46.591554,41.372928],[46.607367,41.345023],[46.62287,41.349622],[46.629841,41.346136],[46.631034,41.345539],[46.637752,41.336961],[46.657079,41.320631],[46.688499,41.284355],[46.694803,41.269782],[46.691703,41.268542],[46.683434,41.269472],[46.674649,41.261669],[46.672686,41.253969],[46.6716,41.236451],[46.669482,41.229888],[46.663591,41.223531],[46.650361,41.214178],[46.64447,41.207977],[46.634755,41.181053],[46.629484,41.14674],[46.621113,41.114597],[46.615539,41.108666],[46.601786,41.09403],[46.582148,41.091653],[46.563132,41.095581],[46.543546,41.097027],[46.522411,41.087002],[46.511145,41.070983],[46.505564,41.055273],[46.496779,41.044834],[46.47492,41.044111],[46.456988,41.052431],[46.429031,41.080956],[46.41265,41.09186],[46.353119,41.106536],[46.332345,41.115889],[46.273433,41.1563],[46.244391,41.183741],[46.228578,41.195419],[46.210595,41.200174],[46.135406,41.199915],[46.113133,41.19604],[46.087608,41.183659],[46.061353,41.170925],[46.041613,41.165447],[46.017428,41.163793],[45.969163,41.168289],[45.820748,41.208804],[45.770337,41.232102],[45.751088,41.240998],[45.709747,41.267715],[45.685872,41.29624],[45.708093,41.317117],[45.731038,41.323267],[45.7453,41.329158],[45.74406,41.335359],[45.720702,41.342387],[45.65559,41.352361],[45.511826,41.39458],[45.47927,41.41768],[45.464801,41.430185],[45.450021,41.432201],[45.416948,41.424604],[45.396794,41.423261],[45.38124,41.425586],[45.333096,41.444352],[45.333078,41.444447],[45.329978,41.461397],[45.323673,41.47442],[45.315302,41.486383],[45.30817,41.511342],[45.289567,41.531212],[45.258354,41.537904],[45.226315,41.539687],[45.208331,41.548575],[45.201097,41.568057],[45.195619,41.595187],[45.229932,41.65446],[45.210812,41.708049],[45.20306,41.740088],[45.18549,41.766986],[45.147353,41.770035],[45.11428,41.788044],[45.092369,41.815303],[45.066221,41.837498],[45.052785,41.866954],[45.021366,41.881087],[45.048134,41.902843],[45.077797,41.916512],[45.132574,41.889769],[45.212879,41.898321],[45.177119,41.930671],[45.12813,41.940205],[45.104255,41.941833],[45.081724,41.947879],[45.072319,41.978833],[45.087822,42.006118],[45.069838,42.037744],[45.066945,42.065856],[45.054956,42.104459],[45.068805,42.127661],[45.084205,42.184867],[45.103221,42.207631],[45.123685,42.258144],[45.148077,42.28083],[45.174018,42.298452],[45.194999,42.300726],[45.214636,42.306281],[45.223628,42.345013],[45.210812,42.384958],[45.220527,42.408316],[45.242748,42.423121],[45.258251,42.448469],[45.25515,42.478906],[45.268999,42.524226],[45.301349,42.559599],[45.301571,42.559842]]]}}]}
