{"type":"FeatureCollection","features":[{"type":"Feature","properties":{"slug":"burgenland","name":"Burgenland","source":"https://doi.org/10.6084/m9.figshare.19312094","sourceIds":["PDO-AT-A0207"],"resolution":"municipality","sourceYear":2022,"labelLonLat":[16.49288,47.48159],"scope":"Union of the named PDO geographical areas; not planted-vineyard parcels."},"geometry":{"type":"Polygon","coordinates":[[[16.09425100021649,46.86461700034687],[16.079301500622936,46.85275449983799],[16.07145450050296,46.85308150010248],[16.065719500189054,46.84989449993835],[16.058390500439483,46.838669999807],[16.05463050059114,46.84054600026096],[16.05120299994699,46.83725249976791],[16.042958500114896,46.8407719999475],[16.032377500003346,46.83270450006699],[16.033796999914504,46.835496000145426],[16.02733049961382,46.84113350000531],[16.007658000277846,46.83064099995216],[15.996236000625188,46.83539849982887],[16.001293000023978,46.83691399979185],[16.005977999793448,46.844770000204484],[16.00138299958651,46.847787500169055],[16.00787700044394,46.857166499765135],[16.007997500566784,46.874192999832175],[16.014070000418666,46.88444050007767],[16.033670500369237,46.89271399992124],[16.034998499441006,46.90174450007177],[16.046058499355187,46.91039649994463],[16.049957000357924,46.908227500364916],[16.06221850024544,46.912416500400624],[16.062475500056674,46.92340400041298],[16.068775499967373,46.934219000210284],[16.092989500007306,46.935027500075364],[16.095193999446387,46.95470750036743],[16.108395000479028,46.96537749962906],[16.1120515002552,46.97842299975637],[16.1185495003707,46.980394000330996],[16.122220499677624,46.99031349994296],[16.129152999591774,46.99605599993819],[16.143952999362053,46.99127899979167],[16.155035999614086,46.99039650002667],[16.15641199946526,46.99307499978465],[16.148345999736208,46.99432200015233],[16.14918750048732,47.00011999979196],[16.142243000426248,46.99927950034012],[16.136502500004152,47.006150500373344],[16.140154000599072,47.00893499961352],[16.131707499442832,47.01150400046396],[16.12437000024116,47.02622550041734],[16.115544500325097,47.02926699971465],[16.12111699941821,47.030098500288766],[16.119644500498225,47.03244699998666],[16.11404249970275,47.0320534996055],[16.120551499818387,47.04396850024005],[16.11118249977134,47.04830399962618],[16.106550000413563,47.060584499844424],[16.097221499827317,47.06096699974976],[16.08727249993994,47.07309099976368],[16.090371499973518,47.08233049984951],[16.086898499907615,47.086473499892264],[16.094546000089082,47.093022999717775],[16.093047499952036,47.10773799966872],[16.095830500295083,47.11234849962679],[16.10242900025928,47.11254500007386],[16.108320999584137,47.11833500018901],[16.11328900047717,47.13087800011677],[16.113112999941976,47.16023449958432],[16.102893500354835,47.186654999920265],[16.09115449977697,47.198886500162985],[16.090343999420913,47.20878800045196],[16.08631850047424,47.20997600014997],[16.088328499635956,47.21749450018262],[16.084329499472428,47.21770399970601],[16.08609350066455,47.221514500040776],[16.080750999504293,47.22932950020578],[16.08577499948657,47.229695000012846],[16.084270000172523,47.23748399975506],[16.08823499974494,47.242070500015785],[16.078464500104253,47.258793999623464],[16.081701500496788,47.26355950031576],[16.06446699982359,47.28543199986432],[16.06531100019041,47.29308200034714],[16.059847499394444,47.29490599965855],[16.062767500150084,47.302549999649706],[16.058753499911358,47.30592050041771],[16.059147999774922,47.31472650021248],[16.050059499928896,47.31682700018744],[16.052106499405912,47.32265750011873],[16.04811600014589,47.32765100016889],[16.051224500013607,47.33207499979177],[16.043247999904853,47.33805450017089],[16.043431499803276,47.34215900015977],[16.03685149975172,47.34257299967959],[16.035424000217766,47.35435800012228],[16.01488799980035,47.36851949957138],[16.033607500553934,47.37249650024698],[16.02923100006158,47.38053000003154],[16.063091499765825,47.38464700003355],[16.066259999561506,47.39793200016887],[16.083818000105634,47.408358500290895],[16.094460499768942,47.40692000034518],[16.08305350019035,47.39720449995189],[16.092778999933138,47.38978750005355],[16.109181499557543,47.39568899967588],[16.101218000351754,47.40732750024017],[16.10155750048277,47.41441200010707],[16.127813999451178,47.412719500226586],[16.15188050002687,47.419538499641675],[16.177198999854163,47.42327149990749],[16.197777000495297,47.42213700035658],[16.222730000597632,47.426864000221606],[16.24129300024366,47.43709100023615],[16.25494900020729,47.45049049971834],[16.27120550031816,47.455950999548065],[16.2798394997136,47.45483200016614],[16.28905399954136,47.46313600047379],[16.300406000127197,47.46766349973841],[16.30401399930464,47.473845999591425],[16.295714499700633,47.47778299983751],[16.313167500506964,47.48232550026631],[16.312017000248638,47.48883499980635],[16.326438500410745,47.49624550033254],[16.325974500351155,47.50027599965587],[16.339882500006183,47.51619899973831],[16.337930000489333,47.52554150035581],[16.310400999774743,47.54398000041269],[16.316153999647003,47.55998799984651],[16.314199499593837,47.565274999914244],[16.330072999974316,47.582757000441184],[16.33078549961986,47.59956299963859],[16.34584500014887,47.6031370003447],[16.354324500191787,47.610390000345944],[16.34831849964965,47.615023499928796],[16.355037499637348,47.62140050026089],[16.37064699979479,47.62318799982735],[16.36721999968269,47.63609100010411],[16.3726905003766,47.64415800015329],[16.35298200019824,47.672208999709014],[16.35624350019492,47.68002749953824],[16.333426000108833,47.67945150029125],[16.307426999577558,47.688720000062105],[16.30858299947764,47.69529049970672],[16.29499749948531,47.71592099990706],[16.291590500110807,47.72890199954546],[16.295165500451272,47.7450059996709],[16.299579000436516,47.74911800007606],[16.299341000278282,47.760062999945404],[16.293975500386924,47.76907499983921],[16.30255249942739,47.78500999968972],[16.299401000557864,47.788381999781244],[16.276557500491084,47.7932215003087],[16.2751914997173,47.7907869997931],[16.269725500051532,47.791504499936714],[16.275970500367734,47.809011999745756],[16.284552500271452,47.81164450008094],[16.3127189996664,47.80697849995069],[16.30729350021374,47.79113400021196],[16.316460999517865,47.78624000012736],[16.324117000462312,47.788923999783485],[16.332312500383573,47.80125800011901],[16.348324499843482,47.805783500075606],[16.348878500025524,47.81742800016893],[16.376000000086982,47.827242500118665],[16.372169000180076,47.8325154999507],[16.38788050053753,47.84355500011026],[16.350919000192853,47.866945499843105],[16.374530499528017,47.87223050026253],[16.391150500149422,47.88213399983923],[16.401454999749422,47.87647350042257],[16.412431999758795,47.881396999833974],[16.40874099978855,47.88465649958621],[16.41767549966156,47.89067100024904],[16.410449999549407,47.89375000032189],[16.41475400009287,47.89652050013547],[16.41893149993207,47.89440599967308],[16.423879499574234,47.904864999771355],[16.418645000298852,47.90645599954985],[16.423730499956978,47.91156300017599],[16.41907350005233,47.9129345000524],[16.448970499949652,47.93369050039794],[16.46633349990362,47.939292999652274],[16.472358000004125,47.93719749960545],[16.489763499897244,47.94209100006201],[16.504396999679226,47.93976049988091],[16.517906499416778,47.94354250001689],[16.556346000415505,47.902847999867035],[16.566422499471606,47.899479500411395],[16.57794449997801,47.886912000415464],[16.588747500068365,47.90214099978417],[16.600569499515377,47.90634650027498],[16.630956499454186,47.92909749969045],[16.630997499474915,47.94513549988297],[16.652021000576163,47.9504954999904],[16.65787850008876,47.9597515000751],[16.663065499309564,47.95769499978761],[16.66842550036369,47.961013499602],[16.679611500437048,47.96052050018548],[16.699742499825046,47.96659249982349],[16.70036850024415,47.97389500025196],[16.694148999443982,47.98455350034423],[16.695243000190388,47.98959299962758],[16.699788500198874,47.99043200017689],[16.7025034994541,48.012067500151694],[16.705462999553816,48.01009599958164],[16.71267300015394,48.01296199968927],[16.725153500081536,48.00970250011185],[16.73491200039913,48.01262900032964],[16.739588999958837,48.011174000263864],[16.739544500287142,48.013597000111346],[16.75357900013938,48.012636500325385],[16.782817999624402,48.0229099996033],[16.79055849943244,48.022291000219624],[16.799197000389814,48.02883399993164],[16.82881650053585,48.027994499814184],[16.8368724999646,48.032150999721836],[16.83638050001564,48.03712700001443],[16.82822850041657,48.04044499995831],[16.84172449940232,48.046589499642714],[16.846699499574935,48.05523650020972],[16.855559499921373,48.05613149979943],[16.87216250018644,48.07062049956281],[16.882016500273828,48.06835950027055],[16.891395999757105,48.07296449968969],[16.917084000369336,48.06653700019261],[16.919882999796943,48.06218749956899],[16.91567950055205,48.0560375002633],[16.919913999769985,48.05075299965713],[16.95190149949839,48.0461575000408],[16.970538999554346,48.039756000317425],[16.975055499614932,48.03450400012505],[16.97207350055856,48.03573650031425],[16.969663999830072,48.025785500170485],[16.97890950016527,48.02347649980541],[16.997432500460516,48.05638950025604],[17.01333950043557,48.07402900027631],[16.98080449999835,48.093927499854814],[16.969150000522752,48.09565500041243],[16.974001500401364,48.10450700007019],[16.983753000238867,48.105407999587726],[16.98617250033234,48.11124650018825],[16.999012999932205,48.10770149989838],[17.003561000268846,48.09948850017312],[17.020529499929268,48.10380949980493],[17.024772500540198,48.10010900023575],[17.017579000157895,48.09729599960422],[17.01848699995329,48.09487550020315],[17.00252649991176,48.090995000425444],[17.009780500018355,48.08899749973032],[17.013550000602656,48.091106499647445],[17.034769500243954,48.08573100032239],[17.042718499729716,48.10131999971579],[17.06237949958794,48.109138999891876],[17.06674100048466,48.11868150008627],[17.072772999347762,48.114536499625686],[17.077065000333178,48.115105999727355],[17.07286899972579,48.11029750043498],[17.09270700031007,48.099646000116515],[17.08776399955611,48.096563499748385],[17.09316500022472,48.09142249987709],[17.074557499582323,48.08592150009654],[17.071551999797965,48.080931000088086],[17.078908000267813,48.07824399993332],[17.07222950022628,48.07045649976013],[17.08678799977362,48.06536600023407],[17.06824149941524,48.05540249977117],[17.084265999931738,48.050391500276085],[17.08778649996295,48.04568450033504],[17.06741450028753,48.03143750034661],[17.089857499691025,48.019793500281274],[17.11005349961666,48.03123300024106],[17.12672299978517,48.02093549956947],[17.13637349992663,48.02292000029119],[17.14384350035608,48.02018799961433],[17.160797500302095,48.0066564998072],[17.09466150012697,47.97087149960902],[17.11689000013481,47.96095150001695],[17.09090549938301,47.93438550013724],[17.112690000196004,47.927350500026385],[17.09560550055039,47.904289499958196],[17.104171500632663,47.899251499795604],[17.085187499933348,47.87443750001496],[17.077799499636527,47.87754700041827],[17.048708499774488,47.87189900013897],[17.04004300021858,47.86680900007082],[17.0177544994831,47.86839700041731],[17.009949500061456,47.85834399988746],[17.0515430006076,47.8378945002624],[17.046913500480898,47.82835199966271],[17.060837499501172,47.82273349996938],[17.059732499534313,47.82015250013067],[17.074453499899384,47.80825550016603],[17.050961999758844,47.793974500146604],[17.060840500639777,47.777636000271414],[17.063795499711073,47.777810500274434],[17.066990999583396,47.76749800009563],[17.070270499987714,47.72819649980844],[17.09307400026293,47.708235999576495],[17.040141500567405,47.70432350003292],[16.912541000014517,47.68767749987306],[16.87515399949305,47.68833849965991],[16.87163500017974,47.69009599961812],[16.866903999866103,47.72164349989602],[16.855521000415184,47.71106500023523],[16.839064499702506,47.7045700000693],[16.82833249989854,47.68272250020873],[16.749030999377073,47.6814164999581],[16.72151400024822,47.72260049956351],[16.720942000621747,47.735334499692286],[16.658154999455448,47.74326749959402],[16.65601900027347,47.74165450012521],[16.639717500529255,47.74826950013486],[16.634263500044852,47.759052999848166],[16.625478499952596,47.75692399965419],[16.6094614995769,47.76037449993131],[16.59877349971511,47.75611999983078],[16.592531500155314,47.759088000351355],[16.588025999808586,47.75543950007945],[16.56646150023219,47.75157750007606],[16.547035499645727,47.75098649992161],[16.548784999449214,47.74317099976622],[16.537567499391766,47.73999600031643],[16.536464499988035,47.73664250042646],[16.55222849971863,47.72251100037338],[16.54044949940134,47.71182849971931],[16.520616499611254,47.71225599993516],[16.516918500116116,47.70690900038384],[16.499880999465276,47.70472700013042],[16.49370949969595,47.69870300009623],[16.48713949947863,47.69800299993128],[16.484506000151967,47.691456999971294],[16.476013999874045,47.690103999848255],[16.4747165000186,47.68125050044737],[16.46193900033989,47.68269000006249],[16.453966000051228,47.69686350013406],[16.44732749948443,47.696309000056104],[16.44331449939034,47.67410350025339],[16.42499799958267,47.66760899996018],[16.42154250018329,47.66529800000202],[16.424754500125985,47.662382000046726],[16.46264850007572,47.65128850034863],[16.479994999685253,47.64987649974904],[16.487322000255897,47.641743999925346],[16.496941999989975,47.63933549994014],[16.506507499551443,47.63839500036493],[16.514462000066626,47.64613050014534],[16.548806500258028,47.633577499898465],[16.57252850024489,47.619841500285645],[16.59326999988441,47.61783750043936],[16.629802000448105,47.62810250035104],[16.6520760002107,47.62290350000879],[16.65954200024202,47.60609649955257],[16.67314499991143,47.60494400022554],[16.666393000209247,47.596308499938516],[16.675118999918812,47.578790499978545],[16.671065499955237,47.571323999682775],[16.663147499944618,47.56870300027712],[16.664553000367935,47.566253999852485],[16.67214750030461,47.55974449969259],[16.688890999662274,47.559478500318086],[16.698165499827628,47.54563100011912],[16.704133500489167,47.545733000181926],[16.705868500168464,47.542376500365236],[16.711236000596138,47.543075999679544],[16.71452899995434,47.53991500021268],[16.703174500306677,47.53321949953569],[16.705491499805927,47.522910999841336],[16.695599000473464,47.51817349952459],[16.689803000454745,47.51041350006339],[16.668943000363537,47.503535999573494],[16.662468500416438,47.509024499602624],[16.652340000151472,47.50033650023238],[16.67048199939594,47.47424649988252],[16.659921500144733,47.46180749976524],[16.662021000385526,47.4556899998279],[16.6491049995722,47.45130149964609],[16.651601500301705,47.44893450004121],[16.64622000033763,47.446597000212044],[16.62753600027562,47.44209599959304],[16.62036399974268,47.43074150022693],[16.611805499643367,47.43163049998],[16.596809500166163,47.422655999728335],[16.587896000108724,47.42278150004038],[16.591341499860295,47.42137499996754],[16.58889349977887,47.41937599997959],[16.581017500204787,47.419279500188246],[16.582205499459135,47.415053500248995],[16.575108999751414,47.412346000244156],[16.57574549959848,47.40634900002167],[16.54629350005616,47.405596499913194],[16.539956499849865,47.41004799971917],[16.516907500336938,47.41058550022023],[16.51369000044924,47.40522050035893],[16.507862500237128,47.40501449977209],[16.50996999945586,47.396524500473554],[16.49657550022234,47.38903250026301],[16.496563500293657,47.39628999994109],[16.488821999425944,47.394481000088454],[16.48967449973747,47.399737500251895],[16.48384600052264,47.3979334996118],[16.49069149991998,47.4056749998194],[16.485341000448642,47.408892500192266],[16.458155500407766,47.41304149973184],[16.44545500067999,47.40720950022279],[16.449490500331798,47.394677500278455],[16.461353499566332,47.383294000141],[16.455097000605225,47.383686499681694],[16.451571999461052,47.379817499893186],[16.456880500553993,47.37037950002571],[16.452333000318163,47.35709450030181],[16.433761499667565,47.352918499981435],[16.44457949996402,47.34641250010683],[16.44829099965312,47.339559499869914],[16.457423999461156,47.339161000258656],[16.464532000020647,47.33385100042339],[16.48942000045601,47.28027849970009],[16.479451000171625,47.27799500025446],[16.479946500081947,47.2625644999943],[16.4671035002259,47.25287099991833],[16.46107199973137,47.2560170004423],[16.446571999903732,47.2533614999534],[16.448676000042717,47.25046299969619],[16.431783499913223,47.25293849993757],[16.43047799985434,47.250354500149626],[16.441769999615286,47.24859200017022],[16.442746499631994,47.23373750005165],[16.438205499947163,47.229988499596494],[16.43659449980889,47.20993899998992],[16.424340999820775,47.20781549983294],[16.41894049946175,47.210617000192705],[16.41948650049111,47.19491550029042],[16.429267500625848,47.18466749980088],[16.454911500097197,47.187361499731885],[16.457314000038117,47.176760999687936],[16.46433800028047,47.16818799992217],[16.460640999962873,47.16718599976758],[16.46061099960551,47.15907499972843],[16.4531104993986,47.15770200001898],[16.44905950038833,47.151872999666985],[16.454299499382547,47.14230999971256],[16.469198000225326,47.14281749982367],[16.49046399958711,47.148856500465875],[16.51677100023334,47.14932299977374],[16.522640999727205,47.13998900006678],[16.528778500278403,47.13730650011418],[16.529331000035047,47.12723200016117],[16.499874000458643,47.12341500031365],[16.50071000064765,47.11020050007609],[16.482874500447817,47.108753000364246],[16.484758000327435,47.10260399993532],[16.47767250008947,47.1014074995447],[16.474761000599297,47.105203000314134],[16.46332650002048,47.09495649992952],[16.4659745001456,47.08929400012865],[16.474722999729476,47.08531000028397],[16.47083750066217,47.07819400030453],[16.472904000582805,47.07354699969894],[16.482457499390765,47.0750159999477],[16.48702999993729,47.06887700021467],[16.49578850038166,47.07050650009048],[16.51005299937907,47.066265500038696],[16.52046749959363,47.06153300004261],[16.52056549974265,47.056181500183],[16.506539999636292,47.04962550041117],[16.47584599982483,47.046828000453964],[16.444691999438554,47.03859849981297],[16.43888200050146,47.02970300022745],[16.44777700008498,47.0226594997029],[16.46363050028478,47.03223600027743],[16.475089000618972,47.02727299997792],[16.477693000614163,47.02132400008066],[16.482179999929862,47.02266450013725],[16.49257249970231,47.01012899962646],[16.51231100004456,47.00142400037317],[16.50408749965857,47.001771000319444],[16.496999999565492,46.99819049996825],[16.48916449996245,47.00037399964135],[16.48677599965139,46.99570549981544],[16.479210500694336,46.99381000028521],[16.473833499699346,46.99737749973567],[16.463702999675448,46.99706849975585],[16.460010000619977,47.00173200004961],[16.451492999648856,47.0042820000093],[16.446083999868517,47.00253799994297],[16.445489500571504,46.99319799973725],[16.432354999832356,46.992656000315776],[16.4198589998452,46.996250999668554],[16.412616499950257,47.004733999713224],[16.372840499551383,46.99839700013386],[16.367262000557925,47.00625899957079],[16.359620499510733,47.00555150014622],[16.349832000258452,47.01039449986749],[16.34384050036316,47.003933999907055],[16.34335500004199,46.99667700013988],[16.322469000476236,47.002564499972564],[16.303360000488148,46.998268499904704],[16.298558000480934,47.00137849968224],[16.298602000051496,47.009494499893094],[16.29008049970538,47.01394949974626],[16.275794500481876,46.984111499820806],[16.276402499462552,46.96266700032395],[16.26931150054236,46.96118800041655],[16.255322999555396,46.96420899995282],[16.24276499965031,46.95599000043423],[16.245647500215746,46.946724999596114],[16.23782849972419,46.94700399961987],[16.232688000380953,46.94193449984763],[16.22836949989032,46.94316149956924],[16.222042999483634,46.93559200007649],[16.217447999678647,46.936110999662894],[16.217578999583562,46.940871500372204],[16.215896499549153,46.939116000042276],[16.210031999675444,46.94249899980299],[16.20766750014119,46.93886549978473],[16.20591850047237,46.94254199954041],[16.199894500256672,46.94178950022072],[16.19335349981381,46.935641000272156],[16.179215500100213,46.90663950022366],[16.170027999566596,46.903430500375144],[16.16298099938513,46.90488050005659],[16.145185999458207,46.88608249998284],[16.138734000140055,46.88515499991789],[16.132831500507432,46.875546000086814],[16.11027250063583,46.86882250003475],[16.099189999484228,46.86039449973482],[16.09425100021649,46.86461700034687]]]}},{"type":"Feature","properties":{"slug":"wachau","name":"Wachau","source":"https://doi.org/10.6084/m9.figshare.19312094","sourceIds":["PDO-AT-A0205"],"resolution":"municipality","sourceYear":2022,"labelLonLat":[15.41832,48.35231],"scope":"Union of the named PDO geographical areas; not planted-vineyard parcels."},"geometry":{"type":"Polygon","coordinates":[[[15.412016499537629,48.315978499575195],[15.403531499588103,48.286195500326635],[15.389358999840464,48.27605950036782],[15.375840999762724,48.28332100019063],[15.377726500031475,48.287430000098645],[15.368457500104785,48.29127200005829],[15.365303500127194,48.298382500117],[15.37124699976472,48.30028350041448],[15.370435000493975,48.30293100014014],[15.38418099946345,48.305398000305914],[15.369903499492267,48.307780499719094],[15.374165500464953,48.30894050010871],[15.377707999568093,48.31782800019694],[15.36922699996081,48.319922499936574],[15.373351999520276,48.32714349989328],[15.367719500316218,48.32740650004884],[15.365548999810565,48.33268450013492],[15.374282999820975,48.34169050036197],[15.358493499390512,48.34359499965491],[15.347084000649671,48.340298000055654],[15.336053000213111,48.343916499889446],[15.32891750013443,48.35091649984247],[15.319358500390598,48.34839350035549],[15.313475499538649,48.35117950030162],[15.304381500595412,48.34925999973224],[15.299525999810882,48.353131500189086],[15.293424499308351,48.35249049985429],[15.270089500403634,48.3738645003335],[15.287436500050898,48.377373999716376],[15.293289500136135,48.38120699960855],[15.292197000435717,48.388127999663055],[15.302464000504731,48.38713950005935],[15.308236999962876,48.39181549988416],[15.323317499312166,48.39445349961629],[15.326173999607464,48.387277499756955],[15.337839500399351,48.388855499822995],[15.339483000060168,48.39988950024699],[15.350422000394186,48.392720500031956],[15.358773000210105,48.39568899987442],[15.359374499948306,48.400503500397726],[15.366860999298337,48.40100099976604],[15.367619000428727,48.39567400039868],[15.372711000059608,48.395263499794204],[15.365623499421401,48.38698049989737],[15.375012500444969,48.37968349973779],[15.377447500059674,48.3828379996191],[15.405145499701476,48.39088200033247],[15.413293999492987,48.387192500385744],[15.410666500009237,48.4037980001883],[15.423208999751731,48.40745749996349],[15.422471999406815,48.4094460003021],[15.428435999889748,48.410418000043705],[15.426319999833858,48.41396599972187],[15.446531000558764,48.423019499667504],[15.463672500180119,48.4224840001158],[15.477687499728935,48.430845000292315],[15.531255499743072,48.42168650013578],[15.534435000526948,48.420462499811656],[15.526320999396672,48.41704849990827],[15.537881000300192,48.409277000145515],[15.554857999702758,48.41266750039506],[15.560192000140256,48.40930800024374],[15.557059000080034,48.40340100033961],[15.561989000661674,48.40056500000166],[15.559348999675779,48.39562400019219],[15.562743499986523,48.39247100040189],[15.588194999413401,48.401063000325024],[15.604918000125053,48.402643500236124],[15.60358749958246,48.394062499726175],[15.598528000173378,48.39357349985914],[15.5978934999604,48.3876494997598],[15.594536999524601,48.38770300042251],[15.593894499490236,48.37471700036015],[15.583419999399142,48.37106450000099],[15.58444399971418,48.36459399968774],[15.581487000489401,48.36259700014419],[15.573476000536314,48.366596999768696],[15.559921500373799,48.36702850042373],[15.561460499778237,48.35797300011728],[15.551889499705178,48.35061950027429],[15.547841499475052,48.340556000154585],[15.549824999640652,48.33487850007162],[15.541792000431359,48.3339929999962],[15.534210000255873,48.32762450026488],[15.50724850065859,48.32674750004171],[15.510587499930622,48.32039799987203],[15.504776999847081,48.319013500187374],[15.483521500196975,48.32175250030133],[15.470482500019036,48.31230300007015],[15.461431500639232,48.31732100038919],[15.441810999460882,48.306497000000654],[15.446174000383714,48.317801500202314],[15.441730000591312,48.32429550017198],[15.423137499528686,48.32306799972333],[15.410160000018665,48.32610599972767],[15.412016499537629,48.315978499575195]]]}},{"type":"Feature","properties":{"slug":"kamptal","name":"Kamptal","source":"https://doi.org/10.6084/m9.figshare.19312094","sourceIds":["PDO-AT-A0209"],"resolution":"municipality","sourceYear":2022,"labelLonLat":[15.67567,48.49347],"scope":"Union of the named PDO geographical areas; not planted-vineyard parcels."},"geometry":{"type":"Polygon","coordinates":[[[15.782325000448973,48.48762149954288],[15.785021500584293,48.47547950000985],[15.774086999465277,48.45967749969531],[15.771806499637268,48.44672000006671],[15.768079499897844,48.441532499755766],[15.763452999538579,48.44230199987337],[15.759493999718472,48.43870950000131],[15.765687500326427,48.436671999547606],[15.765230500004918,48.422500500438346],[15.759202499620113,48.41368100008335],[15.750128999594919,48.41054150011861],[15.747594500207796,48.39851599975266],[15.738242500129777,48.396476500046134],[15.735501999497403,48.39719849980217],[15.739029999663734,48.40314299998014],[15.729348000008654,48.40487049956929],[15.722641999618858,48.402052000425506],[15.721542999437016,48.40520899991578],[15.710801000114374,48.4065345003705],[15.702881999664909,48.413271500411405],[15.711511000075847,48.427059000101146],[15.701344999601222,48.44134899961865],[15.685915499819641,48.43836200005661],[15.681242500138826,48.4400880004226],[15.680638000040792,48.445785000359656],[15.674644999587482,48.44757199995953],[15.663781999548455,48.44425899963165],[15.662414999921724,48.44841550007879],[15.64709599956523,48.445790999697145],[15.646917000565251,48.45028099994068],[15.631396999961124,48.4506515001992],[15.636706999964897,48.45558700012043],[15.604552999765724,48.457427000030364],[15.603649999561686,48.461267499781776],[15.591067499543232,48.46380000000219],[15.583271500606491,48.470618499891394],[15.560595999991087,48.47629450001065],[15.555841499497593,48.48158550010262],[15.542731499489523,48.48537599969492],[15.574704500214853,48.48648699955156],[15.572136999992273,48.50032549991083],[15.561424999512504,48.50538500009494],[15.594540499467664,48.520675000231535],[15.605423499610605,48.54337149998313],[15.61489550012592,48.54784000003597],[15.627795500659573,48.54926650025601],[15.625218000231333,48.560905000147095],[15.637488000032286,48.56307549957534],[15.623388999951343,48.573659500410066],[15.63036149934707,48.57610799983317],[15.662872000708697,48.56420250034312],[15.673308499983692,48.571866499768525],[15.694250999353507,48.56734300023847],[15.706440999668562,48.5733709995973],[15.705904000609108,48.58227649957159],[15.741425499422755,48.584123999934405],[15.746697999932964,48.58210350023525],[15.739029000284233,48.56954299984751],[15.748274500307515,48.564739000389366],[15.746290999797942,48.554480000296834],[15.762337500539962,48.53943350028235],[15.751771000038929,48.54189899958232],[15.739047500417229,48.54007650018834],[15.734481999474058,48.535101999837345],[15.735255000133728,48.52641549960354],[15.75138600030193,48.518982000165906],[15.754905500579673,48.50643050021817],[15.773533500370844,48.50193500036121],[15.771073999791492,48.49988499956326],[15.778588499380533,48.493794499751644],[15.775441000382639,48.488641999919906],[15.782325000448973,48.48762149954288]]]}}]}
