{"type":"FeatureCollection","features":[{"type":"Feature","properties":{"slug":"rioja","name":"Rioja","source":"https://doi.org/10.6084/m9.figshare.19312094","sourceIds":["PDO-ES-A0117"],"resolution":"municipality","sourceYear":2022,"labelLonLat":[-2.31151,42.35462],"scope":"Union of the named PDO geographical areas; not planted-vineyard parcels."},"geometry":{"type":"Polygon","coordinates":[[[-2.8811439999710675,42.281539999817085],[-2.9020794999000765,42.2719379999605],[-2.913248999806782,42.271446499870805],[-2.922520500295414,42.275577500373466],[-2.9092155001615096,42.293384500011065],[-2.894532999896199,42.30358500012356],[-2.8835329997587116,42.307178500432876],[-2.870936499559514,42.30183400047321],[-2.8638120002667233,42.31485749967659],[-2.856154000326353,42.320384999926596],[-2.855519500100243,42.3376390004335],[-2.8642424995292073,42.340030499998875],[-2.862037499691792,42.34394449986156],[-2.8511439996919377,42.34548949989869],[-2.85391449986435,42.35489250045491],[-2.8474205005096502,42.35877599967519],[-2.851452999518741,42.363834500399726],[-2.8701140001461196,42.36031700040416],[-2.8782414999716437,42.35250849971874],[-2.876583499607715,42.34259050023852],[-2.88392149985742,42.340034499768805],[-2.8837790003750676,42.337997499565994],[-2.8773669996499716,42.340015500294825],[-2.879519000136189,42.33759700031036],[-2.875149500002087,42.33742149999682],[-2.893259999981859,42.330620000314404],[-2.900447500110488,42.33723849967303],[-2.9148150004482467,42.3410219999442],[-2.9076719997142795,42.35270700013245],[-2.906364499529782,42.36672999965224],[-2.8858635000275803,42.38758849985903],[-2.877315500388994,42.39126949998191],[-2.885563499890925,42.398502500410615],[-2.8804430000459,42.40678800002142],[-2.8976325005104187,42.40459049987387],[-2.9067059995715128,42.40626149989862],[-2.9106280000571334,42.41796499979689],[-2.9065215001244096,42.43197599984854],[-2.9349045003393917,42.43761449989225],[-2.944694000347065,42.449947499552664],[-2.9410545002981037,42.45311750013756],[-2.950986999536577,42.457542499778015],[-2.949073499686607,42.47805799976247],[-2.9570174999408665,42.47976300042608],[-2.9559280002325683,42.4863550004056],[-2.948638000333696,42.48860550029757],[-2.945510999739478,42.50162499992388],[-2.9781769996042655,42.505146000337426],[-2.9898369998647514,42.503055499881704],[-2.9968619998783446,42.47912200044692],[-3.016585999753236,42.486732000455994],[-3.042231500244598,42.48162849985143],[-3.064230499534618,42.47092050012263],[-3.0733360003537658,42.47645199966467],[-3.082325499719969,42.47445699978341],[-3.0904449994791197,42.477855500053906],[-3.094717500267686,42.48804500003969],[-3.0794464998805915,42.49896999975627],[-3.075162000259281,42.507060999748916],[-3.076468999897768,42.52079400024402],[-3.0719245002391458,42.52807250013236],[-3.0764964993780626,42.532195999633],[-3.0840930002581977,42.53215399974892],[-3.089325499897971,42.53824600040519],[-3.0968080004735947,42.534545999939816],[-3.0999415004863327,42.536140500368134],[-3.1074785000880376,42.52874000036244],[-3.1253504993988215,42.53308099991948],[-3.1342944994016952,42.542022499693516],[-3.114935999826553,42.55124650032],[-3.1037700004931295,42.5530739998271],[-3.102453000314927,42.55939849992656],[-3.0883059995337216,42.5670734997254],[-3.0823810000676324,42.57398600038112],[-3.0862210003519412,42.58217999978971],[-3.068129000104061,42.58888250042438],[-3.059854000154122,42.58915699966832],[-3.0652105000096537,42.59413900000493],[-3.060440499827384,42.60252699969437],[-3.065662499899091,42.60700599957759],[-3.0704820003717295,42.621380000021965],[-3.0864290000776777,42.62768149994007],[-3.0810920003253988,42.63127900008383],[-3.0841775003785026,42.64065199964763],[-3.0408120001694137,42.64001400018397],[-3.029456499746281,42.638171999620305],[-3.0180374999536426,42.63214099978434],[-3.0147950004950923,42.640140500012855],[-3.0087429994263233,42.640815999831894],[-3.0038175000967433,42.64624399990098],[-3.0084434999156886,42.66873200046173],[-3.0192464998550643,42.67669250032121],[-3.029936000288644,42.67353050006634],[-3.041899000251971,42.67753200013867],[-3.053273000252141,42.67584599959752],[-3.055616999882203,42.68973149987906],[-3.052083499734667,42.699215000372426],[-3.0295730001162062,42.70713450019909],[-3.0133209996421564,42.704773000132604],[-3.0286000001820863,42.71305099963085],[-3.0427425003994855,42.73215549958215],[-3.040791000241588,42.738453000015014],[-3.0330814998057303,42.73702999971171],[-3.0169814999450684,42.74104300034146],[-3.01634349996466,42.73384850035715],[-3.0058739995231085,42.732417999640305],[-3.0111755000824716,42.72819150021437],[-3.0095129999045347,42.72503299973962],[-2.989398000624962,42.7192305002227],[-2.9870299999343493,42.708816499796086],[-2.980657499602668,42.7037810000385],[-2.9740125005858573,42.70864100024494],[-2.9563904994100256,42.710346500058186],[-2.9320440004399226,42.708442499651724],[-2.928054999674582,42.70472350007411],[-2.93034399965267,42.699626999685094],[-2.9216860001359,42.701153000075884],[-2.917660500115338,42.697494500410514],[-2.902529000383832,42.69356549998674],[-2.903808999899972,42.6863859996715],[-2.8950800001325505,42.67927550032597],[-2.8999249996673617,42.67291250028646],[-2.8973190001584737,42.66936099990102],[-2.9007255005493446,42.66777050005838],[-2.896365999860172,42.65551749977113],[-2.870240499537639,42.63934300034241],[-2.845915500243233,42.64017850019073],[-2.825714500262693,42.644931499654454],[-2.815728999653885,42.63953799989419],[-2.80348450043132,42.638904500247676],[-2.803995499535314,42.63122949969729],[-2.7898979999123776,42.63468200018431],[-2.76589999952099,42.62012450047066],[-2.7637425001071754,42.62280249973851],[-2.7566364994013974,42.618972999850946],[-2.7494494999808223,42.62369200027359],[-2.7407934995220002,42.6225205000484],[-2.7111605003660237,42.601645999553945],[-2.6861804998582857,42.59505850032523],[-2.6591539996745315,42.593010000141156],[-2.6258939993837758,42.60483949985001],[-2.5973784996805502,42.599384500289894],[-2.581565999998355,42.599572000445086],[-2.5445689994864593,42.61165600028293],[-2.5147145004942306,42.61723699977804],[-2.500101499532264,42.61644349978152],[-2.4906489995875556,42.585323499854745],[-2.4837304997548784,42.589126500098104],[-2.4622224996995055,42.58735250046886],[-2.4532595000737705,42.56707749981456],[-2.4418035005323113,42.57693850030256],[-2.4211385004908426,42.60709000013009],[-2.4119990002372327,42.60025400042242],[-2.396771999726695,42.599067500436234],[-2.3982145000076156,42.58615499971076],[-2.3915624996507217,42.590820999768304],[-2.3624324997139836,42.58844750015332],[-2.3594594998480773,42.58362949982361],[-2.338962999913225,42.58111950006579],[-2.334041500451123,42.57631699953246],[-2.330762999576143,42.58206149983035],[-2.3335269997038,42.59028999963517],[-2.3293774998297385,42.593185500056656],[-2.320485000092254,42.59160249969809],[-2.3067174994996766,42.57674799997943],[-2.296669999847894,42.55898299988703],[-2.3015175002726993,42.55139149962034],[-2.2858049998521346,42.517227000467045],[-2.294228999815482,42.49771499980941],[-2.2935744998201457,42.4899210000906],[-2.240599499947947,42.477333000425276],[-2.2306274999257196,42.47204200039082],[-2.215512000436611,42.474498499938775],[-2.1978954999771547,42.495349999653996],[-2.178287999888684,42.489105499625346],[-2.162177000265321,42.48836550004722],[-2.156771499509322,42.482021499715756],[-2.1493110004988476,42.479481499833305],[-2.145619999916936,42.481697000360846],[-2.118513000074867,42.44694449967756],[-2.1293245004483947,42.43887700036461],[-2.1329865000156425,42.42116549974028],[-2.1278369998452624,42.419025500418094],[-2.112289499961983,42.42006699955431],[-2.1050909996829814,42.415916500139495],[-2.1155249994244065,42.39905949984614],[-2.1094360002208483,42.393157999805624],[-2.0891315000279933,42.38496399996668],[-2.0928220002571982,42.37580049970098],[-2.078651000581718,42.36810299989387],[-2.089660500503479,42.35670850009009],[-2.0899720005347033,42.34695049997776],[-2.0840125002804966,42.34514649997683],[-2.0699925005261184,42.342502499772046],[-2.0458945005015576,42.35617049962013],[-2.0456089994011735,42.359008499652276],[-2.0570089997848333,42.360832000157764],[-2.057084999489177,42.37353900000532],[-2.06788600057708,42.383182500167564],[-2.0561895003561985,42.400070000169954],[-2.0458315001678593,42.40609349970658],[-2.030592499619704,42.41154850022549],[-2.0187980000023606,42.40727600036186],[-2.0181479996809304,42.40135549978296],[-2.00819899987798,42.39041550041961],[-1.9806154995663248,42.3741800002933],[-1.97164449943405,42.38212599968634],[-1.9580145000728326,42.38653149978883],[-1.9600144994237032,42.391170499985755],[-1.9411104997786863,42.40623450044095],[-1.928373999945092,42.429226000055394],[-1.9086324997568198,42.432735000031066],[-1.903972999997034,42.42739399963014],[-1.9067750002332775,42.414040000335135],[-1.8810164997684045,42.396904500383506],[-1.8871305003043735,42.39532099983751],[-1.8928349999807081,42.3874189997169],[-1.893043000592609,42.3760809999814],[-1.8981045003989494,42.37036549980866],[-1.8736869994601597,42.349342999943254],[-1.8825325003029418,42.340070500130274],[-1.8574600000933585,42.32167049991506],[-1.838903999595257,42.28380200025504],[-1.8367914996915824,42.27550500031089],[-1.8432849996657583,42.25326150021591],[-1.8297335004532302,42.24411800037636],[-1.8192239998000408,42.248619000205856],[-1.8195559997054995,42.23206300015222],[-1.8146964999804895,42.228443000405186],[-1.806349999649503,42.22784749989343],[-1.8023259999351848,42.22342900021439],[-1.7801640001257657,42.22417400034683],[-1.7726419999893337,42.214422999578],[-1.7673315005579995,42.21575200028912],[-1.7663980001974995,42.22125000009806],[-1.7411390003396099,42.21192349987573],[-1.7367055003950704,42.215065500112665],[-1.7274510002210781,42.212080499765634],[-1.7257805004546192,42.21417999978483],[-1.7076480004044317,42.20904549991582],[-1.7042405004278751,42.19201300021606],[-1.685719500386458,42.19396199994969],[-1.6787154996134857,42.18946849981831],[-1.696947499720092,42.18035499967268],[-1.7008975001239828,42.17310650013159],[-1.6938024995571368,42.15842800027361],[-1.6796594993465306,42.15167249972779],[-1.7198955002000058,42.13342300036183],[-1.7255229996954777,42.141742500323474],[-1.7397435001398063,42.149718999677155],[-1.7647110006452238,42.15039450032994],[-1.7798965005123653,42.141723499613235],[-1.7790054997652682,42.13768800015199],[-1.7992354995070217,42.141692999777845],[-1.8025524994612092,42.14680850025202],[-1.8216219999140721,42.15355300039854],[-1.8324199994665213,42.148215999964705],[-1.838113500253844,42.14194849978595],[-1.8402785005001876,42.12811299994035],[-1.8920345005157502,42.0859719997515],[-1.909240499600616,42.05911249983615],[-1.9033214997444634,42.054469999828086],[-1.9015780002281828,42.029667000186464],[-1.896301999551076,42.026752500035464],[-1.88294799985841,42.026317500245014],[-1.8720154998617033,42.01266499972846],[-1.86483549993932,42.01507200038166],[-1.8552279996251515,42.002589999745126],[-1.8471835005106807,42.00798799971312],[-1.8513245004849692,41.99805849959027],[-1.8440450002881668,41.98731999955804],[-1.865187000518734,41.977588500126224],[-1.8565394994693836,41.966388500141136],[-1.87759199989155,41.952419500377374],[-1.9066660001044984,41.94557550020729],[-1.904666500186661,41.94331750030337],[-1.9112020002429146,41.94062050005363],[-1.915168000034286,41.93223949976257],[-1.9214919997340827,41.93425350036986],[-1.9405630005185497,41.92544200012113],[-1.9548585004873942,41.9274289997749],[-1.9613419997259174,41.92029200030325],[-1.9814404998192652,41.919021500324234],[-1.9983475004428461,41.930698500393554],[-2.0013369997441943,41.93849600045475],[-2.013075000097406,41.94079649989543],[-2.0283145005958545,41.953373000038205],[-2.036392000439628,41.93939199965758],[-2.045291999961714,41.95005799966747],[-2.0512535004282433,41.950854999823804],[-2.0477750001504065,41.960022000150175],[-2.0503539997337668,41.974029500132986],[-2.0345429995644757,41.981201499930286],[-2.0230119997788734,41.98209750035393],[-2.0233979998335707,41.98453899963512],[-2.032747499711177,41.98816649974014],[-2.0404099997748495,41.98679000014121],[-2.062535000574733,42.00103349996286],[-2.0798850004712275,41.99604049992624],[-2.092252499646131,42.00424599985959],[-2.1076329999522967,42.00276199963623],[-2.115240500088507,42.01144049954695],[-2.117010000388705,42.021495500336776],[-2.128904500382902,42.026172499853296],[-2.1547689996276467,42.0470234997803],[-2.161916999668643,42.06671899979797],[-2.1354115000888227,42.074619499723205],[-2.1272439995959282,42.08044800006656],[-2.1273294998591408,42.09715250044882],[-2.1367555002686287,42.10306950016422],[-2.1753065002349983,42.10430899994936],[-2.18436200008234,42.12537750011434],[-2.1917645000724444,42.126418999800144],[-2.2037714999754927,42.14338300012626],[-2.213824999454032,42.14949050021566],[-2.220587500176042,42.163669500175786],[-2.238620500373188,42.173038500315414],[-2.2413029994814537,42.177650499717366],[-2.252327000287016,42.18132399995437],[-2.2640665002400673,42.17348499993198],[-2.2674889996095153,42.17599100016026],[-2.268559999482285,42.18079750034663],[-2.255346499729531,42.185008999688954],[-2.263761499816843,42.19445050043504],[-2.27891400063025,42.19882200013566],[-2.287467500292213,42.20622649955808],[-2.2874114994371286,42.21544649998898],[-2.276433000638264,42.22512450029879],[-2.277023499362396,42.23377249963469],[-2.2401574999917733,42.25900649988503],[-2.2439180005461408,42.26909650022269],[-2.263422000372931,42.271671499908244],[-2.2947414999654137,42.29358999983279],[-2.3024345001279776,42.29444900029487],[-2.308501499640416,42.287739000454124],[-2.312012500249399,42.2783510001811],[-2.308875500308475,42.27349449983104],[-2.3146474999957936,42.261127500313734],[-2.3213625001629796,42.26050199955437],[-2.32493050045346,42.255539000159565],[-2.337142000071719,42.255271999977516],[-2.3398090002504093,42.24474350007914],[-2.3369150003845878,42.236362500374405],[-2.3418084997781388,42.23549650004495],[-2.358296500445038,42.23843750039135],[-2.3764609996792534,42.246219500036766],[-2.3935354994333524,42.268344999866585],[-2.378408499341003,42.29727549973574],[-2.4074084994003084,42.307018000001904],[-2.4071039997069774,42.31363699982784],[-2.42114600015606,42.32137299953119],[-2.433270499545474,42.322597500282725],[-2.438236499760003,42.327743500069765],[-2.4492645002751536,42.31992699962475],[-2.4467390002619047,42.305008000417764],[-2.480083000167169,42.29274750001529],[-2.4877205003384,42.3039320000899],[-2.49558950048392,42.30444349971149],[-2.4911844995436807,42.31364450022582],[-2.4925570003474458,42.32099150002706],[-2.501833500455845,42.326488499487205],[-2.523816000367275,42.31817999969283],[-2.5329555004092317,42.32792650022063],[-2.543963499836692,42.327926499653906],[-2.5530440005636335,42.346645500018724],[-2.5703459995605487,42.3410954997267],[-2.580089000252096,42.3345144995332],[-2.6014780001757036,42.33467500015585],[-2.6065605001431615,42.329197000304596],[-2.616961000182633,42.32751850015651],[-2.629457500275696,42.33441199986476],[-2.637986500607733,42.33103200011966],[-2.651699000419187,42.34495550013511],[-2.6588430001389463,42.34827400035305],[-2.669739000212885,42.34498200042034],[-2.6758400003101133,42.35324850031093],[-2.6824594998873232,42.3429375000729],[-2.6840919995097896,42.33023449989721],[-2.693061999688172,42.33218350008914],[-2.7209640005497087,42.33055500034674],[-2.7478609997823518,42.318412999931404],[-2.74660199962106,42.31453700007253],[-2.7361504997130766,42.309627499817644],[-2.747273000042074,42.3075370001689],[-2.755480499661988,42.309245999811225],[-2.762630999817935,42.305415999841436],[-2.7664760001744115,42.299247500280615],[-2.7612370005521916,42.28919599999273],[-2.7686480002542138,42.28582399967572],[-2.7704804999109913,42.27909849960191],[-2.782439500426116,42.27891549959519],[-2.789860000395487,42.27194199997517],[-2.7936965000732603,42.274028999812614],[-2.797490000433654,42.271019000148534],[-2.808176000402025,42.27016450032029],[-2.8126359995191272,42.258453499881405],[-2.8227764999587386,42.253406500117265],[-2.8327290002080714,42.253368499866234],[-2.8472275002423424,42.26816199988399],[-2.8057804997188263,42.29187400027665],[-2.803700000080586,42.301780499834166],[-2.8121325002657596,42.31385450025594],[-2.799691999613012,42.31839000019562],[-2.7901179998304864,42.33235100031481],[-2.808796999883547,42.3337630000408],[-2.846253499888204,42.304611500231715],[-2.850293999633087,42.304634000265274],[-2.859142999550189,42.29171399990195],[-2.875171500233144,42.289779499691285],[-2.8811439999710675,42.281539999817085]]]}},{"type":"Feature","properties":{"slug":"jerez","name":"Jerez","source":"https://doi.org/10.6084/m9.figshare.19312094","sourceIds":["PDO-ES-A1483"],"resolution":"municipality","sourceYear":2022,"labelLonLat":[-6.1691,36.68459],"scope":"Union of the named PDO geographical areas; not planted-vineyard parcels."},"geometry":{"type":"MultiPolygon","coordinates":[[[[-6.072224000472473,36.461440500114136],[-6.035878499639779,36.424286000388626],[-6.025065499893661,36.40425899983319],[-5.9937610001526025,36.372866999888714],[-5.99890399950215,36.36983500015649],[-6.0007309994592575,36.35272199972732],[-6.004562000454662,36.34648449957437],[-6.017860000306015,36.341261999835595],[-6.0488690003924805,36.34587300022544],[-6.136823500140417,36.34100850027931],[-6.162142000459208,36.33000950035456],[-6.182266500075431,36.36860300040661],[-6.211368000523576,36.38747400025648],[-6.208314999839828,36.400539499625516],[-6.213069500054289,36.41496250004376],[-6.210778999937443,36.427616500403005],[-6.200980999871842,36.43986149978684],[-6.184038000331181,36.43438649983296],[-6.180237499689686,36.44370650044162],[-6.172184499941209,36.447562999943045],[-6.189950500023043,36.46273799958966],[-6.168287500078161,36.4937665002084],[-6.179059500307972,36.50063300023221],[-6.180389499954737,36.508006999660026],[-6.171484499621038,36.51195550033503],[-6.173301999770698,36.52144250018107],[-6.184610499902988,36.52521149975485],[-6.190978499815378,36.523864500290756],[-6.200589499896339,36.528758999706675],[-6.196418999934672,36.52212900043187],[-6.207926000390021,36.50960949977324],[-6.218938499691531,36.51000599976943],[-6.231960999992601,36.503753499923064],[-6.245686000316714,36.50899500009675],[-6.245166500152248,36.51287449997162],[-6.2480515000249195,36.511623499542765],[-6.25027199974695,36.514526499841814],[-6.24366899993906,36.51847450045347],[-6.255963499595904,36.52057200013634],[-6.257348000486444,36.523964000375386],[-6.254913500222202,36.524600999808534],[-6.256043000364116,36.52916299955253],[-6.229176000473964,36.52510450021813],[-6.2332234998207285,36.5279119996063],[-6.233465499584574,36.53374499979048],[-6.223841000418955,36.56248850004989],[-6.225851000365769,36.57429499995475],[-6.231484499919392,36.58158499984921],[-6.239389499902225,36.57430250009443],[-6.232874999893104,36.584945500107345],[-6.23623949995279,36.58484649976683],[-6.249441999460538,36.572311499705414],[-6.238816999595102,36.584861500452696],[-6.245346999624121,36.58546849996646],[-6.253478500361246,36.57828149967086],[-6.252631000148952,36.58141299972317],[-6.25779650032759,36.58129899988755],[-6.2540140002569675,36.57715999957539],[-6.265991999475158,36.579864499634496],[-6.280187499508164,36.60377500001501],[-6.299046000087278,36.617545999647014],[-6.305378500118281,36.61842350028156],[-6.3197145000778345,36.61200749954149],[-6.322853500381916,36.612766000340024],[-6.313460999576137,36.61719900016608],[-6.315307999501142,36.62267249973913],[-6.329418500568774,36.624603500252896],[-6.333337000271047,36.622402499602515],[-6.330312000183094,36.619629000128036],[-6.335182000495282,36.62109000015716],[-6.326226999769292,36.61040849973479],[-6.336687999560085,36.62073149967934],[-6.338267999903411,36.625507499724804],[-6.354764499452539,36.622062999705406],[-6.356853999619033,36.617920000461254],[-6.353642499928144,36.614234499733115],[-6.387676000046746,36.628631499923415],[-6.3953055002586305,36.63578050004981],[-6.392989999830431,36.64107899969437],[-6.398898499764928,36.65872599992296],[-6.404898999745956,36.66189599998631],[-6.40885050001312,36.673633500457576],[-6.440116000228032,36.7208635001527],[-6.442864000200318,36.73780450037899],[-6.429777500557316,36.748398000258035],[-6.425932000506072,36.74392700019919],[-6.420450999655539,36.745559999699815],[-6.4093479998484355,36.76117700001033],[-6.399342999665831,36.761188500133336],[-6.389475500317923,36.765991499917455],[-6.362722999968899,36.784518999548766],[-6.342418500599389,36.7944450003541],[-6.345561000396837,36.79876699966766],[-6.342439499704638,36.80313900034865],[-6.343597000284664,36.812522999666385],[-6.351875999727294,36.82530200046454],[-6.35398149965714,36.838356000311904],[-6.34593650008511,36.88803849994977],[-6.339892000358723,36.89527500016915],[-6.2783539996779005,36.91088500040564],[-6.258490999525872,36.895286500312196],[-6.248425999569809,36.893680499925686],[-6.231058999573135,36.89813600009812],[-6.21157649981152,36.90866849979967],[-6.201764000161325,36.916610500348746],[-6.188533499579548,36.93953699995138],[-6.156768500188018,37.01947800041012],[-6.147390500300111,37.027763499613826],[-6.121205000015778,37.03651799956441],[-6.10798949987838,37.04462449987251],[-6.081156999919138,37.07628599974836],[-6.074525999621156,37.072231499847824],[-6.074341499475845,37.06013499983772],[-6.053459000521418,37.05417649994555],[-6.053571500136669,37.044956000428805],[-5.975489500291791,36.94609849968656],[-5.923783000089993,36.92303450002446],[-5.923096500201727,36.91535549953339],[-5.915767999775652,36.91413900021569],[-5.913336000234633,36.905978999937034],[-5.89216299973828,36.903927000244266],[-5.869663999597163,36.893734000234566],[-5.876578999826869,36.8947450001018],[-5.893642500079131,36.85161600004582],[-5.888886499677702,36.84680549959693],[-5.891071500143607,36.83514799963323],[-5.922537000077766,36.79464749990222],[-5.91795149982763,36.76508699972057],[-5.924469500374581,36.74557899980138],[-5.946101499742902,36.72738250026497],[-5.927356499918753,36.69808949996416],[-5.902599999805457,36.67511349999735],[-5.894664500114545,36.676845500320795],[-5.8897445003334195,36.67356099963046],[-5.880138999881178,36.67910000007886],[-5.854363000058783,36.66949449961986],[-5.85834750030711,36.64714800031754],[-5.852204999484735,36.591567999928344],[-5.854765999666525,36.58007050046443],[-5.869670500484109,36.552528499739005],[-5.852413499612359,36.550419000197124],[-5.843475499966906,36.55339799979144],[-5.834388500366305,36.55117399950078],[-5.806244500092771,36.553092999916096],[-5.797474000099716,36.54994599998901],[-5.779069000506838,36.563136999810986],[-5.768835999989372,36.56690599967602],[-5.763007999896452,36.565448499593494],[-5.74878499949077,36.57577899992166],[-5.74821899960994,36.573711500046755],[-5.7282959996168135,36.5842359998157],[-5.726359999589105,36.57837699995792],[-5.731841000458681,36.57252899964954],[-5.723804000305513,36.566699999925966],[-5.715738999792019,36.565452499949785],[-5.713807999933746,36.569965500057386],[-5.705209999921784,36.56690949980275],[-5.707780500091217,36.572040500185224],[-5.694842000532895,36.575641000020035],[-5.689801999651854,36.56787849980932],[-5.690566000275598,36.56315600002514],[-5.680574999564586,36.56205750034874],[-5.677254000398099,36.55228050012172],[-5.66864849968067,36.55247549982371],[-5.6602879996068225,36.56765750043438],[-5.660015000388952,36.57562250020052],[-5.6676355000273535,36.5986865002124],[-5.6472989997724925,36.60836050043096],[-5.625264999910817,36.62447350031146],[-5.603461500041322,36.62280650017429],[-5.605738499947355,36.62536999995406],[-5.595008999831956,36.64018649983467],[-5.586111000141698,36.64393250025949],[-5.569502499458511,36.643577499863156],[-5.562550499875276,36.66024799979826],[-5.546498999807804,36.66237650014429],[-5.539010999852959,36.66969299997082],[-5.531687500040285,36.664333499959305],[-5.531042999881686,36.65940850000681],[-5.522823499568048,36.66014100035774],[-5.512199999868798,36.65675349968776],[-5.495815499760523,36.644523500473326],[-5.491662000421186,36.6446374999919],[-5.489024499894391,36.63812999966219],[-5.477579000036578,36.6337814997455],[-5.464277499892658,36.62152099966279],[-5.455960999511303,36.61961349967848],[-5.455894499945297,36.616847999733146],[-5.460862999974379,36.58881350035925],[-5.47701149971259,36.57410449997796],[-5.489602000155307,36.57048799987933],[-5.502103499571162,36.54764199972139],[-5.528158499772517,36.52928900038896],[-5.537113999653671,36.5271834999011],[-5.5408699999891216,36.537197000316475],[-5.567088500192274,36.54247649998163],[-5.5715375001513054,36.54761499962973],[-5.5997564997743945,36.5507090004899],[-5.611827500049854,36.54162999988648],[-5.606296999936612,36.525294999970654],[-5.607651499962804,36.51578850039441],[-5.635347499615764,36.526748499987356],[-5.6499029995286625,36.538059500156436],[-5.664047999973927,36.5443765003739],[-5.715811999796149,36.55605299995857],[-5.7568124997879915,36.554577000015335],[-5.77812650023272,36.54954899957011],[-5.796232999666137,36.54926299995971],[-5.823116000316635,36.53948199963487],[-5.847088499797712,36.53523200039698],[-5.896186000467292,36.535958500102744],[-5.918773500342349,36.52882399973766],[-5.974638500318295,36.52095800008666],[-6.019308500472955,36.49331650034536],[-6.043128999839545,36.48084249970735],[-6.063277000307302,36.47426200021147],[-6.070975999757754,36.46855549979033],[-6.072224000472473,36.461440500114136]],[[-6.08059900007322,36.85526300013932],[-5.9731834999541125,36.84421949996146],[-5.961057000348977,36.851299499971255],[-5.941403000197034,36.85195899969339],[-5.948437499958207,36.859382500195636],[-5.965173500336453,36.8601074998994],[-5.971323999490955,36.86627950013592],[-5.980950999998772,36.86782450024336],[-6.010254500317179,36.88577300018497],[-6.025280000030415,36.89073550000229],[-6.033627500015626,36.88394549980013],[-6.030404500493665,36.87644950012373],[-6.042844500387747,36.87649899956226],[-6.0522334997962846,36.8711319998992],[-6.057586499528637,36.87150950002186],[-6.066217000179431,36.864383499771044],[-6.076455999805693,36.861858500095295],[-6.08059900007322,36.85526300013932]]],[[[-5.656979000113957,36.67655200002964],[-5.628880499480106,36.677725499679546],[-5.618115499773095,36.68064800037415],[-5.618222999653786,36.67556299973047],[-5.6417490000011625,36.66567050030657],[-5.650063999792382,36.665440999958044],[-5.662955500299726,36.667514499860005],[-5.674823500407359,36.67944200034709],[-5.669961499942743,36.68184899958428],[-5.656979000113957,36.67655200002964]]],[[[-6.469486000253449,36.73306649983559],[-6.473904000480885,36.735465999914595],[-6.473146999655172,36.738017999736456],[-6.470136500354838,36.736583500164585],[-6.469486000253449,36.73306649983559]]]]}},{"type":"Feature","properties":{"slug":"priorat-catalonie","name":"Priorat","source":"https://doi.org/10.6084/m9.figshare.19312094","sourceIds":["PDO-ES-A1560"],"resolution":"municipality","sourceYear":2022,"labelLonLat":[0.80959,41.22605],"scope":"Union of the named PDO geographical areas; not planted-vineyard parcels."},"geometry":{"type":"Polygon","coordinates":[[[0.7615514997135797,41.141200999599626],[0.7340634999040343,41.15577700014142],[0.724940500388269,41.144516000459994],[0.697631999987133,41.13430399982916],[0.6946860005002521,41.142269000050355],[0.676160499469256,41.164214999825155],[0.6772209994378494,41.17188950000023],[0.6584434996407852,41.1854515000874],[0.6592559996933267,41.187640999555136],[0.6663704998208784,41.1899450004223],[0.6705295003017461,41.18630249997887],[0.695038999426199,41.184807000217965],[0.7061240004553729,41.17210750040363],[0.7125044999921112,41.17280949996785],[0.7203640001602377,41.17899299998815],[0.7235709994546631,41.18448250017719],[0.7186544997935381,41.1883809999024],[0.7224510004631824,41.1947824995892],[0.7372190000850695,41.19616699991926],[0.744528500431195,41.21289449964454],[0.737532000566795,41.229728499941494],[0.7581625004965428,41.22835149967824],[0.7692185002478046,41.23579049963045],[0.7712439996797308,41.25023299958901],[0.7668765001567962,41.2540014998741],[0.7756244997391507,41.258533500141105],[0.7802714998800844,41.267306499662276],[0.8135000002918789,41.27838149991649],[0.8088049997137217,41.294521500346605],[0.7997300003110207,41.301071000246466],[0.7989819999935539,41.31183250035627],[0.8059445000729395,41.30382149969896],[0.8121730005204695,41.30210100038835],[0.8206574994789484,41.305034500104725],[0.8311570004934444,41.303035500094516],[0.8414489996473653,41.30564500021701],[0.8604460001787396,41.30437099966273],[0.8936045005821978,41.294055999717926],[0.8984755003208788,41.290847500349095],[0.8851454999092988,41.28592250019774],[0.878569500030999,41.278312500372095],[0.8827684997410234,41.25453200029342],[0.8811684997988631,41.24322900017164],[0.8724570004514145,41.2173730004481],[0.8651554998189227,41.207599499968026],[0.9122774994020527,41.21632750010912],[0.9211870003336152,41.21314999966927],[0.9229244994046055,41.20309450030504],[0.9073644997232959,41.19453049997476],[0.8784995005774532,41.19348899984093],[0.8792939995348156,41.18235000031435],[0.8609794995349611,41.17087149970341],[0.8629689995506502,41.1568944998821],[0.8516065005659035,41.147613500157334],[0.8441110003286445,41.14558399969087],[0.8358020002604133,41.133850000321964],[0.8047359997601641,41.1437149999984],[0.7901160004145671,41.14177700026624],[0.7843449995645116,41.135680999640336],[0.7607600000642503,41.13654300019498],[0.7615514997135797,41.141200999599626]]]}},{"type":"Feature","properties":{"slug":"ribera-del-duero","name":"Ribera del Duero","source":"https://doi.org/10.6084/m9.figshare.19312094","sourceIds":["PDO-ES-A0626"],"resolution":"municipality","sourceYear":2022,"labelLonLat":[-3.79926,41.61997],"scope":"Union of the named PDO geographical areas; not planted-vineyard parcels."},"geometry":{"type":"Polygon","coordinates":[[[-4.0745989998103616,41.49496850035016],[-4.1365220003765195,41.47700100012664],[-4.142506500380248,41.46993649961979],[-4.144927499670847,41.47144299960569],[-4.162853000087938,41.48670599994884],[-4.166994500139808,41.49254599972544],[-4.164480500454055,41.49796700007907],[-4.182180499843711,41.510757500454424],[-4.205637499552869,41.51815399972581],[-4.195633500259058,41.54183549981783],[-4.178583499617956,41.548328500148195],[-4.175891000182635,41.5571554997677],[-4.169582000247389,41.5590820003836],[-4.163964500393564,41.56686799960187],[-4.178638999774927,41.56918699961588],[-4.190402999369789,41.57955149967938],[-4.236916499674166,41.579158500444784],[-4.265010000213562,41.58344650011404],[-4.271434000059186,41.5794295003679],[-4.281456000101728,41.57968899980561],[-4.285154500485077,41.57630549987927],[-4.290773999740142,41.58325200015088],[-4.2950725004618295,41.5809705000235],[-4.301207500311728,41.5859605001808],[-4.297833500167298,41.59781649986099],[-4.320884999833799,41.59618750005054],[-4.329066999786143,41.594902000400246],[-4.3175739999968386,41.589172499996266],[-4.31895249974618,41.58487699990688],[-4.32324449963232,41.58419049989418],[-4.336157999448178,41.57108699966993],[-4.343713000432061,41.572151499860595],[-4.347603500484373,41.5642889998296],[-4.360298999650342,41.55999750037712],[-4.369506499869401,41.56613850015229],[-4.3820615002707655,41.56497950024911],[-4.383059999729586,41.56964099958264],[-4.4022325005028895,41.572055999630095],[-4.405115500440058,41.57619099990691],[-4.420591999439106,41.582855500081564],[-4.426245499926747,41.58948500035833],[-4.414413499955663,41.59000750031966],[-4.404716000274257,41.583239999713776],[-4.398716500233258,41.58701699980096],[-4.403042499480933,41.587387000117],[-4.399917000216565,41.59208700014165],[-4.404588500339873,41.59950649959697],[-4.392923000527824,41.59602750005614],[-4.38723749980879,41.59834650000535],[-4.390215500117717,41.60068900003342],[-4.385376500076507,41.601646499677095],[-4.391484999755099,41.61117500001448],[-4.393577999859228,41.62421799986242],[-4.400572000173043,41.63008900015201],[-4.409792499722962,41.624668000394365],[-4.41934000045914,41.629757000063414],[-4.405127999509535,41.63486100036871],[-4.410589499967082,41.63753149992209],[-4.407453500006455,41.63906449985368],[-4.4101145004443385,41.640579500312995],[-4.408350499855316,41.64771650035236],[-4.401939499648732,41.65060800008396],[-4.401377999975222,41.66351300012524],[-4.387441499380081,41.66548149995497],[-4.381108000659412,41.659787000287444],[-4.36808650022804,41.664199999891316],[-4.360819499852578,41.662494500043],[-4.349556000371888,41.66607649997379],[-4.341580000333611,41.67306149959197],[-4.3344794996309846,41.67527749988771],[-4.322147500065331,41.6732404997865],[-4.31985800019438,41.67636499980309],[-4.33084150034501,41.690090000247764],[-4.337653500008548,41.69177599962362],[-4.345729000002788,41.69979099988561],[-4.313269000279969,41.70283099988876],[-4.307603499465423,41.702011000075686],[-4.3025445001369045,41.695503500408044],[-4.285907999647384,41.69520950032464],[-4.279105999440048,41.69223799971845],[-4.268114500167214,41.69669700038622],[-4.263273499710899,41.69247449975451],[-4.221310499585886,41.70708449967253],[-4.200521499574118,41.7087100003005],[-4.202278500226838,41.71522149992935],[-4.193119500291374,41.72242349994865],[-4.183815000487881,41.72379700022337],[-4.161072499708919,41.7340090002901],[-4.144221999741409,41.72225199981234],[-4.120295000486128,41.73116299966848],[-4.0997285003977355,41.689865000069275],[-4.09660999963711,41.67392750035048],[-4.100040000246164,41.66294099963795],[-4.088771500450083,41.66074349982167],[-4.082350999788937,41.65314849966],[-4.074663500021424,41.65449900022448],[-4.069715000189538,41.65958000003973],[-4.055059500129781,41.6558150002862],[-4.025886999549512,41.659538000469176],[-4.02639399987812,41.692973999932626],[-4.05296549951218,41.71955849972365],[-4.068142499461679,41.72654349999145],[-4.076383500230381,41.72607799958389],[-4.0763740000409285,41.73483249988416],[-4.069118499378712,41.74116149970446],[-4.063107500424258,41.73913550003507],[-4.055809500432662,41.740680500183984],[-4.049608000577112,41.76819600005168],[-4.040900499601663,41.76834450008655],[-4.0384114999489364,41.776637999840915],[-4.038023000094619,41.78984449992762],[-4.043014000301834,41.79111499997008],[-4.0489095005507325,41.80276850037517],[-4.0587390000779155,41.80482499970708],[-4.090093500132544,41.83085650024726],[-4.0880754999471804,41.84465800011485],[-4.079345500109207,41.848441999969175],[-4.080973500349041,41.86207199953226],[-4.088853999667507,41.87064349975489],[-4.062800499411611,41.87710949981325],[-4.0583310004131885,41.87425250037564],[-4.035244500379214,41.873787499944285],[-4.0384334997561755,41.87128099997095],[-4.007062999931314,41.85420199959233],[-3.99418950035413,41.842704999574934],[-3.9820684994352087,41.84649250002829],[-3.9610624996433006,41.84408550026314],[-3.946300999805559,41.819954000048845],[-3.946683999430545,41.80351249991751],[-3.929981000140681,41.80049499964972],[-3.909872999761513,41.80103699980841],[-3.9017154997364223,41.806609999866076],[-3.9015315001099222,41.816501500377996],[-3.892730500105594,41.82782000004275],[-3.8622089995147832,41.837189000356304],[-3.8626555001276652,41.84082400005317],[-3.85697149974231,41.84272749996067],[-3.8533330003319186,41.865299500148325],[-3.8559450005247737,41.87140700024545],[-3.8439955002354074,41.87263850017468],[-3.820976999849316,41.863094500301244],[-3.824970499473669,41.848564000349974],[-3.8232859998922235,41.83959600005139],[-3.820936499766875,41.831600000461755],[-3.8141935002564553,41.826080499588905],[-3.8082009994732844,41.80719749986447],[-3.7957969999634638,41.802936500424394],[-3.7690230001402583,41.80271149993074],[-3.7672344997318308,41.796158000127846],[-3.758202999931117,41.79581049990427],[-3.732857999388407,41.80032749967986],[-3.715566999488038,41.81401050036345],[-3.714749999476963,41.81193550005457],[-3.687077500477828,41.821494999910385],[-3.673707999930295,41.818847499703445],[-3.668937499577558,41.820873499651526],[-3.6619645004168233,41.835918499844894],[-3.6540010000047554,41.832126499545666],[-3.626146999741103,41.83868799962384],[-3.6151585003744398,41.838187999552545],[-3.601017499596068,41.834129499621014],[-3.593338999561735,41.83606699993186],[-3.5687910003548775,41.831608000046245],[-3.564118000147399,41.841186500401776],[-3.5575935006087493,41.845821500282106],[-3.5486040005716095,41.84535199998947],[-3.520924499922482,41.86059199957055],[-3.510780499468339,41.87430949983383],[-3.4932969998728556,41.87152500020387],[-3.487003500014847,41.85999300029224],[-3.46637749955246,41.868259500312405],[-3.4515125001446894,41.870567499695355],[-3.444306499482991,41.87586600031055],[-3.435638000525626,41.8434755003343],[-3.446917000010691,41.83195900039929],[-3.4431830000846957,41.82146449975947],[-3.4308839994225715,41.81188949983383],[-3.4625535000927683,41.79410549994076],[-3.4584250003783756,41.79077900036547],[-3.459508999857083,41.78411099992144],[-3.470439500470272,41.77946499980582],[-3.455678000497834,41.76473249961825],[-3.463014500102313,41.75944499979497],[-3.454205999924563,41.753814500269264],[-3.463787499812727,41.73316950043299],[-3.438653500388248,41.72049350007288],[-3.4301485001907044,41.70340749999055],[-3.4215060000289697,41.69599900007647],[-3.4200045003476145,41.688510999914115],[-3.4281954995448265,41.6841504997874],[-3.4297505003127795,41.677711499829776],[-3.426768999643572,41.65771850009556],[-3.4177534998546717,41.656246000392485],[-3.4073650000741007,41.675594500377656],[-3.3947804999839373,41.68446700028582],[-3.3934250002026065,41.69062400039952],[-3.3584234994141178,41.69343199970077],[-3.3618334999501407,41.71030799998974],[-3.360682999726629,41.72158449980918],[-3.352489499595339,41.72914900016111],[-3.354408999978048,41.7372589997174],[-3.3356464998656516,41.74136750001355],[-3.3304409998265854,41.739258000335944],[-3.3229214994228964,41.74093649967115],[-3.321700000394063,41.749187500364926],[-3.309704999468814,41.75100700009484],[-3.3072464996995654,41.7601549998683],[-3.283832499721082,41.762222499821796],[-3.2859649999291527,41.75999400032054],[-3.279076999921688,41.75585549973558],[-3.2748850003318926,41.74560950010651],[-3.266729499456145,41.7396545000522],[-3.2564725000382935,41.737014499728005],[-3.257420499517047,41.7394869998453],[-3.2503654993967515,41.74081799965456],[-3.247851999951136,41.712375499931944],[-3.255084999796763,41.708359000098994],[-3.255176500472477,41.70389950016567],[-3.2463629996029124,41.69697549984518],[-3.234653000142735,41.675525499746946],[-3.189787000104156,41.686885500286785],[-3.1914384999201744,41.659564999718754],[-3.1829265001510554,41.643772000283896],[-3.1626829998573274,41.64012500035998],[-3.1528104997510082,41.63421250033625],[-3.136944499704361,41.631763500078],[-3.131379500574439,41.63415899997747],[-3.122246499875902,41.62857450007745],[-3.1271454995847328,41.59924249981552],[-3.137526000390068,41.588279999989545],[-3.1607425004644543,41.578891999732555],[-3.16088850035791,41.57049550038717],[-3.14861399957027,41.55782300010923],[-3.1301199997180773,41.55694200012305],[-3.110377999642942,41.547531000327254],[-3.100897000363342,41.549900000184614],[-3.0998710005288768,41.54577649999444],[-3.1040520005024725,41.54370899959319],[-3.1024280002745193,41.540503999879085],[-3.1137654994772452,41.52387649961601],[-3.115267500315055,41.5189935002342],[-3.110915500569142,41.511036000082825],[-3.1183244994350763,41.50593949981251],[-3.1226015003002083,41.493041999978225],[-3.1144710000675007,41.48841450009755],[-3.1150899995108894,41.484836500015575],[-3.1216529994979316,41.478805499964565],[-3.1288540001042766,41.48025499959467],[-3.132946999459102,41.47264099982476],[-3.128269499698393,41.4633749999499],[-3.128155500061449,41.44775400006325],[-3.1225994996805393,41.4476584998703],[-3.1158635000978947,41.43657700021457],[-3.1214704995618057,41.432544999912444],[-3.1373705003451287,41.42893249974453],[-3.1467455000193105,41.42005149968485],[-3.1709829996748122,41.412937500485526],[-3.2193955000712684,41.427211500292145],[-3.234606999470761,41.41687000000679],[-3.2543624998129146,41.41388400017732],[-3.278930499698031,41.41723299980357],[-3.2893194994461563,41.4284209997399],[-3.2920464996945453,41.42554099982503],[-3.30834499967064,41.42510300032744],[-3.3267339993475114,41.41714099972442],[-3.3416940001380095,41.4170265000124],[-3.341378999630001,41.423324499816246],[-3.3460634995804552,41.42902750029023],[-3.339399499729965,41.45229349974898],[-3.3062850005601256,41.478416499798215],[-3.29961249954323,41.475139500046076],[-3.285690000373216,41.4907189996214],[-3.2831145002671707,41.50734700031864],[-3.2961935005579845,41.516392000186606],[-3.293398499568496,41.52375799963967],[-3.3057560002151734,41.53161650013176],[-3.3223859999751766,41.52758050003146],[-3.3505159995451916,41.506835999622766],[-3.3584449997655095,41.51046750023085],[-3.368490999672807,41.509006500194864],[-3.3810400004765913,41.513736500207294],[-3.3813364997800037,41.50292950040759],[-3.389466000309649,41.48798399999727],[-3.413338499369834,41.476119999838595],[-3.4240654997282287,41.482727500041655],[-3.426498500367521,41.49779149995622],[-3.4206874996822334,41.51269900009916],[-3.4244770005972884,41.51672000021225],[-3.4408685004735813,41.523288999730866],[-3.4580920005318374,41.53685000003893],[-3.4643815001230123,41.527790000369464],[-3.4797095003954697,41.520908499877216],[-3.5019700003635075,41.52918250030342],[-3.5383594996560954,41.552013499974855],[-3.5366599999145656,41.55948649997789],[-3.5439375002713533,41.5720709996452],[-3.541595999427716,41.577602499953144],[-3.552980999519081,41.5807379996563],[-3.5629579997458043,41.577427000120004],[-3.566543499527238,41.579952500222866],[-3.5745499997509933,41.57246400037546],[-3.571229999721537,41.568687500397736],[-3.5736435002524205,41.558089999975294],[-3.5676370001592614,41.55290600037605],[-3.5746044999021227,41.53942850031952],[-3.56984550008581,41.53534300042812],[-3.5751879996027656,41.5361635004554],[-3.574604500321088,41.533970000161304],[-3.5833014999319883,41.53730400042162],[-3.584164500282779,41.533279500040805],[-3.5880040004954155,41.53349700025008],[-3.6157169999427903,41.54596700003611],[-3.63289850037048,41.54716899966456],[-3.644873499817312,41.54327750035974],[-3.6405309997543465,41.5102385002522],[-3.6483595003310167,41.49733350039317],[-3.6367870005171485,41.49137099983494],[-3.6477050002221634,41.48814800016521],[-3.6501695004049317,41.48290250028149],[-3.67492599976275,41.46999400005108],[-3.6804430000194324,41.47423950028542],[-3.6881789996370524,41.47081749990827],[-3.6995159996357834,41.473746999716354],[-3.7030440005101464,41.47211450003092],[-3.7136670004484746,41.47553649949408],[-3.7280279997209873,41.48617200013476],[-3.7237454994254855,41.47920199990874],[-3.7324325002285677,41.46988700015484],[-3.7291225004082884,41.45762249968819],[-3.7395090001852083,41.45078249979715],[-3.744163499413464,41.4610555000904],[-3.769777500263573,41.46014799981599],[-3.7702809994650486,41.48238399970428],[-3.7776049994596197,41.48689300016075],[-3.8239030001518093,41.481133000110695],[-3.8341775005929764,41.499641500126714],[-3.808887499846772,41.49795550019213],[-3.7982465001536263,41.4919245002254],[-3.800460999630551,41.498580999901634],[-3.7968555003408584,41.50262400011425],[-3.8050405001540883,41.51628499977571],[-3.7990840000273796,41.518211499585725],[-3.8038104998766036,41.52456650025384],[-3.8144529999206527,41.52750399980332],[-3.8422174999053107,41.52373500035652],[-3.8351719995536975,41.5005415003853],[-3.8423015002896994,41.50061800017937],[-3.8679720005494223,41.53247050007212],[-3.8751595004173587,41.53474049980366],[-3.8858065003167965,41.53229900020945],[-3.8940590005301012,41.55178850006039],[-3.9208010000142397,41.56636800020105],[-3.9422614994681235,41.56913000013828],[-3.9530705004709015,41.57342899994192],[-3.960512500269505,41.5779685002287],[-3.963848999900533,41.58607500045059],[-3.980689499797966,41.58336650034059],[-3.9807350000978987,41.57452000039805],[-3.9938845004307986,41.5560074996374],[-3.9937309999085264,41.53096750025985],[-3.999146000514546,41.51668149975426],[-4.02742249972672,41.517791499847554],[-4.036453000564687,41.50994499999124],[-4.048569999927031,41.5078740002564],[-4.058055500036526,41.4973104998092],[-4.0745989998103616,41.49496850035016]]]}},{"type":"Feature","properties":{"slug":"rueda","name":"Rueda","source":"https://doi.org/10.6084/m9.figshare.19312094","sourceIds":["PDO-ES-A0889"],"resolution":"municipality","sourceYear":2022,"labelLonLat":[-4.96937,41.24701],"scope":"Union of the named PDO geographical areas; not planted-vineyard parcels."},"geometry":{"type":"Polygon","coordinates":[[[-4.96859899945322,41.11740100006192],[-4.96793249956053,41.10188299987047],[-4.951426500564721,41.094555000176555],[-4.941600000005264,41.09360150036912],[-4.946429499437127,41.082198999981514],[-4.963089500153965,41.06563199967369],[-5.021895500443302,41.03803249975101],[-5.026390500388966,41.04845749953124],[-5.036524500421851,41.051456500330374],[-5.037299000219815,41.0557215003064],[-5.045801500259553,41.06054350000612],[-5.06338849981062,41.06437300023215],[-5.054209500520784,41.074515999945454],[-5.071638000244361,41.08640299967303],[-5.074478999884532,41.091568000335556],[-5.102176999875641,41.107746000138874],[-5.115316500273827,41.10190200037262],[-5.117283499769722,41.10529699966436],[-5.129193499806713,41.10539250000762],[-5.124956999588557,41.132057000218964],[-5.132380000099284,41.136134999945305],[-5.136198500159339,41.14401999998253],[-5.1661165004164475,41.16027450010182],[-5.174540499530589,41.1613085003882],[-5.179685499599883,41.16730900033002],[-5.191289499988843,41.162124500176624],[-5.2079549998443575,41.16685100035121],[-5.218247499902035,41.15959900003835],[-5.22243450012061,41.1621664996915],[-5.217371000273391,41.16756800009165],[-5.222301000476635,41.17057400005344],[-5.228715499525166,41.18924700027301],[-5.241405499564997,41.196700999747954],[-5.248685999356915,41.19617049964149],[-5.247823000217939,41.19816199992136],[-5.252995499493928,41.19979099988131],[-5.264200000483448,41.19727300027406],[-5.268644999924837,41.199268500375254],[-5.271917000201588,41.197975000109864],[-5.270626499643435,41.19548049985376],[-5.288495499464464,41.19563299987573],[-5.291924499718637,41.18733199961036],[-5.288770999321321,41.18200699967152],[-5.2970035001654034,41.18118650035118],[-5.3017675004933205,41.18545149958702],[-5.327005000217967,41.17763899988515],[-5.332535500152623,41.17828350022611],[-5.32783599949377,41.181610000204195],[-5.33860499992948,41.188399999724574],[-5.336196500249965,41.19000599967263],[-5.340324000489999,41.19412249982079],[-5.329876499902051,41.20416999974915],[-5.315409999799101,41.21192550017395],[-5.307643499551568,41.22481149977719],[-5.293677500282821,41.22626900007918],[-5.298037500192004,41.226066500267585],[-5.294991499353105,41.2406234997948],[-5.302234000071045,41.25928500040745],[-5.301546499353044,41.262828999645386],[-5.291765999596907,41.269202999666604],[-5.296594499588049,41.27072849998229],[-5.297293000046871,41.29235850027386],[-5.3037000001955965,41.30034650008514],[-5.306499000119421,41.31161099953908],[-5.3035354993888,41.31599449979495],[-5.305874499612274,41.31895449994584],[-5.3159489999818055,41.320453500306265],[-5.322144500324256,41.3263474995637],[-5.334647499887046,41.37065499988039],[-5.3318690000946205,41.38392250006197],[-5.322321000262736,41.39419550035692],[-5.320511499972197,41.4014625002641],[-5.307558000433073,41.414062499687965],[-5.318376499466952,41.42086400021244],[-5.339258999664511,41.42560950021426],[-5.332864000214292,41.44414149994963],[-5.327252500239936,41.447227499700425],[-5.332242999468134,41.45021450008387],[-5.324813499351699,41.45535249976266],[-5.317507500103456,41.44919600005182],[-5.303997999518458,41.451126000497204],[-5.299978999452667,41.435245499889774],[-5.287583499586016,41.428531999622315],[-5.259096999967616,41.46221150005994],[-5.241612999916626,41.477073500175244],[-5.229750000223025,41.48002249955046],[-5.202924999441101,41.479026499907064],[-5.198738499508418,41.4830780003538],[-5.190698500177803,41.478702500170314],[-5.188179499824401,41.48929600044365],[-5.183108500280467,41.49380500006999],[-5.169414499563544,41.48619449984015],[-5.1630200000285456,41.48770149986387],[-5.16084750030825,41.49297349996805],[-5.156418499866449,41.49237449978402],[-5.15372750004313,41.50004199991953],[-5.137745500096136,41.49972950042659],[-5.128273000045797,41.503120500091896],[-5.1225974999991495,41.49958399972043],[-5.076186499637421,41.53558350030736],[-5.061874499628066,41.53519050026001],[-5.053840499564039,41.538513000170944],[-5.052861000070435,41.54317099991956],[-5.046366999923931,41.54254899989978],[-5.047537499817946,41.546589000453544],[-5.042921499444029,41.54655400012941],[-5.044532499768518,41.5493700000679],[-5.0355454995664335,41.55151000023046],[-5.031954500503138,41.556663499615794],[-5.023649500280211,41.55874649984382],[-5.014715000245536,41.54135150034905],[-4.992166999744827,41.539813999650704],[-4.985170500213163,41.54347600014543],[-4.95173150000654,41.52580250019819],[-4.918553500173115,41.530692999625465],[-4.925558000089268,41.54252599965831],[-4.936750499651816,41.54154600044442],[-4.945164000605771,41.54588700016508],[-4.94640899986361,41.5509834999607],[-4.945636499942569,41.55682350018031],[-4.9321604996896475,41.559715500487265],[-4.9255865002868395,41.55681950041315],[-4.9193430003612075,41.56136250003767],[-4.913976999587853,41.55142949986811],[-4.908314999575042,41.55667500009182],[-4.9004619998712355,41.553020500034705],[-4.889467999826162,41.55260099989301],[-4.883346500338088,41.5474470001416],[-4.868637499404566,41.55498549966456],[-4.865498500388559,41.55047599953366],[-4.86245999965447,41.55424400019622],[-4.836202999640281,41.538293500420345],[-4.831263000252784,41.533081499781524],[-4.832858000285397,41.52818699955955],[-4.796067499542992,41.52158350019649],[-4.773676500289347,41.495578999536264],[-4.764798500317613,41.4933625000159],[-4.75924850038354,41.494986999704246],[-4.753793499667707,41.457034999659285],[-4.745757499342536,41.448943999678534],[-4.731988000437197,41.46273399999117],[-4.701560999961233,41.458160500453666],[-4.693530500354147,41.44907399952624],[-4.686584999700905,41.4466750004534],[-4.6638124997740436,41.45591300011805],[-4.653711999803261,41.450843999611294],[-4.647651000250908,41.439933999789965],[-4.633395500404627,41.433749999824386],[-4.634462500134546,41.42511749953399],[-4.607701999571206,41.42076499990398],[-4.607009499975722,41.41640850018029],[-4.615556999687656,41.40884800009038],[-4.61681849940466,41.40131799969273],[-4.62113650004102,41.39798000032047],[-4.610687000632489,41.393306500240186],[-4.610167000400779,41.38627249959884],[-4.6249325004246105,41.36302199955517],[-4.612402000189681,41.3286094996967],[-4.596874499884638,41.320594500374256],[-4.605175999885326,41.31314850025297],[-4.600991500343784,41.30761349983559],[-4.602003999973948,41.30266200002814],[-4.590228999603949,41.29195799980855],[-4.576551000571378,41.284877500360466],[-4.573907500156219,41.275211500195574],[-4.598700999607792,41.26417950016364],[-4.615196499642291,41.241374999681945],[-4.604863500197108,41.233134999983335],[-4.594548000083142,41.238205000231055],[-4.555275499933615,41.23518399993462],[-4.549270000244158,41.23805600020217],[-4.552323499447341,41.242004500185644],[-4.54944850038111,41.24812350009719],[-4.551237999780366,41.25716399978033],[-4.5612820001626,41.26298900019154],[-4.560312500119677,41.269298499798936],[-4.531036000083715,41.28045650006114],[-4.518551000027066,41.28118899999042],[-4.494602499483161,41.2782595000875],[-4.4877375003820195,41.270404500145666],[-4.481513500158714,41.2696454995927],[-4.443805000185547,41.24882150018667],[-4.459785000537275,41.246658500195196],[-4.470124500497213,41.24048249995725],[-4.48335499943587,41.221782999633184],[-4.481514500568027,41.202052999895926],[-4.485482000167692,41.19929900018547],[-4.473279999439054,41.193367500114924],[-4.46667499988242,41.19344300011627],[-4.466382500093937,41.18831249987496],[-4.456262499827938,41.191123999901635],[-4.447945999375403,41.18332299973031],[-4.436429000214555,41.18388749957622],[-4.436978000456717,41.176830500033695],[-4.404874000186568,41.159683499962554],[-4.431742499536205,41.14231900013223],[-4.429128999881048,41.13885499975432],[-4.432605000050654,41.13370500031041],[-4.431883999629538,41.12520949966695],[-4.410263499909255,41.10628900014253],[-4.404320000364152,41.08052849956246],[-4.408603500098127,41.08044750039457],[-4.420840500151187,41.0716055000686],[-4.42172400015629,41.06342699987771],[-4.452751000178046,41.064480000108965],[-4.4638829996878115,41.07108700011794],[-4.487227499604794,41.07280750042082],[-4.485814500030404,41.066139000077804],[-4.49725749951986,41.05635449962355],[-4.501609500433489,41.056739499917875],[-4.5069400004224764,41.04994199998794],[-4.488490000500262,41.02850700035043],[-4.488541999351005,41.01973349980619],[-4.485133499885041,41.01889399987271],[-4.509498000593378,41.007152500076984],[-4.553700499721726,41.019988999983454],[-4.5572259996599405,41.02523800032067],[-4.562789000523944,41.017020500358406],[-4.577274499755506,41.00857150034523],[-4.617276500084665,41.00366950019787],[-4.618265500142272,40.99747099962879],[-4.613514499783075,40.98832300034626],[-4.616331499911789,40.98647299963148],[-4.63241199972281,40.99301900034193],[-4.647885499784864,40.989494500087986],[-4.6557915001169725,40.98284900038207],[-4.689474000233617,40.97475850029465],[-4.690626000376816,40.9700659997564],[-4.697005000078103,40.98942949967962],[-4.696437999909129,40.99979400018115],[-4.675625999700886,40.99865699971733],[-4.6743295002236325,40.99440000013401],[-4.631114499535866,41.01131800024533],[-4.623621500320273,41.00693900031931],[-4.622813500399204,41.009399500290876],[-4.638317499503188,41.0313224997624],[-4.651217000151466,41.03341600022753],[-4.6596954998153555,41.040401499664796],[-4.6597010000016175,41.04490650039463],[-4.650301999944363,41.05014800010086],[-4.650304999546957,41.06119900002304],[-4.674563500483678,41.07448949955165],[-4.6857369999246785,41.0934485003354],[-4.695565500115138,41.08765799994358],[-4.704784000318867,41.09057599962108],[-4.717177999740028,41.08920299999277],[-4.710058500618275,41.099289000117224],[-4.715743500122259,41.10734549982995],[-4.728980999676916,41.10388549988705],[-4.738514000452038,41.08425899991764],[-4.742406499990937,41.084247500174484],[-4.7389925000587745,41.07489400037804],[-4.74279500037489,41.07238000030351],[-4.741639999769037,41.06649400028222],[-4.77176099945724,41.06284700018687],[-4.783449500022284,41.06555250027583],[-4.781017500517839,41.08839400035005],[-4.787007499709411,41.09196100022563],[-4.788072999969605,41.097869499891345],[-4.7976004996497466,41.10139449971116],[-4.8149950003460065,41.10346600011983],[-4.827986999832685,41.0991705002779],[-4.855585000413735,41.10074600035697],[-4.863706000283774,41.09403200032716],[-4.8721405004676,41.097904000308894],[-4.870277499418885,41.100284499853466],[-4.874593500119524,41.10347749966672],[-4.901909500156962,41.11451350033735],[-4.905046500496807,41.11874799987817],[-4.9238564998060355,41.124157000327166],[-4.950837999839126,41.14072050018508],[-4.958020000006965,41.13902299984309],[-4.954923499894423,41.132248500372754],[-4.96859899945322,41.11740100006192]],[[-4.888607000082577,41.50901400043262],[-4.886611999447102,41.51373300008168],[-4.909240500129039,41.53019349971769],[-4.925930000468541,41.523464499851116],[-4.933158499655131,41.505042999806065],[-4.931610000242949,41.50214749971705],[-4.912932000299835,41.50621049950599],[-4.898205999798465,41.504504999901094],[-4.888607000082577,41.50901400043262]]]}},{"type":"Feature","properties":{"slug":"bierzo","name":"Bierzo","source":"https://doi.org/10.6084/m9.figshare.19312094","sourceIds":["PDO-ES-A0615"],"resolution":"municipality","sourceYear":2022,"labelLonLat":[-6.64497,42.58851],"scope":"Union of the named PDO geographical areas; not planted-vineyard parcels."},"geometry":{"type":"Polygon","coordinates":[[[-6.577833500514924,42.409724999853836],[-6.590451499819933,42.396202000034236],[-6.591643499848614,42.38879000047899],[-6.608627999414252,42.376582999653],[-6.622337499567314,42.37126150007493],[-6.622108499403539,42.35840999991945],[-6.626269499424063,42.35372899980631],[-6.616778500261792,42.34781650030422],[-6.622494999994376,42.33766949998338],[-6.618624999474705,42.33559400011128],[-6.623793000147019,42.32394050021721],[-6.630139499563801,42.31909199978341],[-6.642408999747074,42.31768800049293],[-6.659059499659264,42.30434400043925],[-6.674835999319791,42.29697449974013],[-6.681027999951636,42.29726399989052],[-6.687297999785123,42.30249000021792],[-6.694494500424271,42.2981910002348],[-6.733981500115431,42.31798950022392],[-6.740717500177496,42.32843800001863],[-6.733940000484061,42.359096499662904],[-6.757826999970914,42.36753849965355],[-6.766530000218406,42.36502850040756],[-6.768933999740558,42.372963000189166],[-6.7786315000818504,42.380973999763526],[-6.795892000426673,42.38198849981252],[-6.802235999624171,42.386333500401385],[-6.820791000196636,42.385623999996064],[-6.82346599958892,42.391876500328046],[-6.83355800046349,42.39543550015873],[-6.841541999557173,42.40285849965675],[-6.843498500708996,42.40582650033774],[-6.838051500109228,42.409141500004104],[-6.831270499580738,42.40833300027263],[-6.828903500007362,42.41675200002923],[-6.820945499832183,42.42139449990062],[-6.824792500195687,42.4258765000662],[-6.814258499507918,42.42733399964309],[-6.821766999755135,42.43327700037485],[-6.822753499955333,42.452888500153534],[-6.811436000411327,42.46115499954895],[-6.808376000462686,42.46903599962865],[-6.825454999622003,42.48568349996137],[-6.822765500031409,42.490833000138764],[-6.837038499546981,42.49548750032885],[-6.841023500117461,42.48895800039739],[-6.849179999836863,42.48672399973269],[-6.860281499999673,42.48901250030278],[-6.880986999611479,42.49995400038373],[-6.916521499603158,42.50840000001336],[-6.91477500043321,42.510448499510694],[-6.925036499619314,42.51941300019288],[-6.9321764993209225,42.52051899975264],[-6.960490500534254,42.51747149994131],[-6.973552499889016,42.49401200038383],[-6.978541500003997,42.493252999738644],[-6.9973360005096295,42.499495500130216],[-7.000956499821245,42.505698499998985],[-7.028685000251236,42.497864499699695],[-7.032642999702808,42.50434299967756],[-7.0457515001756175,42.50777900036799],[-7.077053500447523,42.50818999963863],[-7.069541999928618,42.513283000235575],[-7.059852999937094,42.52932149976759],[-7.061311500544002,42.537166000211215],[-7.070955500597051,42.537931000191044],[-7.064203999948637,42.54844799989652],[-7.0696704997992486,42.55394849988743],[-7.06271349947883,42.553355999923156],[-7.057143000065827,42.5576145002114],[-7.056211999657302,42.566526999717226],[-7.048819499607148,42.56925749985672],[-7.033561999817504,42.58409050048928],[-7.0342734997482905,42.58747100013517],[-7.027931500370485,42.586342000077],[-7.024246999634436,42.591957000115],[-6.993086999648086,42.58256899992407],[-6.983897500113792,42.583862500161615],[-6.979782000481097,42.58045200033399],[-6.969833499768065,42.58418299980209],[-6.956174999753431,42.584563999699796],[-6.946308500316415,42.5788344995278],[-6.944173999636109,42.584769999645815],[-6.933595499507125,42.59266299987626],[-6.914059500412324,42.597274499860184],[-6.913192500041914,42.60166799957287],[-6.918440500158084,42.60003850000804],[-6.929728499600877,42.60530550020998],[-6.936476499770054,42.61895749957956],[-6.931321000257187,42.62110649997247],[-6.93846899941456,42.62261950001121],[-6.935595000264252,42.62556049980196],[-6.9403610001797125,42.63500600005336],[-6.9349739995309525,42.639289999909074],[-6.935352500661613,42.64549600016664],[-6.9212145002361405,42.64447799952722],[-6.905304500319016,42.649254000354865],[-6.899745500358141,42.65728749963714],[-6.899087499886261,42.67759349977161],[-6.866632500565858,42.71322249995098],[-6.904167000004843,42.75953299990114],[-6.8961959995360225,42.7650719996895],[-6.896888500099337,42.77186200042713],[-6.890761499843601,42.77724449956759],[-6.8674089995891485,42.78713250006861],[-6.863985500313956,42.79536050006872],[-6.869236999965957,42.80075450013487],[-6.854331000345226,42.81057749977872],[-6.8514129993884305,42.8187064997209],[-6.840299499775739,42.82332250013796],[-6.844117499940169,42.82810199978569],[-6.832709000666812,42.84417750017371],[-6.816526499807436,42.84504299960133],[-6.80740650043831,42.8376114996406],[-6.797957000241104,42.83515550004341],[-6.788762000178819,42.82343650023904],[-6.788735500562754,42.815166000286894],[-6.779770499595053,42.808159000358565],[-6.742580999871875,42.8004035000068],[-6.740076999446658,42.78911600018873],[-6.747485499396902,42.779800499756945],[-6.745624999718443,42.77328099981636],[-6.7379909995043334,42.772133000394106],[-6.7301869999785415,42.77545150023553],[-6.727807999929172,42.76963049999663],[-6.689166000381297,42.760814499498416],[-6.692646499986873,42.768608499692654],[-6.68670049984614,42.779201500415894],[-6.678931999849141,42.78110900035838],[-6.665561500329401,42.7906949998055],[-6.646918499892429,42.78049450008599],[-6.645726999693405,42.79078699991896],[-6.650935999942515,42.79747399977172],[-6.645824499449543,42.8101389997209],[-6.651407500069522,42.81479649962589],[-6.6299075003360795,42.82088449964734],[-6.621353000043679,42.830859999552516],[-6.596880999443571,42.80838399975973],[-6.594856000326581,42.80511849951259],[-6.599180499623291,42.79933950028551],[-6.587590499765781,42.79451750018059],[-6.574335500189885,42.794238999873734],[-6.576590500314268,42.78567500009285],[-6.567139499813886,42.786053000098235],[-6.556880500471905,42.781745999650596],[-6.558797999444926,42.768513000219535],[-6.5432039996927065,42.770408499822196],[-6.54728499964382,42.76528550030697],[-6.535355999757499,42.75878499965927],[-6.531475999409771,42.758659500108564],[-6.532173499602701,42.76793299995249],[-6.536555500123919,42.76527349962596],[-6.5442204995459425,42.767685000209035],[-6.539062999557113,42.772808000361294],[-6.529699499835588,42.77278899991976],[-6.523963999742786,42.76862700042857],[-6.524438999576281,42.755691500154335],[-6.513877999860005,42.75667200043574],[-6.509034499752982,42.760929000086975],[-6.492456999897227,42.76035299994525],[-6.476208999634818,42.77022900020578],[-6.460344999665558,42.76782250035967],[-6.436023499410395,42.774848999722785],[-6.410153999996488,42.771388999645],[-6.403013999923757,42.77959800026203],[-6.375692999496402,42.787421999820786],[-6.366992999573964,42.79313649996143],[-6.33772500024769,42.79518849987532],[-6.3219850004914075,42.80153649975952],[-6.306144500201389,42.814116500129835],[-6.297422499828244,42.811214500011246],[-6.29760249993585,42.80818550031581],[-6.285326000190913,42.798282500287804],[-6.266398999935142,42.80269650043654],[-6.245298000255649,42.796939999805254],[-6.240656499800021,42.788841000271645],[-6.249114000554968,42.782020500186846],[-6.24801299946588,42.77335350002846],[-6.24538850015387,42.770377999654485],[-6.23429000047714,42.77387999948065],[-6.221419000430106,42.76866899963825],[-6.211373999754809,42.761604000094664],[-6.209342500019861,42.75420399957624],[-6.166332000183321,42.74651699964978],[-6.147215499611014,42.757171499970454],[-6.124025499910697,42.74946200046941],[-6.128411000147038,42.74797449992627],[-6.124321499537987,42.738559500127096],[-6.115549500291298,42.73221600001963],[-6.120073000245258,42.71666700010934],[-6.13932249954937,42.70951449965858],[-6.147337500661022,42.71012100035256],[-6.160291999568752,42.701473500061574],[-6.1786314999617105,42.697448500105345],[-6.196624999343742,42.70313649965413],[-6.200489000389246,42.69636549968703],[-6.210824999970589,42.693233500356385],[-6.212752000565971,42.683059499831295],[-6.194193500079675,42.67907700003288],[-6.201105999565524,42.66061399976823],[-6.221415000467309,42.65888950013581],[-6.226987000570035,42.64915450003264],[-6.2351049998420605,42.646484499870546],[-6.239931999702262,42.62645699997378],[-6.257142999591229,42.62025849972295],[-6.2562510005725835,42.61037049990107],[-6.273478499983439,42.605548500397454],[-6.281929000399239,42.60726149963473],[-6.308737000393985,42.59488250033521],[-6.271512999564409,42.577514500495674],[-6.271135999508694,42.573363999693356],[-6.256532000339991,42.56011199959411],[-6.243797999837175,42.55696099987654],[-6.247029000479843,42.55370350021889],[-6.285733500072413,42.54741300002398],[-6.293029500240624,42.54956050020301],[-6.300760500271895,42.534732999595775],[-6.296255999874374,42.53056750025105],[-6.305529500115462,42.531642999592925],[-6.301826499879015,42.52677900005411],[-6.307382000014126,42.519478000035676],[-6.303353000631594,42.51486600007757],[-6.312762499647523,42.51509099981727],[-6.310763999826752,42.50907900038305],[-6.322019500450206,42.50188450024649],[-6.3301770004315845,42.50746899965891],[-6.346042499595053,42.508567499744885],[-6.3554869994376,42.50583249965801],[-6.3688404999977495,42.511985500341524],[-6.3732885004005055,42.50012200020577],[-6.381620999486906,42.500759000037995],[-6.389661000053799,42.49574300019922],[-6.413758499459925,42.48934549986553],[-6.415512499905315,42.47530750036121],[-6.4071624997792584,42.47004699979912],[-6.407893000249441,42.4642104995214],[-6.427093999458584,42.43834299968525],[-6.4402254993244465,42.441280499658504],[-6.493588000343122,42.42386999970246],[-6.487322999755332,42.41149150025816],[-6.468238000528479,42.40457899991992],[-6.476271499682684,42.387653000293106],[-6.487438000134778,42.38901499975851],[-6.496694499525398,42.38620350002081],[-6.495324000278102,42.39063249967121],[-6.509320500370278,42.393718500223436],[-6.521586500047735,42.40276350027092],[-6.538412000318394,42.405341999957564],[-6.5555094999620644,42.4030380001262],[-6.5570070003536784,42.40673849997163],[-6.569493500445174,42.410732500133584],[-6.577833500514924,42.409724999853836]]]}},{"type":"Feature","properties":{"slug":"rias-baixas","name":"Rías Baixas","source":"https://doi.org/10.6084/m9.figshare.19312094","sourceIds":["PDO-ES-A1119"],"resolution":"municipality","sourceYear":2022,"labelLonLat":[-8.49404,42.1059],"scope":"Union of the named PDO geographical areas; not planted-vineyard parcels."},"geometry":{"type":"MultiPolygon","coordinates":[[[[-8.20514700016813,42.71030049950798],[-8.207722499783218,42.69618199992858],[-8.212473000521573,42.69318400005534],[-8.207227500405642,42.69435099994332],[-8.198546500157269,42.6871644997252],[-8.200625000345122,42.684002000390976],[-8.205204000112222,42.684917499519834],[-8.211667999898937,42.677451999663994],[-8.196786999837135,42.660106499614706],[-8.211411499776199,42.64568349969871],[-8.20608250051603,42.64057899992804],[-8.215364500274873,42.63711549989703],[-8.214128499631709,42.632706000030616],[-8.205793500258714,42.633888000365104],[-8.205114500121107,42.62767799981927],[-8.210310999553856,42.6257935003998],[-8.230431000517815,42.5991284998233],[-8.2453340000826,42.59697699970739],[-8.253787999691115,42.59028999966683],[-8.260873999870858,42.59211749972551],[-8.266116999793917,42.59923550025414],[-8.263939999391878,42.61459349991484],[-8.274300500079265,42.62209300033752],[-8.272699500558074,42.63182850002396],[-8.280035000340275,42.63954549973222],[-8.276310000227191,42.64552299976907],[-8.308718000143076,42.653510999569285],[-8.322304500159822,42.650360000241044],[-8.330556999631911,42.660560500228605],[-8.344852500131356,42.66397500033287],[-8.350887499597563,42.675010500444344],[-8.36258199963422,42.6796455001232],[-8.394434999732121,42.65541850002957],[-8.385486499821791,42.627926000279736],[-8.389375499792516,42.617489000447875],[-8.383296000515957,42.605403999953836],[-8.37961199967306,42.60448099986506],[-8.38033200018695,42.596568999785454],[-8.392791500382112,42.595657500213825],[-8.40316099964309,42.58711249973449],[-8.415873500245732,42.58200099996448],[-8.422735500194579,42.58511350017602],[-8.424584499703753,42.59096500049808],[-8.443840999864726,42.58938600012685],[-8.471350499565554,42.578377000338826],[-8.473089999678056,42.57113650038349],[-8.4975330003895,42.578052499499954],[-8.50381850020205,42.595592499668],[-8.50121849942,42.60286699975342],[-8.510091499779419,42.61017149964828],[-8.503331000373048,42.64143000014662],[-8.509791499709436,42.64497750039202],[-8.512404499999176,42.652313000387494],[-8.508873999490623,42.66701499996112],[-8.51550199989925,42.67763150013957],[-8.529941500435443,42.6830564997858],[-8.537216999779448,42.69024649999868],[-8.539393500265078,42.686576999750095],[-8.547355499435616,42.69060149972052],[-8.556805500676662,42.689728000302324],[-8.560157000464683,42.690635999625556],[-8.559175500386896,42.69436650027378],[-8.577654999558703,42.68898000039038],[-8.583453999995873,42.67676900034296],[-8.597448999817411,42.67640700029691],[-8.60153300017952,42.678116000073295],[-8.593567999909762,42.702155999678695],[-8.604476000508376,42.708747999804515],[-8.604369000145061,42.7141794996742],[-8.613875500582566,42.71453100019528],[-8.616805000093368,42.71886049994871],[-8.623904999864656,42.714229499569015],[-8.650883499961514,42.729125999782184],[-8.654933000027267,42.72047449960399],[-8.671997000139806,42.71856299987139],[-8.67156400023727,42.723591000314386],[-8.665690500284988,42.72211100027039],[-8.665962000674847,42.72747800014577],[-8.66194099954485,42.72744350002638],[-8.659107499520365,42.73157150030538],[-8.686048500014186,42.74550250003623],[-8.657731000098945,42.76628099992264],[-8.657713000082866,42.774669500292916],[-8.666288500389095,42.783893500018415],[-8.660296499906647,42.79129349991678],[-8.66411600031362,42.79299549984689],[-8.663689499940027,42.798217999786196],[-8.655521500145172,42.80046050019923],[-8.649481000504688,42.80741149965596],[-8.64569200036817,42.80461899947138],[-8.634838000488728,42.806773999595684],[-8.62786599955199,42.80326450039019],[-8.626928499683792,42.825061499657394],[-8.614307499995531,42.82695399955167],[-8.596444000253088,42.839153499775406],[-8.573392000474168,42.840327999573475],[-8.564300499519547,42.84488299999638],[-8.561118000530033,42.842167000005425],[-8.55203849963688,42.84568799961611],[-8.54622549981477,42.84076699969895],[-8.538389999675745,42.84628650014162],[-8.524399000491254,42.83713550032994],[-8.526288999452794,42.83215700026154],[-8.523024500042368,42.82601150040695],[-8.508316999610035,42.82853300015028],[-8.485884499760688,42.8246419997576],[-8.477205499605196,42.83863450046923],[-8.465660000569557,42.8441924998145],[-8.473145500147556,42.867962000003345],[-8.457613999369576,42.87316899994692],[-8.446814499441905,42.87329849990472],[-8.439794500583018,42.88042850009971],[-8.4088735000427,42.884758000007835],[-8.39953500061527,42.88253400026484],[-8.396210500541487,42.885818499797594],[-8.385964499622485,42.88413249961236],[-8.370930499543952,42.900440000040874],[-8.356787499642625,42.889259500334646],[-8.34484599978787,42.887253000329856],[-8.3320854994731,42.89317700009889],[-8.328333000416924,42.89239100000954],[-8.319566500103777,42.878307499839714],[-8.304404499429477,42.87405400014528],[-8.294913500000593,42.88173299980362],[-8.299779000391423,42.88521549978613],[-8.295970000278729,42.89404649965845],[-8.310946499784208,42.90148899990281],[-8.30926699959535,42.905007000498934],[-8.301099999534442,42.905155000076945],[-8.296463000181982,42.90994249982516],[-8.295877499692692,42.91893449988138],[-8.280155499910066,42.919285000444546],[-8.278719999494623,42.906074499784296],[-8.271424999696627,42.89696499963239],[-8.263197999560786,42.895683000227244],[-8.26041600043648,42.89149099983989],[-8.228465000582357,42.905547999905494],[-8.22642349959332,42.90269099962636],[-8.235099000252623,42.89136899954114],[-8.228690999910983,42.879760500101504],[-8.230698499320537,42.87251249969751],[-8.221541500290696,42.868709500262774],[-8.217055999822852,42.859531499973784],[-8.220557999482134,42.85186400019193],[-8.214906499986336,42.846218000155154],[-8.206647000279467,42.8428574999684],[-8.203303499952515,42.84426099987914],[-8.19838549971034,42.85126499963402],[-8.18366349969192,42.85998149987688],[-8.165604500164878,42.85532749977397],[-8.163841000280238,42.85165400009134],[-8.155506999843912,42.850444499992676],[-8.1512395006811,42.84651200027636],[-8.143036999712296,42.84778199968341],[-8.139013500187916,42.843075000300715],[-8.120563500302344,42.85044849994698],[-8.118419500439927,42.84213649999201],[-8.12336899979287,42.84295249988896],[-8.132603999982416,42.836040499787636],[-8.129386000331287,42.82048400034461],[-8.121840499843666,42.81903100004774],[-8.124851999823552,42.81213399965639],[-8.118009500291365,42.81235100013019],[-8.115012999762994,42.80937950020178],[-8.109208000200153,42.81296149973598],[-8.103673999713218,42.80811299979327],[-8.111495000512843,42.78941699968743],[-8.107060500124893,42.78363800026021],[-8.131002499453507,42.776549999652126],[-8.150159000480192,42.77456250015758],[-8.152773999520024,42.768096999883845],[-8.159963499617383,42.76491950006054],[-8.160367000334926,42.75964000003651],[-8.15330800071033,42.75497800032649],[-8.156748999648979,42.73803350042749],[-8.165536000119042,42.74060850015799],[-8.174639000154889,42.75088099992578],[-8.18501749994033,42.7546424995541],[-8.197187500468281,42.750857999619406],[-8.202760500427813,42.75671399969927],[-8.214047500352223,42.75643149965962],[-8.221243000339168,42.761226499691055],[-8.231099000030698,42.75221300016598],[-8.21501350035421,42.74451050010122],[-8.213930000548082,42.72392300028028],[-8.208175499747114,42.72010050001866],[-8.210602499444805,42.716136999687926],[-8.20514700016813,42.71030049950798]]],[[[-8.852911999357255,41.876380999908946],[-8.873018500323804,41.870246999801815],[-8.88224699961877,41.882232000187734],[-8.881861500234782,41.8923340000022],[-8.87611299971045,41.89804849984114],[-8.879943000282038,41.89960850015339],[-8.874256999836922,41.89989849991546],[-8.880625000211792,41.90295799975827],[-8.877296500476588,41.91037349987678],[-8.884999000510026,41.917217000178844],[-8.885957500047018,41.95909500030652],[-8.882483499837688,41.9683725001904],[-8.875969000286522,41.96678899959476],[-8.869471500365805,41.96918500013717],[-8.868200500153812,41.97282399985516],[-8.858989500581027,41.974052499964046],[-8.84957499941433,41.97398399994254],[-8.8237274998115,41.965858499711],[-8.805557999588993,41.9649735001463],[-8.801527000249925,41.977554500073964],[-8.785982000312654,41.99914549961818],[-8.786787999922202,42.01530849981929],[-8.809157999660487,42.03751749986777],[-8.810007000323294,42.05503099974951],[-8.807141500292808,42.05683500039001],[-8.811575000600406,42.06317900028399],[-8.804024999684664,42.072170000174395],[-8.805790999817292,42.082233500212865],[-8.812441000547421,42.08874900019894],[-8.814125999594475,42.10004099982989],[-8.809346999673513,42.10076900006378],[-8.814238499650328,42.10876449992794],[-8.811933000366109,42.115245999544015],[-8.806910499903054,42.11269349974998],[-8.786257500425513,42.11371250033682],[-8.780315500404251,42.11153799956961],[-8.772551500314757,42.124507999908566],[-8.759169500022718,42.13054650022651],[-8.753280499956311,42.14640399989736],[-8.745438500220905,42.15528499969153],[-8.746479000495379,42.15861850029608],[-8.737729999751231,42.16608049965184],[-8.716091000498642,42.15546050022592],[-8.703999999933648,42.155658499583474],[-8.684636000260113,42.090984500351354],[-8.676826499783708,42.095287500449125],[-8.681062499455422,42.101154000084264],[-8.674177999636422,42.10191700038685],[-8.667192499349055,42.10881799988393],[-8.653616000371889,42.10815799971028],[-8.636486999910478,42.11319749990589],[-8.633915999419438,42.11281949970417],[-8.63507850042749,42.10482349947725],[-8.639577999585027,42.10088350033494],[-8.633041499633839,42.097659499870524],[-8.631979999676329,42.09186199997076],[-8.636080999970817,42.088325500404885],[-8.625369000453329,42.091799000016636],[-8.613485999495884,42.10065649998613],[-8.586108999575746,42.09998900052122],[-8.578915499820262,42.128553500365115],[-8.57862750030588,42.14813600023392],[-8.582154000346797,42.17180650008302],[-8.588142500221373,42.17877949999682],[-8.599105500298133,42.17824200001177],[-8.613965499816901,42.18368000027272],[-8.616891999596515,42.18049300016151],[-8.612438500113303,42.17286500006266],[-8.619546500579848,42.16511650020088],[-8.624865500268454,42.165379499786006],[-8.624360999759514,42.16247200026943],[-8.632654500412498,42.16310599963093],[-8.632549000045083,42.16111749994478],[-8.643096000179343,42.16306099987586],[-8.669957500122107,42.1504214998336],[-8.665621000139419,42.14182649951736],[-8.673008000236736,42.13541799962446],[-8.690613000019452,42.138351499989184],[-8.671677499920975,42.153019000451295],[-8.676284999551266,42.17026900006133],[-8.66842799969521,42.18064500005843],[-8.666367499574188,42.205859999915376],[-8.634221000078579,42.22134799976152],[-8.626985499659659,42.230816000498685],[-8.610816999402585,42.23000699983319],[-8.606845999916702,42.24258350009851],[-8.590374499414192,42.24347299967829],[-8.577739499968168,42.239113000060875],[-8.568558000410604,42.2410915000421],[-8.546516499995883,42.25435999988367],[-8.52651299954322,42.25619900035391],[-8.516195499570314,42.26680749974416],[-8.515408999788852,42.26041799961259],[-8.507214499652001,42.25361999981853],[-8.507571000132607,42.24826450017494],[-8.49854850053606,42.24175250024983],[-8.504362999960327,42.23328000019306],[-8.493872499500327,42.226871500223226],[-8.485223499689944,42.22715400016155],[-8.468995000038724,42.2106440003004],[-8.473159000427604,42.20389950009222],[-8.459635500308842,42.19734549956606],[-8.459448500164763,42.19349300019251],[-8.443580499978463,42.198589000171765],[-8.439085999852786,42.2115060004395],[-8.437048000052306,42.201156499717705],[-8.425871999769889,42.18820200001122],[-8.390041499648975,42.177681000006295],[-8.377371499930705,42.183094000215945],[-8.349869499391083,42.18298350001009],[-8.339139999859512,42.19885250034675],[-8.329907500009238,42.20293799965721],[-8.331870999691253,42.212585500181326],[-8.316726000031476,42.23138300033749],[-8.319435499560072,42.23555999980469],[-8.309018500036249,42.254813499593624],[-8.294737999694462,42.26772350040796],[-8.290165999892583,42.2786904998553],[-8.279420999871665,42.28326800037312],[-8.272836500488209,42.28238300036234],[-8.269249000372946,42.27514649962579],[-8.264512999667273,42.25283499987883],[-8.25039949992271,42.2452809998061],[-8.24159999996097,42.244953000309856],[-8.233044500215891,42.23353549997085],[-8.21205449984922,42.2357714998436],[-8.203382500288706,42.24448349967093],[-8.18358950006612,42.243366500087824],[-8.168201500376155,42.24613550034273],[-8.161808000484964,42.24411399976369],[-8.172637000522178,42.235187499970834],[-8.17171400056394,42.23115899998604],[-8.162309500093082,42.22726450041791],[-8.164572499748147,42.22143549963697],[-8.183073000021379,42.216953499581486],[-8.192227499558728,42.209118000483095],[-8.17965000005423,42.209915000031685],[-8.17446500002475,42.202171500307315],[-8.176010999793943,42.18570300048858],[-8.162048499734635,42.18160650012654],[-8.161233999741027,42.17862700034469],[-8.1662999994523,42.17274499976227],[-8.174272500244538,42.17111600039844],[-8.181627000188623,42.15773750004915],[-8.202069000165421,42.15317149976914],[-8.20107450037012,42.1484184999083],[-8.207484000266808,42.14090749976356],[-8.226921000462553,42.1328164998823],[-8.243849499924226,42.13947300006643],[-8.253374999925441,42.13680249957691],[-8.25918099990165,42.12103649976883],[-8.274328999565201,42.123309999878614],[-8.300200000203514,42.10556000028754],[-8.322383999629928,42.10196699981975],[-8.325374499612106,42.09019500021593],[-8.331857500186896,42.08422099960224],[-8.343082500516298,42.08533450022089],[-8.353676999936342,42.09044249990838],[-8.363450999690885,42.09026350004564],[-8.370567500468704,42.08894000026674],[-8.381002499612901,42.077293499751725],[-8.390171999592209,42.0754319999838],[-8.39343100004889,42.080509000347014],[-8.40436249971115,42.080459500435616],[-8.419083500290691,42.07311250036641],[-8.428253499851676,42.072253999964495],[-8.443319500382634,42.082954499888025],[-8.523509999892253,42.078472000365885],[-8.528856499789597,42.07395550000068],[-8.52546050019443,42.06450250041634],[-8.556693000087892,42.051425999900985],[-8.594418499811773,42.055168000313394],[-8.63012700021323,42.05000299997995],[-8.656816500483691,42.03179149958421],[-8.663458999661787,42.00223599990171],[-8.68040549975913,41.99008200039618],[-8.68739600043782,41.98986800022159],[-8.699270500004916,41.983390999890354],[-8.718279000396661,41.97834799949468],[-8.74407750022712,41.96528999981172],[-8.747955500248155,41.95973950011085],[-8.745537999864997,41.950973499582815],[-8.748231999855292,41.94193650002456],[-8.757166000288699,41.93350199964037],[-8.787089500132211,41.9175939999706],[-8.8304329995479,41.90070700020475],[-8.837126000618378,41.89351250017976],[-8.837965999789768,41.887402000414326],[-8.852911999357255,41.876380999908946]]],[[[-8.758165500147548,42.41989500032878],[-8.760985999969243,42.39519500037175],[-8.770464999784641,42.39444750023232],[-8.775426999837682,42.38766850045256],[-8.781651499792682,42.39553850000098],[-8.792105500107478,42.3963125000277],[-8.801595500183705,42.40108900002849],[-8.806502500442527,42.39754500032881],[-8.814740000252629,42.40073800015477],[-8.817847500213329,42.39612950026407],[-8.819853999731935,42.39861300020495],[-8.823222999424933,42.39736949965197],[-8.820191499748425,42.39416499978275],[-8.826020499729035,42.391025500508064],[-8.826819500074338,42.38678750029137],[-8.833309499830257,42.388843499628315],[-8.83880499958295,42.384060000382036],[-8.849390999913764,42.39696149972665],[-8.858152500210942,42.39699550034734],[-8.864291000338817,42.41070550001766],[-8.880817500174835,42.41427600024105],[-8.877853500023315,42.42062400038337],[-8.882218499736418,42.42376699971271],[-8.876311500275094,42.42349999967271],[-8.87514950052732,42.42822649975545],[-8.878575500199545,42.4298935002586],[-8.871706999780224,42.43555049997384],[-8.879784500100007,42.45186249961265],[-8.886918000410448,42.45753850035817],[-8.911087000166486,42.462330000044176],[-8.919545999708005,42.45870599968235],[-8.924204999900775,42.45114499961168],[-8.931985999423931,42.45450250015228],[-8.933881000076278,42.452812000386245],[-8.939876500318357,42.461944500369285],[-8.9445164993845,42.46344000000349],[-8.936350999678847,42.46937950017846],[-8.938254499793192,42.47985099974332],[-8.918749000426006,42.47855749995428],[-8.911310499760518,42.47510149975025],[-8.896383500456455,42.48020150014242],[-8.892842000495532,42.48611799970284],[-8.889340500045643,42.48534400002649],[-8.89002999951367,42.481167000203456],[-8.883502999692206,42.4879570001697],[-8.885524499850462,42.49250050000273],[-8.88925100000338,42.49007449991022],[-8.891984000548026,42.49380499989037],[-8.871196999700087,42.501583000240586],[-8.8735864995213,42.49531949989985],[-8.867337000311766,42.49893550021046],[-8.858049499688434,42.49227499990626],[-8.860811999464374,42.483192499804105],[-8.857153999839115,42.47633350023346],[-8.860006499321601,42.47432299977397],[-8.856153999472932,42.47239700020574],[-8.87251499941279,42.46196749967822],[-8.86898150037069,42.44799799957704],[-8.858593000545476,42.45101900022922],[-8.854996500568555,42.457294499974616],[-8.851213500257161,42.45830150030406],[-8.850000500086429,42.45531849959769],[-8.847824499702647,42.46068950016342],[-8.844995499411452,42.4552344999887],[-8.8411204996475,42.45552049995769],[-8.83984199997726,42.461105000032546],[-8.836689000222549,42.4556964997445],[-8.832417499472255,42.45944200000658],[-8.827232499405653,42.453494999924565],[-8.820176000368992,42.45174800021319],[-8.821216500090388,42.46752149965759],[-8.833692500210685,42.47013449976127],[-8.826894999368822,42.4744489997088],[-8.8312244997502,42.48488599994763],[-8.825063999441864,42.49579700018813],[-8.81898500025717,42.48955149987504],[-8.813844999595348,42.493667499615505],[-8.81423949984983,42.49135950029907],[-8.808705999417938,42.49356899990339],[-8.804013500223656,42.50002599989524],[-8.80868499964833,42.50227350019197],[-8.812920499550943,42.4975775003231],[-8.814862499964091,42.50201450029431],[-8.81863400030923,42.50215549975918],[-8.816410999695838,42.50622149963842],[-8.821997500002091,42.50716000031462],[-8.82025250020749,42.512722000288385],[-8.816622999830047,42.509666499985194],[-8.816564499881201,42.5133865001843],[-8.820432500590211,42.51401150003028],[-8.81573249940343,42.51529299969372],[-8.813174500664296,42.53043350011669],[-8.828176499739302,42.517726999995794],[-8.829683000658031,42.51950450022615],[-8.826576999813811,42.541012000412636],[-8.833981499421586,42.55018599990845],[-8.839510000048953,42.55094899968138],[-8.834564500452206,42.56061550019922],[-8.8304389999827,42.56127549967146],[-8.825425999452271,42.55725849998189],[-8.82497950002764,42.551952499752396],[-8.818875499798311,42.559490000122004],[-8.82015250010111,42.56222549969119],[-8.824849000141644,42.55967350024395],[-8.83106200047951,42.562072999933655],[-8.8310505003797,42.575126499703934],[-8.82476999984387,42.58010849967421],[-8.80913900033557,42.576133500283404],[-8.801891500024249,42.582812999747745],[-8.79523450029472,42.580020999643416],[-8.799035999755876,42.584221000238074],[-8.788610499681399,42.58816899998986],[-8.784020499879658,42.59437950029441],[-8.785545499499262,42.599658499739945],[-8.780862999811033,42.594223000064495],[-8.776635999830628,42.593688500132465],[-8.774490500131657,42.59658799960477],[-8.775080499429157,42.59349799985075],[-8.772027000314003,42.593536499685726],[-8.771114499758196,42.59947950025586],[-8.767679499448453,42.60039900019244],[-8.771487000533234,42.60205100012679],[-8.766238999508955,42.601562500259874],[-8.770696500184663,42.610069500407974],[-8.778278499791796,42.613879999747844],[-8.75487149988394,42.64128799985788],[-8.744892999945217,42.64318899999744],[-8.725741500704352,42.62641500029728],[-8.718258999938582,42.62776949973092],[-8.706290000276152,42.63299550040236],[-8.699112000128384,42.63177900005037],[-8.681087500200727,42.642284499876446],[-8.665718999905282,42.66124699994577],[-8.6616829996696,42.65882849968559],[-8.648586500258471,42.66183500011555],[-8.637526500293223,42.660655999969634],[-8.624962000169468,42.66873500014543],[-8.61384750044061,42.66913199954492],[-8.615924000196427,42.66345599956601],[-8.609222500574743,42.65083249998526],[-8.61213649952764,42.638771000226285],[-8.609021499526566,42.63317100047819],[-8.613919500396834,42.62123849964667],[-8.611690499801727,42.607567000267395],[-8.601127999619328,42.598109000352125],[-8.621431500069962,42.5944514999225],[-8.610827999944446,42.58967050033998],[-8.618744500207278,42.57314949975186],[-8.61801550031674,42.5645669995312],[-8.609329499550364,42.56222150014544],[-8.613986000480049,42.555637500294],[-8.60908599959737,42.54976300026919],[-8.609677999903068,42.536155500323595],[-8.605142500221339,42.52058799989714],[-8.5970535000962,42.5126039996818],[-8.625269000251487,42.511100500368755],[-8.630556999871596,42.501586999941196],[-8.639176000609345,42.4973295002434],[-8.658603500345457,42.49517799977331],[-8.692734500364839,42.47884749991002],[-8.700844000153575,42.48189149964643],[-8.70990550055833,42.46738450021811],[-8.72534849965817,42.45728349987217],[-8.736192999441144,42.438705499955844],[-8.743380499461228,42.43638249999635],[-8.749336499750774,42.43969400002096],[-8.758165500147548,42.41989500032878]]],[[[-8.53806399973917,42.318324999707215],[-8.552447499672994,42.314621000210416],[-8.56567199950943,42.3069385002593],[-8.586998000453233,42.32055649994358],[-8.590743999894881,42.32708000017176],[-8.615618000109219,42.32986049971924],[-8.612176999698494,42.33682649998857],[-8.614866000032736,42.34223950030236],[-8.611899499857172,42.345569499767265],[-8.594078000309729,42.344642499899095],[-8.58976749952562,42.34696950023938],[-8.585235500184371,42.34323099974336],[-8.569543999773542,42.37033449998923],[-8.557258500425514,42.362380999871384],[-8.547421000501265,42.339573000068235],[-8.540999500059518,42.34298700027837],[-8.533265000636826,42.34089650028655],[-8.53139599971891,42.33713550013235],[-8.52374350047907,42.341205500333245],[-8.521241000329056,42.338390499645115],[-8.523904500090996,42.32782749994291],[-8.53806399973917,42.318324999707215]]],[[[-8.785659999922382,42.614673499613644],[-8.790848999404371,42.61672199984542],[-8.780032500537208,42.62493150011982],[-8.77815749998896,42.6184005002222],[-8.785659999922382,42.614673499613644]]],[[[-8.790653000498134,42.61082850006981],[-8.79379450017944,42.61117949964217],[-8.794815999626271,42.612991499877054],[-8.792859000415476,42.612903500067375],[-8.790653000498134,42.61082850006981]]],[[[-8.796415999479706,42.6119764999069],[-8.797755999657817,42.6090890003341],[-8.798060500372724,42.61105350021759],[-8.796415999479706,42.6119764999069]]],[[[-8.873910999466288,42.5659254997326],[-8.868511999768844,42.56355649977314],[-8.86285199948919,42.56853100010293],[-8.85507299975868,42.56476200046066],[-8.860130500091977,42.562637500095256],[-8.856928000301618,42.55714799955886],[-8.862299999778623,42.55356250008459],[-8.860544500249032,42.54923249961807],[-8.851913499959112,42.54574950023965],[-8.863922999809432,42.544780500192296],[-8.866837499274752,42.54197699969749],[-8.86500250059729,42.524517000042344],[-8.867266499752288,42.527237000166274],[-8.867825499512541,42.52479549984121],[-8.874388999562166,42.52416199983532],[-8.875795500117967,42.529533499949764],[-8.882410999757477,42.52948399983018],[-8.882062999739055,42.53393950002225],[-8.878176500559958,42.53533550004824],[-8.877581500703759,42.53195550031861],[-8.875860999752087,42.53424850009794],[-8.871105999830489,42.53223400026359],[-8.87208750038577,42.53722400032005],[-8.880075500412527,42.5401074996697],[-8.87734999950108,42.54645900006485],[-8.872819000365315,42.54564649985532],[-8.875492000228203,42.551288500163665],[-8.869162499487434,42.556736000263484],[-8.87022950025969,42.5610925003793],[-8.872161000594044,42.55976100022921],[-8.874145499451293,42.56325149965597],[-8.876746000135965,42.55814749987978],[-8.881503000334083,42.55771250016355],[-8.891972999521121,42.5682640001415],[-8.887525499987975,42.567981499931214],[-8.883537500475994,42.57025549973304],[-8.8845174994402,42.573292000108864],[-8.876614499978922,42.57512299967551],[-8.873910999466288,42.5659254997326]]],[[[-8.834077000057501,42.49709300026481],[-8.833377999536598,42.49009699963988],[-8.834348499413021,42.489174000096064],[-8.836911999800286,42.490043500070335],[-8.834077000057501,42.49709300026481]]],[[[-8.841631999482052,42.499588000163875],[-8.847328000213942,42.481380500346894],[-8.852408499659386,42.48278799994166],[-8.853064500487875,42.48889150028857],[-8.845911000374864,42.49486550024064],[-8.845709000487108,42.5006485003564],[-8.841631999482052,42.499588000163875]]],[[[-8.851522500283158,42.46588899995323],[-8.848070000157682,42.46538149971177],[-8.850987500208003,42.46367650001183],[-8.851522500283158,42.46588899995323]]],[[[-8.857220499986136,42.46154800019683],[-8.8609935000434,42.46434399967918],[-8.862030999453566,42.466052999704665],[-8.857044500270614,42.46434799960848],[-8.857220499986136,42.46154800019683]]],[[[-8.902420000550617,42.538135500155356],[-8.904192000149648,42.541293999645816],[-8.898599000395148,42.54394149955296],[-8.898032000168534,42.541172000422904],[-8.902420000550617,42.538135500155356]]],[[[-8.911695500514236,42.54547050001632],[-8.916316000187106,42.544608999516164],[-8.916996499791003,42.54742800011861],[-8.911695500514236,42.54547050001632]]]]}}]}
