{"type":"FeatureCollection","features":[{"type":"Feature","properties":{"slug":"swartland","name":"Swartland","source":"https://www.sawis.co.za/cert/productionareas.php","sourceIds":["Districts:11"],"resolution":"wine-origin","sourceYear":2018,"labelLonLat":[18.601304320187996,-33.0388930198293],"scope":"Wine of Origin district or union of named wards; SAWIS embedded public webmap (item updated 2018), retrieved 2026-10-10."},"geometry":{"type":"Polygon","coordinates":[[[18.553426585785267,-33.464064446071944],[18.54218866158093,-33.44958476711921],[18.53894574340526,-33.44244896360269],[18.539170322226287,-33.43682685627177],[18.52987275903565,-33.421270461269685],[18.530735141708405,-33.40787098466203],[18.513882746978325,-33.39317192367706],[18.505231970792252,-33.383668707570386],[18.50373178426777,-33.37703759269117],[18.501890237935328,-33.37530471802938],[18.502159732520564,-33.37111867057282],[18.49828799364601,-33.366699846377294],[18.498045448519296,-33.36377384606945],[18.49544033419535,-33.35977481985458],[18.496536278841976,-33.35463508854301],[18.49481151349647,-33.34872965031555],[18.487041086288833,-33.344182114852806],[18.485801411196746,-33.341210329706755],[18.486924305301898,-33.34031727344472],[18.481444582068768,-33.335829339474444],[18.479998294461335,-33.33207670881723],[18.4746263690623,-33.328308905014],[18.470134792641705,-33.327851053210004],[18.46667627879784,-33.3234375386837],[18.46412506339094,-33.32394795655636],[18.457935671083362,-33.32165855890772],[18.45679481067253,-33.31804794401207],[18.453920201763346,-33.31539806286656],[18.454126814278695,-33.31252288824478],[18.447676910538714,-33.308949432017165],[18.447865556748383,-33.302380196610336],[18.449689136775145,-33.300420591716936],[18.44660791535061,-33.29502957409849],[18.447353517036433,-33.29223632531323],[18.445008914144882,-33.29017887519876],[18.44386805373405,-33.28625907321172],[18.44539518971705,-33.28416393442998],[18.443068553131184,-33.27805094818788],[18.439870550719714,-33.27543740328996],[18.44174802966353,-33.271321662486244],[18.438307482125346,-33.27139676898326],[18.436564750474155,-33.269729389547685],[18.43719357117304,-33.2659889360812],[18.435334058534913,-33.266372001931906],[18.43441777694511,-33.26341258680994],[18.43200130883083,-33.26438154341109],[18.427689395467056,-33.26113662321584],[18.429018902087552,-33.25979956084605],[18.42570411868915,-33.25771881072483],[18.427339052506248,-33.25660705388487],[18.42173356513334,-33.253835112048584],[18.41884098991848,-33.25071751142164],[18.420323210137276,-33.248178274991474],[18.420089648163405,-33.244497002417106],[18.416119094607595,-33.238606643807486],[18.417053342503078,-33.23635257506182],[18.41405296945412,-33.23469955438239],[18.41534654346325,-33.23195697386903],[18.413397199296714,-33.230228728272195],[18.411349040448922,-33.230311384274046],[18.412714479680783,-33.227425892155885],[18.408267819024392,-33.22152686856784],[18.408761892430658,-33.220399621339624],[18.406336441163536,-33.22009901962579],[18.40359657954697,-33.213012035047015],[18.40128790926678,-33.21326756726499],[18.401063330445755,-33.20989297872348],[18.39765871551894,-33.20400780589427],[18.399311615641718,-33.19971581480298],[18.398251603606457,-33.196761660165734],[18.399518228157067,-33.19458168571321],[18.40230300553784,-33.19359692083939],[18.398979238986595,-33.189214206991615],[18.393867825019957,-33.18599656906631],[18.367987361684474,-33.15539303262524],[18.363720364084905,-33.160273772019636],[18.33333035802314,-33.163093798076666],[18.332027800861166,-33.16556030651019],[18.333914262957816,-33.16838016253849],[18.335908522888566,-33.16871101970024],[18.33633971422494,-33.17113225455763],[18.333492054774283,-33.174606083404164],[18.333869347193612,-33.179027120985204],[18.328039280999675,-33.18736483141242],[18.326080953680297,-33.18853761069928],[18.3250568742564,-33.1876880990654],[18.32533535199448,-33.18965023294411],[18.316190502402144,-33.199339973690485],[18.317313396507288,-33.20101621260438],[18.31504964199131,-33.20324112589876],[18.312839786392374,-33.2032035433734],[18.310135857387177,-33.209832851244464],[18.306937854975708,-33.2112082569922],[18.306506663639333,-33.21481577592426],[18.303533240048896,-33.217649077148444],[18.302751705751714,-33.22272924960218],[18.299023697322617,-33.225547265395214],[18.295187891059424,-33.22651664184212],[18.290328005372338,-33.23479723374582],[18.290498685276322,-33.239049937155954],[18.296715027042428,-33.24715654957713],[18.29648146506856,-33.250251739850476],[18.292160568551942,-33.25365482010282],[18.2873545817819,-33.255164753659926],[18.28273724122153,-33.254210719074116],[18.28001534591065,-33.2523251555143],[18.275945977673587,-33.25349706434512],[18.273619341087716,-33.258079377472555],[18.263378546848752,-33.264133671815365],[18.249643306154564,-33.26480217238808],[18.23472228928534,-33.28736294330571],[18.210530658684004,-33.28130274969327],[18.28605202461993,-33.41516709484329],[18.304727999376777,-33.42421701901614],[18.316504912751583,-33.433280993261214],[18.31944240373065,-33.43798129203217],[18.342017066820578,-33.43600974635342],[18.346903901966186,-33.4393231168934],[18.356336212449442,-33.44848295342967],[18.3696941607243,-33.47373120828892],[18.374320484437515,-33.47391853799128],[18.37584762042052,-33.47205271608498],[18.385100267846948,-33.47161060781812],[18.397775496505876,-33.474420579596554],[18.408707993513612,-33.48338939984139],[18.415642987507013,-33.48530742299245],[18.420556772111144,-33.49012477038424],[18.426270057318145,-33.49119608804579],[18.430932313642725,-33.49584829979728],[18.43832544843103,-33.49759375115119],[18.44412856516644,-33.50336173063297],[18.454620887684957,-33.509054424389106],[18.46522999119041,-33.51066478954052],[18.474267042948654,-33.50962367316941],[18.483618505056338,-33.513031597415335],[18.484220376296697,-33.516694030090406],[18.482315947894364,-33.51690373524384],[18.48407664585124,-33.51850646498401],[18.48724769880418,-33.52839180500868],[18.47395263259921,-33.531798989893446],[18.478453192172648,-33.53483913382205],[18.448934551936482,-33.563056450271944],[18.43165096587002,-33.557277479788134],[18.404324214927108,-33.5937189443021],[18.39976077328378,-33.5877848768452],[18.360800839411517,-33.59077815230689],[18.362705267813848,-33.58936384259372],[18.35784538212676,-33.582179689250346],[18.345628294262738,-33.57102809998217],[18.342690803283666,-33.570159862114636],[18.341549942872835,-33.57215080841678],[18.338423805684098,-33.569508677983826],[18.334057993403277,-33.56860299993501],[18.33114745188273,-33.57116282576524],[18.327518258134887,-33.56983052822556],[18.324032794832505,-33.574920093461834],[18.321355815285827,-33.5743063676821],[18.318759684114724,-33.57114037148266],[18.31212113416508,-33.56856557501785],[18.31039636881957,-33.56442627906651],[18.312678089641235,-33.56288428446011],[18.310288570985474,-33.556581282377095],[18.31112400419971,-33.547215758915875],[18.31406149517878,-33.54530659479953],[18.313648270148082,-33.54071694143175],[18.31866985258631,-33.54073940362411],[18.31566049638451,-33.5320610754773],[18.31911901022837,-33.52295500781655],[18.324859244893894,-33.51950253906578],[18.3259731558462,-33.51706101377532],[18.321715141399473,-33.5153908509564],[18.319684948857365,-33.510762159495826],[18.313675219606605,-33.50679986283006],[18.31590304151122,-33.5040658472586],[18.314950827310057,-33.50107705745586],[18.31690915462944,-33.4969045642629],[18.3110790884355,-33.49621537188822],[18.31204926894235,-33.49339861558745],[18.30717141694958,-33.48543479021343],[18.307854136565513,-33.48079700418229],[18.305329870617136,-33.48177103477146],[18.300227439803336,-33.473708728697424],[18.276413101621326,-33.44664656617622],[18.256084226741702,-33.42692356536245],[18.240453540798026,-33.4141098342188],[18.21448324593413,-33.39536194140814],[18.17338532168566,-33.3733317494348],[18.166656940207602,-33.36856793356758],[18.163054695918284,-33.368170311943594],[18.163225375822268,-33.36626470384225],[18.16088975608356,-33.36496676576782],[18.153622385435032,-33.35541544685404],[18.14781926869962,-33.354837682238454],[18.14894216280477,-33.35329195545147],[18.146606543066056,-33.34885721801749],[18.14796299914508,-33.34667353333495],[18.153577469670825,-33.34699621183966],[18.1567125900124,-33.344069549081624],[18.16076399194378,-33.34301892820038],[18.159955508188073,-33.32944226552399],[18.14896911226329,-33.30502296566345],[18.136536428731077,-33.28261695380407],[18.114392956977532,-33.25011651538097],[18.09160269821942,-33.22311250508356],[18.070995345601716,-33.20200841065321],[18.050181380468665,-33.18304195165324],[18.01953086297451,-33.158190654533996],[18.006792752245698,-33.14890250696686],[18.00080098930062,-33.148947633947955],[17.99862706631305,-33.14630766651235],[17.98662557411721,-33.142757499597565],[17.978684467005593,-33.14177215238216],[17.972656771449152,-33.137131093438455],[17.971551843649685,-33.13231676973386],[17.97737292669078,-33.1278407163126],[17.976079352681648,-33.12194250923734],[17.968856897797327,-33.1132148434702],[17.964410237140935,-33.11295149524939],[17.957169815950934,-33.10977620598793],[17.954160459749133,-33.10712001094435],[17.95451978586278,-33.103936985910224],[17.958930513907806,-33.101882631939915],[17.958481356265747,-33.095674127557835],[17.96105952113117,-33.095553715865236],[17.964985158922772,-33.09875209545259],[17.967329761814323,-33.09900796079206],[17.97201896759743,-33.095184954030636],[17.974624081921377,-33.09624608084525],[17.976348847266884,-33.09544835549892],[17.979412102385734,-33.09210686123141],[17.98045414811531,-33.0839557918406],[17.97655545978223,-33.07945469290554],[17.975261885773097,-33.07514155090458],[17.977112415258386,-33.07231117178188],[17.973797631859984,-33.06759116152835],[17.97947498445562,-33.06667272500501],[17.989042042231493,-33.06923980632247],[17.990632060284387,-33.07104650487064],[17.995213468233395,-33.06951081346958],[17.996938233578902,-33.071761646131066],[17.995294316608966,-33.07594698789471],[17.996516025395366,-33.07730191198888],[18.004924256454725,-33.078679396757764],[18.002579653563174,-33.08197623991602],[18.005085953205867,-33.08652989538123],[17.99031764993494,-33.08975870819797],[17.98617641647515,-33.08917166014083],[17.982071115626724,-33.092400375951065],[17.982053149321043,-33.09720183658607],[17.986850152938242,-33.09608804149317],[17.992365808782736,-33.09200902277376],[17.99999250554491,-33.093363699427236],[18.00856243335541,-33.09279172738632],[18.014599112064694,-33.096148246994126],[18.0104578786049,-33.100881775429364],[18.01465301098174,-33.112665573430085],[18.01425775225673,-33.12052808436283],[18.03126286058511,-33.12790842302219],[18.030463359982242,-33.132339337492205],[18.025405844932653,-33.13903418295129],[18.024974653596274,-33.14364505479284],[18.034236284175545,-33.149571888138226],[18.04984900381354,-33.15445295146833],[18.04947171139421,-33.159371344526946],[18.05923639853259,-33.16737254439906],[18.063611193966253,-33.17412486857589],[18.07921493045141,-33.184222306948655],[18.087910622401687,-33.18786852700415],[18.08911436488241,-33.196746626045005],[18.095896645277513,-33.20388754280956],[18.11018884144785,-33.20359440084845],[18.11176089319506,-33.19940762520979],[18.122756272272685,-33.19319850137013],[18.125029009941507,-33.18870300138668],[18.125460201277882,-33.18119244577159],[18.117438245790698,-33.179929346148995],[18.11468940102129,-33.18062104581673],[18.11241666335247,-33.18402683519589],[18.116018907641788,-33.18737986714366],[18.11392583302979,-33.18889846270556],[18.09625597139116,-33.17631287094255],[18.086841627213587,-33.173530865378595],[18.082323101334463,-33.16819969446939],[18.08260157907254,-33.16568062221979],[18.08625772227891,-33.16448497752318],[18.096830893172992,-33.16953815714138],[18.094504256587125,-33.164552655960236],[18.09121642264725,-33.16499632442042],[18.090731332393823,-33.163823230052664],[18.094019166333698,-33.151226516307254],[18.092833390158663,-33.1463603162119],[18.09019234322335,-33.1428327164877],[18.061437270978686,-33.129796666889426],[18.058356049554156,-33.12421456959031],[18.05589466567567,-33.12183718051046],[18.052948191543756,-33.12106225813615],[18.04931899779591,-33.11550217766574],[18.036697668054032,-33.108647521021375],[18.029394364794143,-33.09852633129922],[18.030337595842468,-33.09114352398373],[18.028478083204337,-33.08424933376978],[18.03937464760071,-33.069337670110755],[18.041764166256467,-33.064098040375534],[18.040093299828005,-33.06179431133476],[18.041934846160448,-33.06084569949804],[18.043030790807077,-33.050455472176246],[18.04162043581101,-33.04529001885776],[18.038278702954084,-33.04496622670784],[18.036535971302893,-33.04344514067795],[18.0367336006654,-33.04085471589285],[18.037838528464864,-33.04071163788534],[18.03675156697108,-33.035741415490726],[18.031792866602743,-33.02550639268244],[18.02165088704503,-33.014968876663985],[18.00045064633981,-32.999917402783446],[17.988152710100213,-32.995931872820414],[17.97819039359933,-32.995298993277046],[17.96752739117683,-32.99627844778976],[17.955328269618487,-32.999872199294174],[17.946542746139798,-33.00598952764773],[17.951537379119504,-33.010343722134486],[17.949794647468313,-33.01302543737284],[17.95002820944218,-33.016008373121025],[17.9476117413279,-33.01780863147291],[17.947782421231885,-33.021009836905435],[17.958014232318007,-33.025408480175514],[17.959658149287943,-33.02720101499312],[17.964841428477314,-33.02651563833813],[17.965506181787564,-33.027893917841844],[17.963431073481246,-33.02998012504779],[17.958804749768028,-33.02872991294068],[17.9566398099333,-33.02992740561832],[17.9542413081247,-33.026319815457796],[17.952381795486577,-33.025762471032465],[17.94482696394713,-33.02512227376242],[17.93902384721172,-33.026365005391874],[17.93422684359452,-33.03047719240372],[17.9343975234985,-33.03254074508235],[17.939428089089574,-33.03649449751373],[17.9391945271157,-33.03846754188844],[17.927264900142593,-33.04131407003045],[17.92461487005444,-33.04422074723289],[17.921425850795817,-33.044604782901914],[17.911409635377883,-33.051946319267365],[17.90897520095792,-33.05054582726394],[17.909855549936356,-33.04869352943569],[17.903531410336157,-33.045945129567],[17.904205146799242,-33.04336230850631],[17.902040206964518,-33.039695024298204],[17.895491488543286,-33.04065892487661],[17.898491861592245,-33.03513894523776],[17.8968030288581,-33.0349958579473],[17.896650315259798,-33.033527317062216],[17.893425363389813,-33.031606880512975],[17.891781446419873,-33.0278261341079],[17.889266163624338,-33.027103104368706],[17.892616879634105,-33.02604114368567],[17.897045573984812,-33.02901610763893],[17.902228853174183,-33.02596582683926],[17.90467227074699,-33.018591996014564],[17.903324797820808,-33.01255087010928],[17.89762947891949,-33.00499511398185],[17.890056681074363,-33.00122076009632],[17.885088997553183,-33.00147690898059],[17.882726428355948,-33.003428136364505],[17.88277134412015,-33.00552998939236],[17.88009436457348,-33.006064861559544],[17.87794739104443,-33.00446776885275],[17.877740778529084,-33.00053518148232],[17.873599545069293,-32.99984206362179],[17.873123437968708,-32.99847087963957],[17.875054815829568,-32.99588666728926],[17.87207240908629,-32.99262427365247],[17.87288987599484,-32.99035634927996],[17.87718382305293,-32.988985017898756],[17.879249948206407,-32.98297954108003],[17.88176523100194,-32.98211297054601],[17.882492866382076,-32.98008591581867],[17.884262547491794,-32.980598335535305],[17.88693054388563,-32.97839792395451],[17.884936283954882,-32.977365520169954],[17.882232354949682,-32.97785534828794],[17.879645206931418,-32.97580558790499],[17.88455000838271,-32.976001522939406],[17.885286626915686,-32.97415519478591],[17.883750507779844,-32.973198103368645],[17.886014262295824,-32.972082739654326],[17.88566391933502,-32.96731213995234],[17.88836784834022,-32.964659183147916],[17.88641850417368,-32.96379996983117],[17.884774587203744,-32.96532242981798],[17.882016759281495,-32.96490036433132],[17.88467577252249,-32.96221718658448],[17.884199665421903,-32.95862190214906],[17.87914215037231,-32.95634556677542],[17.879564358555847,-32.95488325418047],[17.88260066421617,-32.95444606324255],[17.886211891658334,-32.95092584360757],[17.887128173248133,-32.94742809895484],[17.886166975894124,-32.944563463615545],[17.887882758086793,-32.94229430500758],[17.883481013194608,-32.92528506979773],[17.879474527027433,-32.919003794031056],[17.8715513862215,-32.915157894946994],[17.870706969854428,-32.91148528239575],[17.866880146744077,-32.910014686395684],[17.863179087773506,-32.91144757511116],[17.861463305580838,-32.91085179788306],[17.858965989090986,-32.90572342304762],[17.86352044758147,-32.90065509021576],[17.863179087773506,-32.89924465433963],[17.865891999931545,-32.89895803895576],[17.86897322135608,-32.895759951762436],[17.868631861548113,-32.89405526377088],[17.863978588376373,-32.892772954724805],[17.86635014072645,-32.89095506126921],[17.86530809499687,-32.88862418064639],[17.86999730077997,-32.88600658141603],[17.873401915706786,-32.886783571390005],[17.879249948206407,-32.88549361342768],[17.88294202402414,-32.880657989850214],[17.885789683474798,-32.871959238403434],[17.885106963858863,-32.86894125877118],[17.881657433167845,-32.86777176404875],[17.883687625709957,-32.86249752849051],[17.880911831482024,-32.85911702373985],[17.880983696704757,-32.853125366223345],[17.878737908494458,-32.849661490462836],[17.874039719558514,-32.84853702241824],[17.875027866371045,-32.84637106059327],[17.867221506552045,-32.84217483083531],[17.862334671406433,-32.84218992554249],[17.860618889213765,-32.843472966270554],[17.859540910872823,-32.84263521824952],[17.86223585672518,-32.83953321754765],[17.858876157562573,-32.83874071823217],[17.85485170508972,-32.834219563027204],[17.850692505324243,-32.83292884041521],[17.848276037209963,-32.827773310924826],[17.84590448485989,-32.82608996195723],[17.849488762843524,-32.82221738334787],[17.851842348887917,-32.82290434430862],[17.853333552259556,-32.818216296354585],[17.862469418699053,-32.818556018288525],[17.86567640426336,-32.817702936300876],[17.8680838892248,-32.813044813195106],[17.87161426829139,-32.81535503119052],[17.881864045683194,-32.81240307531479],[17.883651693098592,-32.80478491516864],[17.885574087806607,-32.807253904793996],[17.890739400690297,-32.807767325215465],[17.89906678337408,-32.80413556705748],[17.90454650660721,-32.79844224214567],[17.90820264981358,-32.78790032277167],[17.90754687965617,-32.76895042271307],[17.902947505401478,-32.7556702486931],[17.89545555593192,-32.748424995722225],[17.897126422360387,-32.74565215175003],[17.89589573042114,-32.74199519013782],[17.904492607690166,-32.73542890512523],[17.909145880861903,-32.73647168465794],[17.91266727677565,-32.73485461553505],[17.91821886523151,-32.72808376455725],[17.92256671120665,-32.72574860851831],[17.923995032508397,-32.718432901791395],[17.920608383887267,-32.71546261402744],[17.921183305669103,-32.7144195887513],[17.92309671722428,-32.71420040072939],[17.931666645034777,-32.719936902906824],[17.940712679945864,-32.71609749300653],[17.941826590898174,-32.71752595418646],[17.94127861857486,-32.720775807082084],[17.948033949511437,-32.72240824664063],[17.95316332978376,-32.72094207544102],[17.96151766192607,-32.71568935703874],[17.968533504295046,-32.70532661271101],[17.968030447735938,-32.700435825895156],[17.971318281675817,-32.70168311538327],[17.97355508673327,-32.705009135458106],[17.982125014543772,-32.70417764206146],[17.978289208280582,-32.70882634661208],[17.97780411802716,-32.711796855361264],[17.9791875235647,-32.715001568126866],[17.975549346664017,-32.717631765215614],[17.975693077109476,-32.72170539438304],[17.98593387134844,-32.729527147572846],[17.99471939482713,-32.731197210798676],[17.996057884600468,-32.73267077001458],[18.015497427348812,-32.739985308479255],[18.01463504467606,-32.742675215021094],[18.01159873901573,-32.742720549828775],[18.014778775121517,-32.749490288849614],[18.02245937080074,-32.75393265050584],[18.028406217981612,-32.75568535809388],[18.029654876226537,-32.75849566205617],[18.043156554946854,-32.76725085227768],[18.051735465910195,-32.77586167482707],[18.05621805917795,-32.78393545238799],[18.060628787222978,-32.783588045800606],[18.080580369683272,-32.77729673092236],[18.087712993039183,-32.77741757669493],[18.091189473188724,-32.780416009869505],[18.09425272830757,-32.780106352683916],[18.096399701836617,-32.777719690408354],[18.099624653706606,-32.78096734804443],[18.10647879932444,-32.77873176387445],[18.10832034565688,-32.78018943154681],[18.113090399815558,-32.780272510332125],[18.121193203678317,-32.77770458474704],[18.12745446120863,-32.77748555236989],[18.137165249429962,-32.77391298265952],[18.1645189498314,-32.7564257155916],[18.19471132653066,-32.72218907825148],[18.199885622567187,-32.714412030552616],[18.22720339035726,-32.6964746212698],[18.2413428729293,-32.68422703710078],[18.2614471689879,-32.66043773230456],[18.28394996685509,-32.62665602498004],[18.2977121570078,-32.60158002845986],[18.31152824607756,-32.572606016747585],[18.320214954874995,-32.54893090337062],[18.32829080927923,-32.51817497562379],[18.333896296652135,-32.47742098498681],[18.33475867932489,-32.4407728559864],[18.329988625166216,-32.39064654027479],[18.323197361618274,-32.359047355821374],[18.316154569790775,-32.33703899920533],[18.317618823703892,-32.33350957500902],[18.31549879963337,-32.31665752394374],[18.31687322201807,-32.31479753335551],[18.323359058369412,-32.31762166729928],[18.330428799655436,-32.31516194268328],[18.3361780174738,-32.315746512917734],[18.340633661283032,-32.30963491038639],[18.342735719047873,-32.303500117087346],[18.343211826148455,-32.30491237115861],[18.35577925697329,-32.30083499702984],[18.377778998281375,-32.28964974976066],[18.39924873357183,-32.27370098261629],[18.464969479758015,-32.29886078349465],[18.54459614654237,-32.344446547314014],[18.58023231386339,-32.340689721135284],[18.621644648461302,-32.3870736932288],[18.653606706270274,-32.41300586234282],[18.66627295177636,-32.41546292630174],[18.670441134694673,-32.44931657564083],[18.65817913106644,-32.461080869142755],[18.673612187647617,-32.46951655895099],[18.662769522168293,-32.491038008494264],[18.686026904874147,-32.51901577258228],[18.707281044496415,-32.53639048176149],[18.709005809841923,-32.55697220842436],[18.725813288807803,-32.56592128830078],[18.769291748559183,-32.56441469520901],[18.804344010945528,-32.57144776992481],[18.792441333430947,-32.55926634697183],[18.786278890581887,-32.536375335265866],[18.78298207348917,-32.529824236454516],[18.785596170965952,-32.522151648612464],[18.7871322901018,-32.52014439757449],[18.795450689632748,-32.51942480609624],[18.827969702917873,-32.51088016376578],[18.849628084417997,-32.52122756125102],[18.86845677277314,-32.53863970800497],[18.866184035104315,-32.54190363646903],[18.8872225790584,-32.55489001870791],[18.907192127824374,-32.5741806028171],[18.914495431084266,-32.58487645806818],[18.93309055746554,-32.60569678723823],[18.93999860200042,-32.619218705494006],[18.9481283553217,-32.628252357861086],[18.951236526204752,-32.62916777761494],[18.951470088178628,-32.63630167846514],[18.959366279526034,-32.64928951545272],[18.967019925746733,-32.64938784365835],[18.97403576811571,-32.67065444945389],[19.00846819295601,-32.71647539501521],[19.01649913159604,-32.750056928939664],[19.01958933617341,-32.76984929351228],[19.031321333784007,-32.77269691669997],[19.03298321705963,-32.77824083415317],[19.021008674322317,-32.778595814376665],[19.02432345772072,-32.79681119594173],[19.03530087049266,-32.78560449555443],[19.042137049804808,-32.82395364804843],[19.03457323511252,-32.82525959869795],[19.036181219471096,-32.8484011796764],[19.030854209836267,-32.881193617936184],[19.028302994429367,-32.917895287319716],[19.03848090659844,-32.917895287319716],[19.097886496337267,-32.92992976005817],[19.084268036630014,-32.963845191793006],[19.15179439653728,-32.98325081358605],[19.149530642021297,-32.98762873513699],[19.15158778402193,-33.014080022148235],[19.160265509666523,-33.01494627877882],[19.162457398959777,-33.01687461080737],[19.165089462742245,-33.02543107537907],[19.16517031111782,-33.039318497770175],[19.166733379712188,-33.042255362009215],[19.171224956132786,-33.04349785201935],[19.17203343988849,-33.047323105153936],[19.176731628824434,-33.05366302101339],[19.176785527741483,-33.06278808419855],[19.175276358064163,-33.0659725989218],[19.171692080080525,-33.06703407822351],[19.1681976336253,-33.08187839018619],[19.173407862273194,-33.09170045461724],[19.146359589068354,-33.10581822031436],[19.089972338684174,-33.11356095707406],[19.05695925199278,-33.14085449082667],[19.055611779066602,-33.14032043747125],[19.052027501082964,-33.1417420652702],[19.020002561204105,-33.141651803872435],[19.006950040125847,-33.14529979474397],[19.000913361416565,-33.14502902125107],[18.98081804851081,-33.15203125599935],[18.956815064119134,-33.16760565111778],[18.95782117723735,-33.17438051428239],[18.956886929341866,-33.18789108047036],[18.933494799343393,-33.19950534397874],[18.931895798137663,-33.20125674649723],[18.93339598466214,-33.20342903828351],[18.942909143520964,-33.200602793432104],[18.948083439557497,-33.2022564584085],[18.948613445575123,-33.204346044934255],[18.94427458275283,-33.208277038362986],[18.958261351726566,-33.22263907159784],[18.957012693481644,-33.22865824939462],[18.958153553892476,-33.23042409687794],[18.95670726628504,-33.23371524086106],[18.947571399845547,-33.239718629649374],[18.951335340886008,-33.2469837565983],[18.94638562367051,-33.252482913387766],[18.948505647741033,-33.254736566197295],[18.953293668205387,-33.254976952399566],[18.955449624887276,-33.25924369743393],[18.952278571934333,-33.2659063138147],[18.955889799376493,-33.26692781998257],[18.960857482897676,-33.26625933567963],[18.96551075606941,-33.26778407330054],[18.967684679056983,-33.27443101743663],[18.97465560566175,-33.27634614472782],[18.976775629732273,-33.27910235222626],[18.974619673050388,-33.28882723923067],[18.981680431183563,-33.29276945228239],[18.980791099052286,-33.29635107999378],[18.989873066574734,-33.298648650538716],[18.99148105093331,-33.3001127570619],[18.989594588836656,-33.30532327526129],[18.99812858403579,-33.30756054921349],[18.99608940834084,-33.31141182930888],[18.99660144805279,-33.31331113093083],[18.992325467300383,-33.313934212963055],[18.984635888468315,-33.31282317201315],[18.978967519025524,-33.31846080775875],[18.98075516644092,-33.321711103134625],[18.98066533491251,-33.328151284172705],[18.988148301229224,-33.329412242919105],[18.990474937815094,-33.33107848184337],[18.987564396294548,-33.332542043798576],[18.986136074992796,-33.335656722011315],[18.979524474501677,-33.340895134424684],[18.980988728414793,-33.34409956663483],[18.987627278364435,-33.34728887270511],[18.993565142392466,-33.35403480815848],[18.98645048534224,-33.3611853791606],[18.987276935403628,-33.362535893241315],[18.994670070191933,-33.36517683798331],[18.991867326505478,-33.368132800375825],[18.991543933003197,-33.37181635913876],[18.985462338529707,-33.3788079398064],[18.985659967892214,-33.38015067905099],[18.991588848767403,-33.38072077435955],[18.993475310864056,-33.38219850400896],[18.98985510026905,-33.39049432702305],[18.9932237825845,-33.39365193228537],[18.99112172481966,-33.396089435087504],[18.978940569566998,-33.39920183928303],[18.979066333706776,-33.40127171384612],[18.98276739267735,-33.40368650518405],[18.98345011229328,-33.40581626544496],[18.982300268729606,-33.407218579081494],[18.978159035269815,-33.40766851448897],[18.96886147207918,-33.42069313416807],[18.968304516603023,-33.42431448613871],[18.9712869233463,-33.42992990711052],[18.969517242236588,-33.43065711129458],[18.958926105036817,-33.42834802954478],[18.95706659239869,-33.42975747635881],[18.95720133969131,-33.43354337709479],[18.961010196495973,-33.44244896360269],[18.95502741670374,-33.449562281265464],[18.950993981078042,-33.45181083778313],[18.950122615252447,-33.45470389473892],[18.951272458816117,-33.457784219751325],[18.955844883612286,-33.46007752935055],[18.956042512974793,-33.461733770779155],[18.942226423905034,-33.46596790930755],[18.93964825903961,-33.46946747476114],[18.939396730760055,-33.4846930608253],[18.93618974519575,-33.489952459313265],[18.938327735571956,-33.495608578408046],[18.94143590645501,-33.49805070899791],[18.94227133966924,-33.501616395577834],[18.93813010620945,-33.50376622386272],[18.937402470829312,-33.50756387365898],[18.940699287922033,-33.52124751338051],[18.938300786113434,-33.52266293878971],[18.933800226539994,-33.52244575861756],[18.932282073709832,-33.52395103067054],[18.938444516558892,-33.53986337379613],[18.93842655025321,-33.545179315692046],[18.914198987040507,-33.55094412250367],[18.90033798220654,-33.5508393112673],[18.89304366209949,-33.571290066589526],[18.862509925592267,-33.57503235990065],[18.85575459465569,-33.56890988364383],[18.844678367202498,-33.57456832434135],[18.844893962870685,-33.5842077764661],[18.84823569572761,-33.587388260054624],[18.838354227602295,-33.58965568617916],[18.83027837319806,-33.59579165603248],[18.82102572577163,-33.59647257212155],[18.818303830460746,-33.59520800939187],[18.80155923356476,-33.62042093605825],[18.787877891787616,-33.637325177097296],[18.82277744057566,-33.64162550549704],[18.802511447765927,-33.674024376448465],[18.794175081929296,-33.67922739666611],[18.796411886986757,-33.69437117765957],[18.795199161353192,-33.70654555987835],[18.797939022969757,-33.70777859628789],[18.800642951974957,-33.7057907834026],[18.804020617443246,-33.70599255598131],[18.80615860781945,-33.71015494379715],[18.809257795549662,-33.708966778261654],[18.81019204344515,-33.713674507495284],[18.813399029009453,-33.713099132210886],[18.813210382799788,-33.706448410802885],[18.82198692312564,-33.70831664299173],[18.820944877396055,-33.71789629911185],[18.813776321428783,-33.729514494365105],[18.80578131540012,-33.73288385035784],[18.799448192647077,-33.72932024807945],[18.792486249195154,-33.732510314085474],[18.77065718779105,-33.72916335652776],[18.76971395674272,-33.726316845709796],[18.771789065049038,-33.720810335054274],[18.775301477809947,-33.718217595105905],[18.77450197720708,-33.71750775351277],[18.768779708847237,-33.72175924335737],[18.76624645974602,-33.72219259956576],[18.76413541882834,-33.726316845709796],[18.752241724466597,-33.73016446912379],[18.749986953103456,-33.7404513450162],[18.729891640197703,-33.75081167895138],[18.7318320012114,-33.76916887889769],[18.70251997349058,-33.80346792807525],[18.705080172050323,-33.79618220934917],[18.709005809841923,-33.79076230732422],[18.709445984331143,-33.78466264085961],[18.71170075569428,-33.78001107322249],[18.71032633330958,-33.77500830281605],[18.715491646193268,-33.77089386523282],[18.715716225014297,-33.76686137534897],[18.71312009384319,-33.759587478594966],[18.717872181696183,-33.7560025796112],[18.71459333090915,-33.75313455248618],[18.707191212968006,-33.73325738500407],[18.704873559534974,-33.731143157461545],[18.705493397081018,-33.72923059579932],[18.702816417534343,-33.724986947405746],[18.699950791778,-33.72406048921855],[18.699366886843322,-33.72113162014243],[18.702331327280916,-33.71445910394252],[18.700453848337105,-33.71034923345298],[18.700974871201897,-33.70647082983005],[18.696312614877318,-33.700305376899465],[18.696231766501743,-33.69530543016329],[18.688542187669682,-33.68937088560509],[18.681490412689342,-33.691949547884406],[18.674869829045385,-33.689288666114706],[18.669929094982727,-33.69107505369484],[18.663101898823417,-33.67542982099019],[18.66478174840472,-33.67309736854089],[18.66093695898869,-33.66958361882026],[18.658430659345996,-33.6604322437206],[18.655565033589657,-33.659153665285665],[18.646599847054144,-33.65771804580392],[18.62953185665587,-33.661613603398216],[18.627402849432507,-33.668963090657776],[18.621078709832307,-33.67476448042665],[18.614979149053134,-33.67702960756665],[18.61583254857305,-33.68087943924082],[18.61214945590816,-33.68561113211168],[18.606049895128987,-33.67847985565771],[18.607541098500626,-33.67023404714879],[18.60653498538241,-33.66728091348344],[18.61042469056265,-33.66518001490311],[18.611143342789944,-33.660379904625465],[18.618581393342453,-33.65812181620411],[18.61885987108053,-33.65667122483187],[18.615742717044636,-33.65280535418326],[18.61583254857305,-33.6495151147172],[18.62156380008573,-33.645835879820204],[18.621500918015844,-33.6413188804959],[18.62345026218238,-33.637893580646214],[18.622893306706224,-33.63382492519179],[18.627519630419442,-33.63101265393461],[18.62758251248933,-33.62397409390312],[18.622605845815308,-33.61374060266458],[18.618527494425408,-33.58420029283706],[18.606561934840933,-33.58517315917055],[18.574995135756975,-33.57302651085991],[18.56901235596474,-33.561274891792664],[18.580429943225898,-33.5573673113034],[18.576369558141675,-33.531342210262665],[18.564026706137874,-33.52371887599294],[18.57142882407902,-33.49707686149932],[18.556660520808098,-33.48035494053246],[18.553426585785267,-33.464064446071944]]]}},{"type":"Feature","properties":{"slug":"paarl","name":"Paarl","source":"https://www.sawis.co.za/cert/productionareas.php","sourceIds":["Districts:12"],"resolution":"wine-origin","sourceYear":2018,"labelLonLat":[19.001008660640668,-33.72425472263778],"scope":"Wine of Origin district or union of named wards; SAWIS embedded public webmap (item updated 2018), retrieved 2026-10-10."},"geometry":{"type":"Polygon","coordinates":[[[18.80578131540012,-33.73288385035784],[18.813776321428783,-33.729514494365105],[18.820944877396055,-33.71789629911185],[18.82198692312564,-33.70831664299173],[18.813210382799788,-33.706448410802885],[18.813399029009453,-33.713099132210886],[18.81019204344515,-33.713674507495284],[18.809257795549662,-33.708966778261654],[18.80615860781945,-33.71015494379715],[18.804020617443246,-33.70599255598131],[18.800642951974957,-33.7057907834026],[18.797939022969757,-33.70777859628789],[18.7958549315106,-33.70730780265699],[18.796411886986757,-33.69437117765957],[18.794175081929296,-33.67922739666611],[18.802511447765927,-33.674024376448465],[18.82277744057566,-33.64162550549704],[18.787877891787616,-33.637325177097296],[18.80155923356476,-33.62042093605825],[18.818303830460746,-33.59520800939187],[18.82102572577163,-33.59647257212155],[18.83027837319806,-33.59579165603248],[18.838354227602295,-33.58965568617916],[18.84823569572761,-33.587388260054624],[18.844893962870685,-33.5842077764661],[18.844678367202498,-33.57456832434135],[18.85575459465569,-33.56890988364383],[18.862509925592267,-33.57503235990065],[18.89304366209949,-33.571290066589526],[18.90033798220654,-33.5508393112673],[18.914198987040507,-33.55094412250367],[18.93842655025321,-33.545179315692046],[18.940339961808384,-33.54681895572878],[18.941678451581723,-33.552381520916114],[18.939378764454375,-33.555712899247276],[18.93841756710037,-33.56068352602193],[18.942154558682304,-33.560593697955674],[18.941885064097068,-33.56240521256867],[18.936719751213385,-33.56275703124816],[18.936719751213385,-33.56368522684275],[18.93528244675879,-33.56363282897005],[18.934932103797983,-33.56655209056123],[18.918627681391214,-33.56740539453964],[18.923289937715797,-33.574688075692244],[18.93244377046097,-33.57270467253292],[18.929820689831345,-33.58776242688686],[18.93105138177059,-33.59171352959024],[18.926541839044308,-33.59211012649653],[18.925194366118127,-33.593337320467505],[18.924044522554457,-33.59172101256761],[18.922526369724295,-33.59450463511577],[18.929371532189286,-33.60093206547374],[18.938785876366858,-33.61880513581771],[18.948802091784792,-33.630840623723266],[18.959366279526034,-33.652476335896665],[18.968035022017787,-33.64991144567923],[18.965618553903507,-33.65889944274765],[18.966489919729103,-33.66193510986958],[18.971071327678114,-33.66657065102128],[18.980629402301144,-33.66637626237789],[18.983719606878516,-33.66873880226864],[18.98473470314957,-33.67119846630624],[18.98053058761989,-33.67443554611161],[18.98962153829518,-33.674742053126955],[18.990124594854286,-33.67096670765089],[18.999520972726177,-33.672850663140025],[19.002736941443327,-33.67761269994559],[19.011342801865194,-33.67833034667611],[19.017226766976172,-33.68383958092173],[19.022877170113286,-33.68237447303122],[19.047311345841337,-33.68573072918866],[19.053222260410845,-33.68426565352972],[19.06755937234539,-33.68736769745345],[19.086657555285772,-33.68892241470196],[19.090376580562026,-33.68446747665958],[19.107211008986425,-33.68579800247134],[19.12383882489548,-33.67539244244332],[19.127494968101843,-33.66374449597507],[19.147473500020663,-33.65602069395493],[19.148982669697986,-33.70177017912771],[19.18389120163887,-33.715295998917426],[19.188670238950387,-33.75406069673379],[19.213850016364255,-33.856524473845155],[19.19871340382684,-33.872681146755895],[19.19080822932659,-33.883562426857786],[19.189568554234505,-33.881108852919056],[19.191607729929455,-33.876596777468905],[19.193925383362487,-33.87377008304393],[19.19828221249046,-33.8721068391453],[19.196782025965984,-33.869615641918685],[19.191634679387978,-33.86845952269829],[19.189694318374283,-33.872628937132795],[19.18164541342857,-33.87397891855256],[19.17819588273755,-33.87942337826956],[19.171907675748713,-33.88237666589164],[19.165430822550213,-33.88171293086144],[19.162196887527383,-33.87941592034314],[19.157417850215865,-33.879132518656434],[19.15068048558497,-33.881944120053475],[19.145479240089916,-33.881944120053475],[19.142901075224493,-33.88013933617037],[19.135076749099813,-33.87942337826956],[19.134025720217394,-33.87738734015811],[19.126524787594995,-33.87394162653492],[19.126776315874547,-33.870316764657424],[19.122545250886343,-33.86650527267289],[19.12242846989941,-33.86497615271723],[19.126345124538172,-33.861798479270355],[19.12476408963812,-33.86012754250527],[19.117029595041853,-33.859724722501014],[19.110867152192792,-33.86273836683175],[19.107848812838153,-33.862686151127534],[19.083163108830547,-33.835358039389384],[19.027916718857195,-33.84031997584403],[19.01958933617341,-33.844848890405856],[19.022580726069528,-33.85777027254245],[19.000985226639294,-33.862305721461574],[18.99525397512661,-33.85403282193288],[18.99209190532651,-33.84513986682498],[18.984959281970603,-33.83955891557377],[18.974547807827655,-33.8604557648075],[18.97834768147948,-33.86407358613408],[18.97241880060429,-33.87781245102907],[18.96377700757106,-33.88859613426651],[18.959545942582857,-33.89134031186517],[18.956644384215153,-33.89946792855619],[18.939935719930528,-33.895344564782704],[18.93745636974636,-33.89699989932994],[18.938013325222517,-33.900064420369326],[18.91470204359961,-33.87514242131786],[18.907470605562448,-33.863171010009715],[18.879092825737114,-33.84145409229849],[18.879631814907587,-33.83982006446955],[18.87633499781487,-33.83790246685107],[18.876649408164308,-33.8337910522387],[18.868205244493588,-33.82205265887006],[18.865070124152012,-33.82442583975574],[18.856922404525044,-33.82323179471231],[18.8549281445943,-33.82663477913046],[18.852879985746508,-33.82683626738198],[18.846232452644024,-33.807834583097126],[18.834590286561834,-33.80781965474162],[18.827781056708208,-33.79630165236126],[18.822094720959733,-33.798832312004514],[18.82147488341369,-33.807782333841466],[18.818070268486874,-33.80891688193147],[18.816920424923204,-33.81307427497267],[18.792638962793454,-33.81985852738348],[18.79215387254003,-33.824410914295605],[18.796923926698703,-33.831888243507656],[18.787320936311463,-33.83208971937826],[18.77714302414239,-33.85349568984134],[18.773127554822373,-33.850422035686584],[18.77104346336322,-33.844072948443646],[18.76313828886297,-33.84654250848205],[18.762284889343054,-33.844460920305565],[18.75774839715825,-33.84572927756041],[18.7558619350616,-33.841043722950765],[18.753337669113222,-33.84302840005939],[18.753265803890493,-33.84988488088932],[18.736063066199605,-33.85010123531112],[18.734922205788774,-33.85099648916271],[18.73633256078484,-33.851876812967625],[18.73490423948309,-33.85272728667136],[18.736431375466093,-33.853682194422596],[18.73573967269732,-33.8544729693232],[18.73476050903763,-33.852816809726534],[18.732442855604603,-33.85418948482332],[18.730215033699988,-33.85317490100896],[18.719309486150774,-33.85971726285339],[18.676370015569862,-33.8577031341538],[18.675516616049947,-33.853943300152196],[18.67958598428701,-33.853003315790126],[18.689988475277115,-33.8437894294305],[18.698405689489316,-33.839685759422814],[18.700157404293346,-33.82752281637734],[18.695468198510245,-33.80916319630545],[18.70251997349058,-33.80346792807525],[18.7318320012114,-33.76916887889769],[18.729891640197703,-33.75081167895138],[18.749986953103456,-33.7404513450162],[18.752241724466597,-33.73016446912379],[18.76413541882834,-33.726316845709796],[18.76624645974602,-33.72219259956576],[18.768779708847237,-33.72175924335737],[18.77450197720708,-33.71750775351277],[18.775301477809947,-33.718217595105905],[18.771789065049038,-33.720810335054274],[18.76971395674272,-33.726316845709796],[18.77065718779105,-33.72916335652776],[18.792486249195154,-33.732510314085474],[18.799448192647077,-33.72932024807945],[18.80578131540012,-33.73288385035784]]]}},{"type":"Feature","properties":{"slug":"stellenbosch","name":"Stellenbosch","source":"https://www.sawis.co.za/cert/productionareas.php","sourceIds":["Districts:13"],"resolution":"wine-origin","sourceYear":2018,"labelLonLat":[18.843492889812957,-33.99484977023525],"scope":"Wine of Origin district or union of named wards; SAWIS embedded public webmap (item updated 2018), retrieved 2026-10-10."},"geometry":{"type":"Polygon","coordinates":[[[18.803625358718232,-34.0960165423519],[18.774735539180952,-34.08381579716029],[18.7391802202355,-34.07507332847578],[18.719830509015566,-34.07333216738214],[18.717494889276853,-34.053909098795714],[18.723863944641263,-34.05297132077526],[18.728112975935147,-34.046309821217605],[18.702771501770133,-34.02742404470899],[18.672686922904973,-34.013448692943605],[18.668815184030418,-33.99987319996189],[18.666030406649647,-33.99677503241113],[18.664772765251882,-33.986183808400604],[18.665275821810987,-33.97358732240337],[18.663191730351826,-33.96935579540043],[18.66612023817806,-33.956242684591984],[18.67131250052027,-33.94946926929946],[18.673755918093075,-33.94183828553587],[18.67239047886121,-33.93495938095369],[18.67591187477496,-33.93038307377533],[18.676540695473847,-33.924226285635754],[18.67625323458293,-33.919246862740586],[18.67175267500949,-33.905149343652546],[18.67493271111527,-33.90074292473378],[18.676280184041453,-33.894293186966465],[18.669452987882142,-33.87176374444321],[18.667961784510503,-33.83940968727502],[18.672264714721436,-33.83834269734676],[18.676370015569862,-33.8577031341538],[18.719309486150774,-33.85971726285339],[18.730215033699988,-33.85317490100896],[18.732442855604603,-33.85418948482332],[18.73476050903763,-33.852816809726534],[18.73573967269732,-33.8544729693232],[18.736431375466093,-33.853682194422596],[18.73490423948309,-33.85272728667136],[18.73633256078484,-33.851876812967625],[18.734922205788774,-33.85099648916271],[18.736063066199605,-33.85010123531112],[18.753265803890493,-33.84988488088932],[18.753337669113222,-33.84302840005939],[18.7558619350616,-33.841043722950765],[18.75774839715825,-33.84572927756041],[18.762284889343054,-33.844460920305565],[18.76313828886297,-33.84654250848205],[18.77104346336322,-33.844072948443646],[18.773127554822373,-33.850422035686584],[18.77714302414239,-33.85349568984134],[18.787320936311463,-33.83208971937826],[18.796923926698703,-33.831888243507656],[18.79215387254003,-33.824410914295605],[18.792638962793454,-33.81985852738348],[18.816920424923204,-33.81307427497267],[18.818070268486874,-33.80891688193147],[18.82147488341369,-33.807782333841466],[18.822094720959733,-33.798832312004514],[18.827781056708208,-33.79630165236126],[18.834590286561834,-33.80781965474162],[18.846232452644024,-33.807834583097126],[18.852879985746508,-33.82683626738198],[18.8549281445943,-33.82663477913046],[18.856922404525044,-33.82323179471231],[18.865070124152012,-33.82442583975574],[18.868205244493588,-33.82205265887006],[18.876649408164308,-33.8337910522387],[18.87633499781487,-33.83790246685107],[18.879631814907587,-33.83982006446955],[18.879092825737114,-33.84145409229849],[18.907470605562448,-33.863171010009715],[18.91470204359961,-33.87514242131786],[18.938013325222517,-33.900064420369326],[18.93745636974636,-33.89699989932994],[18.939935719930528,-33.895344564782704],[18.955907765682177,-33.898767045343654],[18.958458981089077,-33.90122011138247],[18.95323976928834,-33.907833345080924],[18.95021244678086,-33.90847451069437],[18.947733096596686,-33.911113676504],[18.942891177215284,-33.912194667156356],[18.941328108620915,-33.91770377891623],[18.943097789730633,-33.92148316651],[18.9481283553217,-33.924926959510785],[18.953491297567894,-33.93542892299084],[18.956653367367995,-33.93878271938741],[18.95804575605838,-33.93952053686636],[18.965789233807488,-33.93214952767485],[18.97016402924115,-33.92040229368389],[18.97818598472834,-33.91428951345774],[18.98008142997783,-33.91557919749211],[18.991849360199797,-33.95142906974705],[18.99998809667392,-33.95936468237636],[19.00892633375091,-33.964624877725925],[19.02073917973708,-33.99292450805936],[19.024844480585507,-34.01069355722898],[19.014316225455627,-34.00549578753076],[19.0099054974106,-34.008772355637625],[18.996367886078918,-34.0117062661532],[18.992046989562304,-34.01482622727467],[18.983009937804063,-34.02690289548775],[18.982443999175068,-34.03288102931678],[18.98759134575307,-34.03670740944852],[18.98570488365642,-34.04357808294179],[18.992154787396398,-34.052100517610384],[18.984941315664916,-34.05297132077526],[18.97931786198633,-34.05230891576314],[18.97622765740896,-34.053358341532956],[18.97772784393344,-34.05592603065742],[18.976820545496476,-34.058865753138605],[18.978365647785164,-34.06083791487209],[18.97020894500536,-34.06315979741128],[18.971152176053682,-34.06507976761188],[18.974224414325374,-34.066441580569204],[18.971161159206524,-34.06995391514877],[18.967091790969466,-34.06947767492518],[18.96714568988651,-34.07422507497783],[18.972535581591227,-34.079121017656455],[18.974637639356068,-34.08832432612129],[18.967513999153002,-34.09156049839631],[18.96502566581599,-34.094662643956404],[18.966804330078546,-34.10104511820813],[18.962258854740902,-34.108936999383026],[18.961773764487475,-34.114277176169104],[18.95150602078999,-34.123729503683535],[18.94910751898139,-34.133344359272414],[18.94292710982665,-34.135002495257254],[18.931913764443344,-34.1432332088956],[18.930188999097833,-34.14633345953593],[18.92122381256232,-34.15203554192463],[18.91243828908363,-34.154689443778906],[18.89958339736788,-34.16132755014745],[18.891624323950584,-34.16398115998403],[18.88567747676971,-34.16458322791786],[18.870828325123217,-34.172736737434946],[18.866525394912284,-34.17276646620166],[18.858817849774535,-34.176378433422954],[18.835704197514143,-34.18113469761944],[18.82395423359786,-34.18800108106186],[18.818654173421553,-34.19307619786995],[18.819929781125,-34.18446392302631],[18.827978686070715,-34.177366866645286],[18.83553351761016,-34.17283335588848],[18.85769495566939,-34.16592114128684],[18.860075491172303,-34.16354261397139],[18.86651641175944,-34.16085182416155],[18.866992518860023,-34.15784874201121],[18.852233198741942,-34.14745606420413],[18.844732266119543,-34.137530532354006],[18.843151231219494,-34.137456179401156],[18.838039817252852,-34.13295770405162],[18.83097007596683,-34.12517960993425],[18.83041312049068,-34.121372098392],[18.827610376804223,-34.11923029780257],[18.82506814455017,-34.119170802567375],[18.824223728183096,-34.116872767076295],[18.822202518793823,-34.115846439792115],[18.82117843936993,-34.110841056519526],[18.812635461017955,-34.10187822618329],[18.803625358718232,-34.0960165423519]]]}},{"type":"Feature","properties":{"slug":"franschhoek","name":"Franschhoek","source":"https://www.sawis.co.za/cert/productionareas.php","sourceIds":["Districts:21"],"resolution":"wine-origin","sourceYear":2018,"labelLonLat":[19.112296269317753,-33.90270383466222],"scope":"Wine of Origin district or union of named wards; SAWIS embedded public webmap (item updated 2018), retrieved 2026-10-10."},"geometry":{"type":"Polygon","coordinates":[[[19.03221066591529,-33.89311503188595],[19.031968120788576,-33.90484366035178],[19.025338553991773,-33.90412790979866],[19.024530070236068,-33.90658082159763],[19.017379480574473,-33.9067746657214],[19.00839632773328,-33.90905602882417],[18.99973656839437,-33.90427702499278],[18.988067452853652,-33.9071847191461],[18.991912242269688,-33.91265687966442],[18.987312868014993,-33.91261960455508],[18.98632472120246,-33.916309761290925],[18.978302765715277,-33.91420005488176],[18.97016402924115,-33.92040229368389],[18.965789233807488,-33.93214952767485],[18.95804575605838,-33.93952053686636],[18.953491297567894,-33.93542892299084],[18.9481283553217,-33.924926959510785],[18.942379137503334,-33.920372476308124],[18.941328108620915,-33.91770377891623],[18.942585750018683,-33.912559964346244],[18.947733096596686,-33.911113676504],[18.949736339680275,-33.90876527025518],[18.955018433550897,-33.90622295436491],[18.958467964241915,-33.9012350234222],[18.956644384215153,-33.89946792855619],[18.95912373439932,-33.89199651516725],[18.96377700757106,-33.88859613426651],[18.97241880060429,-33.87781245102907],[18.97834768147948,-33.86407358613408],[18.974547807827655,-33.8604557648075],[18.984959281970603,-33.83955891557377],[18.99209190532651,-33.84513986682498],[18.99525397512661,-33.85403282193288],[19.000985226639294,-33.862305721461574],[19.022580726069528,-33.85777027254245],[19.01958933617341,-33.844848890405856],[19.027916718857195,-33.84031997584403],[19.083163108830547,-33.835358039389384],[19.107848812838153,-33.862686151127534],[19.110867152192792,-33.86273836683175],[19.117029595041853,-33.859724722501014],[19.12476408963812,-33.86012754250527],[19.126345124538172,-33.861798479270355],[19.12242846989941,-33.86497615271723],[19.122545250886343,-33.86650527267289],[19.126776315874547,-33.870316764657424],[19.126524787594995,-33.87394162653492],[19.134025720217394,-33.87738734015811],[19.135076749099813,-33.87942337826956],[19.142901075224493,-33.88013933617037],[19.145479240089916,-33.881944120053475],[19.15068048558497,-33.881944120053475],[19.15338441459017,-33.88847682019432],[19.15400425213621,-33.89436775319607],[19.15843294648692,-33.90127975952577],[19.15579189955161,-33.9069908759548],[19.145973313496185,-33.91554937842851],[19.145739751522314,-33.91797214332788],[19.15106676115714,-33.9302116438094],[19.14617992601153,-33.93492956867344],[19.14782384298147,-33.93670338118312],[19.147662146230328,-33.93909573364422],[19.136648800847023,-33.945489915858836],[19.129677874242258,-33.95643641571197],[19.1291209187661,-33.95965526822763],[19.121098963278914,-33.96259087475227],[19.118404017426556,-33.96228539757744],[19.11084020273427,-33.967321905562144],[19.09641325927131,-33.95672701156486],[19.078258307379254,-33.9332749707553],[19.073057061884203,-33.935205331867486],[19.075446580539957,-33.92974952653027],[19.073299607010913,-33.92575434358063],[19.073317573316594,-33.90746802763277],[19.04380791623327,-33.885836953654504],[19.04307129770029,-33.88248853083773],[19.040493132834868,-33.88047493936847],[19.03829226038878,-33.88060918027812],[19.03221066591529,-33.89311503188595]]]}},{"type":"Feature","properties":{"slug":"constantia","name":"Constantia","source":"https://www.sawis.co.za/cert/productionareas.php","sourceIds":["Wards:41"],"resolution":"wine-origin","sourceYear":2018,"labelLonLat":[18.413776420000723,-34.03800623009792],"scope":"Wine of Origin district or union of named wards; SAWIS embedded public webmap (item updated 2018), retrieved 2026-10-10."},"geometry":{"type":"Polygon","coordinates":[[[18.403327084961735,-34.01846727796462],[18.403542680629922,-34.01483367334545],[18.406192710718077,-34.00976274793277],[18.414906368974034,-34.006977705583196],[18.41673893215364,-34.008027692168966],[18.419954900870785,-34.00691813148702],[18.426674299195998,-34.00048388311879],[18.427159389449425,-33.99870395288709],[18.425820899676086,-33.99708038567462],[18.426907861169873,-33.993885293530745],[18.43148926911888,-33.992373354900735],[18.446239606084124,-33.996156874883745],[18.44860217528136,-33.99988064734391],[18.453911218610504,-33.9988826923355],[18.46185232572212,-34.003738303458334],[18.46198707301474,-34.01009039396873],[18.458088384681663,-34.01378377091913],[18.452644594059894,-34.01426032398421],[18.44719182028529,-34.019658589884756],[18.44443399236304,-34.029173593685805],[18.440032247470857,-34.03018608214659],[18.436897127129278,-34.03257580479221],[18.430788583197266,-34.04343665540363],[18.424060201719215,-34.04939873804561],[18.433654208953612,-34.06056255919779],[18.431417403896152,-34.072565747522795],[18.4295309417995,-34.07592901418728],[18.429962133135877,-34.07860018614267],[18.432351651791635,-34.08057932885529],[18.418778107848592,-34.08289323029394],[18.386124347270844,-34.053417883031166],[18.403327084961735,-34.01846727796462]]]}},{"type":"Feature","properties":{"slug":"hemel-en-aarde","name":"Hemel-en-Aarde","source":"https://www.sawis.co.za/cert/productionareas.php","sourceIds":["Wards:52","Wards:53","Wards:63"],"resolution":"wine-origin","sourceYear":2018,"labelLonLat":[19.259668789514528,-34.36399861591987],"scope":"Wine of Origin district or union of named wards; SAWIS embedded public webmap (item updated 2018), retrieved 2026-10-10."},"geometry":{"type":"Polygon","coordinates":[[[19.21073286232836,-34.38744626051871],[19.22194383707417,-34.37814213681722],[19.22720796463911,-34.371610098531754],[19.22786373479652,-34.365559538286824],[19.219419571125794,-34.36243769355292],[19.210939474843705,-34.36233387724051],[19.20569331358445,-34.35988674120124],[19.205747212501496,-34.357713921129914],[19.20118377085817,-34.35556329289295],[19.195138108996044,-34.34945965776002],[19.190772296715224,-34.34842132808911],[19.19352114148463,-34.341768296415765],[19.227073217346494,-34.34234684186426],[19.30385222468019,-34.32880189764378],[19.3139942042379,-34.31879385014147],[19.341437736167748,-34.316456736103035],[19.347878656754887,-34.321027031644064],[19.348237982868532,-34.32580480179922],[19.345201677208212,-34.327681708507946],[19.346980341470765,-34.328824152905554],[19.346854577330994,-34.33030040542003],[19.341087393206944,-34.331324123067105],[19.339793819197812,-34.33262229777082],[19.341994691643905,-34.33667989145645],[19.339003301747784,-34.3374142430119],[19.338149902227872,-34.33517407977513],[19.33634428850679,-34.337065612267004],[19.331726947946418,-34.33627933335267],[19.33063998645263,-34.33521116905751],[19.33303848826123,-34.333534717112336],[19.332391701256668,-34.33164310499875],[19.329831502696926,-34.33468449971077],[19.321908361890994,-34.335886191131486],[19.324046352267196,-34.34748682039042],[19.313598945512886,-34.352856389262605],[19.29752808507999,-34.346033121044556],[19.30429239916941,-34.355756110090304],[19.292668199392903,-34.366901673310316],[19.27056066025072,-34.37255175182004],[19.25855018490204,-34.39656403988411],[19.22222231481225,-34.411135598575726],[19.204390756422477,-34.401619161051784],[19.21073286232836,-34.38744626051871]]]}}]}
